oid,x,y,AREA,PERIMETER,ESRI_NUM,ESRI_ID,AREA1,PERIMETER1,CNTYPT_,CNTYPT_ID,GEOGLOBE_P,PINYIN,CLASS,ID,PN,ADCODE93
1,122.53233,52.968872,0,0,0,0,0,0,0,0,漠河县,Mohe Xian,AI,0,0,0
2,124.7058,52.340332,0,0,0,0,0,0,0,0,塔河县,Tahe Xian,AI,0,0,0
3,126.64722,51.721256,0,0,0,0,0,0,0,0,呼玛县,Huma Xian,AI,0,0,0
4,121.52889,50.778202,0,0,0,0,0,0,0,0,额尔古纳左旗,Ergun Zuoqi,AI,0,0,0
5,123.7121,50.584728,0,0,0,0,0,0,0,0,鄂伦春自治旗,Oroqen Zizhiqi,AI,0,0,0
6,120.18608,50.256592,0,0,0,0,0,0,0,0,额尔古纳右旗,Ergun Youqi,AI,0,0,0
7,127.48344,50.241886,0,0,0,0,0,0,0,0,黑河市,Heihe Shi,AH,0,0,0
8,117.44364,49.578434,0,0,0,0,0,0,0,0,满洲里市,Manzhouli Shi,AH,0,0,0
9,128.46942,49.573723,0,0,0,0,0,0,0,0,逊克县,Xunke Xian,AI,0,0,0
10,127.30821,49.417625,0,0,0,0,0,0,0,0,孙吴县,Sunwu Xian,AI,0,0,0
11,119.43135,49.326984,0,0,0,0,0,0,0,0,陈巴尔虎旗,Chen Barag Qi,AI,6,0,0
12,120.72807,49.282692,0,0,0,0,0,0,0,0,牙克石市,Yakeshi Shi,AH,0,0,0
13,125.21407,49.16605,0,0,0,0,0,0,0,0,嫩江县,Nenjiang Xian,AI,0,0,0
14,119.73965,49.135914,0,0,0,0,0,0,0,0,鄂温克族自治旗,Ewenkizu Zizhiqi,AI,0,0,0
15,130.39046,48.886162,0,0,0,0,0,0,0,0,嘉荫县,Jiayin Xian,AI,0,0,0
16,116.82276,48.657913,0,0,0,0,0,0,0,0,新巴尔虎右旗,Xin Barag Youqi,AI,0,0,0
17,126.13609,48.648151,0,0,0,0,0,0,0,0,五大连池市,Wudalianchi Shi,AH,0,0,0
18,126.18587,48.510941,0,0,0,0,0,0,0,0,德都县,Dedu Xian,AI,0,0,0
19,124.50088,48.472195,0,0,0,0,0,0,0,0,莫力达瓦达斡尔族自治旗,Morin Dawa Daurzu Zizhiqi,AI,0,0,0
20,124.87743,48.47015,0,0,0,0,0,0,0,0,讷河县,Nehe Xian,AI,0,0,0
21,134.27904,48.366611,0,0,0,0,0,0,0,0,抚远县,Fuyuan Xian,AI,0,0,0
22,126.50303,48.242203,0,0,0,0,0,0,0,0,北安市,Bei'an Shi,AH,0,0,0
23,118.26714,48.21603,0,0,0,0,0,0,0,0,新巴尔虎左旗,Xin Barag Zuoqi,AI,0,0,0
24,123.46703,48.119438,0,0,0,0,0,0,0,0,阿荣旗,Arong Qi,AI,0,0,0
25,86.419479,48.059563,0,0,0,0,0,0,0,0,哈巴河县,Habahe(Kaba) Xian,AI,0,0,0
26,126.23415,48.037834,0,0,0,0,0,0,0,0,克东县,Kedong Xian,AI,0,0,0
27,125.86457,48.032482,0,0,0,0,0,0,0,0,克山县,Keshan Xian,AI,0,0,0
28,122.73337,48.010651,0,0,0,0,0,0,0,0,扎兰屯市,Zalantun Shi,AH,0,0,0
29,123.49532,47.913578,0,0,0,0,0,0,0,0,甘南县,Gannan Xian,AI,0,0,0
30,125.30224,47.886478,0,0,0,0,0,0,0,0,依安县,Yi'an Xian,AI,0,0,0
31,124.45644,47.800655,0,0,0,0,0,0,0,0,富裕县,Fuyu Xian,AI,0,0,0
32,86.861977,47.705654,0,0,0,0,0,0,0,0,布尔津县,Burqin Xian,AI,0,0,0
33,132.51485,47.654018,0,0,0,0,0,0,0,0,同江市,Tongjiang Shi,AH,0,0,0
34,126.08456,47.606743,0,0,0,0,0,0,0,0,拜泉县,Baiquan Xian,AI,0,0,0
35,130.82489,47.575756,0,0,0,0,0,0,0,0,萝北县,Luobei Xian,AI,0,0,0
36,126.96616,47.461086,0,0,0,0,0,0,0,0,海伦市,Hailun Shi,AH,0,0,0
37,85.878387,47.440144,0,0,0,0,0,0,0,0,吉木乃县,Jeminay Xian,AI,0,0,0
38,123.18169,47.335445,0,0,0,0,0,0,3,0,龙江县,Longjiang Xian,AI,0,0,0
39,131.84804,47.291882,0,0,0,0,0,0,5,0,绥滨县,Suibin Xian,AI,0,0,0
40,132.03078,47.250305,0,0,0,0,0,0,7,0,富锦市,Fujin Shi,AH,0,0,0
41,127.09043,47.246063,0,0,0,0,0,0,8,0,绥棱县,Suileng Xian,AI,2,0,0
42,124.8744,47.180717,0,0,0,0,0,0,0,0,林甸县,Lindian Xian,AI,0,0,0
43,125.90207,47.178699,0,0,0,0,0,0,0,0,明水县,Mingshui Xian,AI,0,0,0
44,87.498253,47.113373,0,0,0,0,0,0,0,0,福海县,Fuhai(Burultokay) Xian,AI,0,0,0
45,130.71622,47.021423,0,0,0,0,0,0,0,0,桦川县,Huachuan Xian,AI,0,0,0
46,89.523582,46.997253,0,0,0,0,0,0,0,0,富蕴县,Fuyun Xian,AI,0,0,0
47,128.04051,46.980118,0,0,0,0,0,0,0,0,铁力市,Tieli Shi,AH,3,0,0
48,127.50027,46.879078,0,0,0,0,0,0,0,0,庆安县,Qing'an Xian,AI,0,0,0
49,124.44391,46.865696,0,0,1,1,0,0,0,0,杜尔伯特蒙古族自治县,Dorbod Mongolzu Zizhixian,AI,0,0,0
50,126.47477,46.833145,0,0,2,2,0,0,0,0,望奎县,Wangkui Xian,AI,0,0,0
51,85.729179,46.793945,0,0,3,3,0,0,0,0,和布克赛尔蒙古自治县,Hoboksar Mongol Zizhixian,AI,0,0,0
52,134.01505,46.792568,0,0,4,4,0,0,0,0,饶河县,Raohe Xian,AI,0,0,0
53,131.79964,46.781513,0,0,5,5,0,0,0,0,友谊县,Youyi Xian,AI,0,0,0
54,82.985199,46.748272,0,0,6,6,0,0,0,0,塔城市,Tacheng Shi,AH,0,0,0
55,131.13321,46.7276,0,0,7,7,0,0,0,0,集贤县,Jixian Xian,AI,0,0,0
56,129.89713,46.725208,0,0,8,8,0,0,0,0,汤原县,Tangyuan Xian,AI,0,0,0
57,122.90926,46.719791,0,0,9,9,0,0,0,0,扎赉特旗,Jalaid Qi,AI,8,0,0
58,126.10548,46.684788,0,0,0,0,0,0,0,0,青冈县,Qinggang Xian,AI,0,0,0
59,90.380791,46.673096,0,0,0,0,0,0,0,0,青河县,Qinghe(Qinggil) Xian,AI,0,0,0
60,83.623169,46.522923,0,0,0,0,0,0,0,0,额敏县,Emin Xian,AI,0,0,0
61,125.32845,46.401035,0,0,0,0,0,0,0,0,安达市,Anda Shi,AH,0,0,0
62,123.4163,46.388062,0,0,0,0,0,0,0,0,泰来县,Tailai Xian,AI,0,0,0
63,132.1994,46.324081,0,0,0,0,0,0,0,0,宝清县,Baoqing Xian,AI,0,0,0
64,129.55681,46.313061,0,0,0,0,0,0,0,0,依兰县,Yilan Xian,AI,0,0,0
65,126.28249,46.256268,0,0,0,0,0,0,0,0,兰西县,Lanxi Xian,AI,0,0,0
66,130.5743,46.239063,0,0,0,0,0,0,0,0,桦南县,Huanan Xian,AI,0,0,0
67,82.973236,46.209988,0,0,0,0,0,0,0,0,裕民县,Yumin Xian,AI,0,0,0
68,127.39575,46.074036,0,0,0,0,0,0,0,0,巴彦县,Bayan Xian,AI,0,0,0
69,125.98175,46.063438,0,0,0,0,0,0,0,0,肇东市,Zhaodong Shi,AH,0,0,0
70,122.06915,46.063198,0,0,0,0,0,0,0,0,科尔沁右翼前旗,Horqin Youyi Qianqi,AI,0,0,0
71,126.5983,45.980553,0,0,0,0,0,0,0,0,呼兰县,Hulan Xian,AI,0,0,0
72,128.7381,45.973423,0,0,0,0,0,0,0,0,通河县,Tonghe Xian,AI,0,0,0
73,128.03384,45.946217,0,0,0,0,0,0,0,0,木兰县,Mulan Xian,AI,0,0,0
74,83.602913,45.932159,0,0,0,0,0,0,0,3,托里县,Tuoli Xian,AI,0,0,0
75,123.20025,45.841965,0,0,0,0,0,0,0,0,镇赉县,Zhenlai Xian,AI,0,0,0
76,128.82449,45.83102,0,0,0,0,0,0,0,0,方正县,Fangzheng Xian,AI,0,0,0
77,132.9675,45.762371,0,0,0,0,0,0,0,0,虎林县,Hulin Xian,AI,0,0,0
78,127.47471,45.753532,0,0,0,0,0,0,0,0,宾县,Bin Xian,AI,0,0,0
79,130.5697,45.752316,0,0,0,0,0,0,0,0,勃利县,Boli Xian,AI,0,0,0
80,125.26789,45.696548,0,0,0,0,0,0,0,0,肇州县,Zhaozhou Xian,AI,0,0,0
81,126.96511,45.545208,0,0,0,0,0,0,0,0,阿城市,Acheng Shi,AH,0,0,0
82,131.86687,45.538898,0,0,0,0,0,0,0,0,密山市,Mishan Shi,AH,0,0,0
83,119.63091,45.536461,0,0,0,0,0,0,0,0,霍林郭勒市,Holingol Shi,AH,0,0,0
84,116.96892,45.512962,0,0,0,0,0,0,0,0,东乌珠穆沁旗,Dong Ujimqin Qi,AI,0,0,0
85,125.08257,45.511818,0,0,0,0,0,0,0,0,肇源县,Zhaoyuan Xian,AI,0,0,0
86,124.28724,45.500519,0,0,0,0,0,0,0,0,大安市,Da'an Shi,AH,0,0,0
87,128.32753,45.449497,0,0,0,0,0,0,0,0,延寿县,Yanshou Xian,AI,0,0,0
88,121.55369,45.377369,0,0,0,0,0,0,0,0,突泉县,Tuquan Xian,AI,0,0,0
89,122.77431,45.337811,0,0,0,0,0,0,0,0,洮南市,Taonan Shi,AH,0,0,0
90,130.27058,45.274105,0,0,0,0,0,0,0,0,林口县,Linkou Xian,AI,0,0,0
91,131.12247,45.243252,0,0,0,0,0,0,0,0,鸡东县,Jidong Xian,AI,0,0,0
92,127.95433,45.213657,0,0,0,0,0,0,0,0,尚志市,Shangzhi Shi,AH,0,0,0
93,124.82204,45.172604,0,0,0,0,0,0,0,0,扶余市,Fuyu Shi,AH,0,0,0
94,124.82263,45.111732,0,0,0,0,0,0,0,0,前郭尔罗斯蒙古族自治县,Qian Gorlos Mongolzu Zizhixian,AI,0,0,0
95,121.46558,45.057373,0,0,0,0,0,0,0,0,科尔沁右翼中旗,Horqin Youyi Zhongqi,AI,0,0,0
96,124.01143,44.99802,0,0,0,0,0,0,0,0,乾安县,Qian'an Xian,AI,0,0,0
97,81.029633,44.970646,0,0,0,0,0,0,0,0,温泉县,Wenquan Xian,AI,5,0,0
98,130.51442,44.915733,0,0,0,0,0,0,0,0,穆棱县,Muleng Xian,AI,0,0,0
99,127.15595,44.914169,0,0,0,0,0,0,0,0,五常县,Wuchang Xian,AI,0,0,0
100,82.073204,44.906643,0,0,0,0,0,0,0,0,博乐市,Bole Shi,AI,0,0,0
101,126.55003,44.824448,0,0,0,0,0,0,0,0,榆树县,Yushu Xian,AI,0,0,0
102,123.08252,44.800243,0,0,0,0,0,0,0,0,通榆县,Tongyu Xian,AI,0,0,0
103,82.883011,44.608646,0,0,0,0,0,0,0,0,精河县,Jinghe Xian,AI,0,0,0
104,117.60939,44.58707,0,0,0,0,0,0,0,0,西乌珠穆沁旗,Xi Ujimqin Qi,AI,0,0,0
105,129.38557,44.565834,0,0,0,0,0,0,0,0,海林县,Hailin Xian,AI,0,0,0
106,120.90306,44.549728,0,0,0,0,0,0,0,0,扎鲁特旗,Jarud Qi,AI,0,0,0
107,125.69254,44.52808,0,0,0,0,0,0,0,0,德惠县,Dehui Xian,AI,0,0,0
108,84.682953,44.425018,0,0,0,0,0,0,0,0,乌苏县,Usu Xian,AI,0,0,0
109,125.17992,44.421436,0,0,0,0,0,0,0,0,农安县,Nong'an Xian,AI,0,0,0
110,126.93617,44.400906,0,0,0,0,0,0,0,0,舒兰县,Shulan Xian,AI,0,0,0
111,131.15755,44.395725,0,0,0,0,0,0,0,0,绥芬河市,Suifenhe Shi,AH,0,0,0
112,129.47766,44.34462,0,0,0,0,0,0,0,0,宁安县,Ning'an Xian,AI,0,0,0
113,85.61586,44.324142,0,0,0,0,0,0,0,0,沙湾县,Shawan Xian,AI,0,0,0
114,86.213585,44.296005,0,0,0,0,0,0,0,0,玛纳斯县,Manas Xian,AI,2,0,0
115,123.97492,44.272644,0,0,0,0,0,0,0,0,长岭县,Changling Xian,AI,0,0,0
116,86.898254,44.191418,0,0,0,0,0,0,0,0,呼图壁县,Hutubi Xian,AI,0,0,0
117,87.969818,44.160519,0,0,0,0,0,0,0,0,阜康县,Fukang Xian,AI,0,0,0
118,125.82018,44.155857,0,0,0,0,0,0,0,0,九台市,Jiutai Shi,AH,0,0,0
119,123.31113,44.120445,0,0,0,0,0,0,0,0,科尔沁左翼中旗,Horqin Zuoyi Zhongqi,AI,0,0,0
120,131.11992,44.052681,0,0,0,0,0,0,0,0,东宁县,Dongning Xian,AI,0,0,0
121,80.867546,44.05172,0,0,0,0,0,0,0,0,霍城县,Huocheng Xian,AI,2,0,0
122,89.582031,44.019131,0,0,0,0,0,0,0,0,奇台县,Qitai Xian,AI,0,0,0
123,114.96422,44.018219,0,0,0,0,0,0,0,0,阿巴嘎旗,Abag Qi,AI,0,0,0
124,89.176849,43.996189,0,0,0,0,0,0,0,0,吉木萨尔县,Jimsar Xian,AI,0,0,0
125,119.38038,43.978539,0,0,0,0,0,0,0,0,巴林左旗,Bairin Zuoqi,AI,0,0,0
126,81.521751,43.972324,0,0,0,0,0,0,0,0,伊宁县,Yining Xian,AI,0,0,0
127,87.649017,43.959145,0,0,0,0,0,0,0,0,米泉县,Miquan Xian,AI,0,0,0
128,116.06921,43.945251,0,0,0,0,0,0,0,2,锡林浩特市,Xilinhot Shi,AH,0,0,0
129,120.08838,43.880848,0,0,0,0,0,0,0,0,阿鲁科尔沁旗,Ar Horqin Qi,AI,0,0,0
130,113.72523,43.843979,0,0,0,0,0,0,0,0,苏尼特左旗,Sonid Zuoqi,AI,0,0,0
131,81.149147,43.835987,0,0,0,0,0,0,0,0,察布查尔锡伯自治县,Qapqal Xibo Zizhixian,AI,0,0,0
132,90.289841,43.821411,0,0,0,0,0,0,0,0,木垒哈萨克自治县,Mori Kazak Zizhixian,AI,0,0,0
133,87.604065,43.790722,0,0,0,0,0,0,0,3,乌鲁木齐县,Uuruumqi Xian,AI,0,0,0
134,82.499557,43.784065,0,0,0,0,0,0,0,0,尼勒克县,Nilka Xian,AI,0,0,0
135,127.33633,43.717735,0,0,0,0,0,0,0,0,蛟河市,Jiaohe Shi,AH,0,0,0
136,126.4883,43.659443,0,0,0,0,0,0,0,0,永吉县,Yongji Xian,AI,0,0,0
137,111.97012,43.649315,0,0,0,0,0,0,0,0,二连浩特市,Erenhot Shi,AH,0,0,0
138,118.05101,43.600822,0,0,0,0,0,0,0,0,林西县,Linxi Xian,AI,0,0,0
139,121.3074,43.599083,0,0,0,0,0,0,0,0,开鲁县,Kailu Xian,AI,0,0,0
140,93.013557,43.592571,0,0,0,0,0,0,0,7,巴里坤哈萨克自治县,Barkol Kazak Zizhixian,AI,0,0,0
141,125.6726,43.526459,0,0,0,0,0,0,0,0,双阳县,Shuangyang Xian,AI,0,0,0
142,118.66698,43.52235,0,0,0,0,0,0,0,0,巴林右旗,Bairin Youqi,AI,0,0,0
143,123.49197,43.511112,0,0,0,0,0,0,0,0,双辽县,Shuangliao Xian,AI,0,0,0
144,124.80091,43.510063,0,0,0,0,0,0,0,0,公主岭市,Gongzhuling Shi,AH,0,0,0
145,82.228157,43.479759,0,0,0,0,0,0,0,0,巩留县,Gongliu(Tokkuztara) Xian,AI,9,0,0
146,83.256989,43.436592,0,0,0,0,0,0,0,0,新源县,Xinyuan Xian,AI,0,0,0
147,128.22623,43.369633,0,0,0,0,0,0,0,0,敦化市,Dunhua Shi,AH,0,0,0
148,125.29884,43.345936,0,0,0,0,0,0,0,0,伊通满族自治县,Yitong Manzu Zizhixian,AI,7,0,0
149,124.33254,43.314472,0,0,0,0,0,0,0,0,梨树县,Lishu Xian,AI,0,0,0
150,129.75644,43.309116,0,0,0,0,0,0,0,0,汪清县,Wangqing Xian,AI,0,0,0
151,94.68132,43.252964,0,0,0,0,0,0,0,0,伊吾县,Yiwu(Aratuuruk) Xian,AI,5,0,0
152,117.5106,43.248016,0,0,0,0,0,0,0,0,克什克腾旗,Hexigten Qi,AI,0,0,0
153,81.841316,43.212692,0,0,0,0,0,0,0,5,特克斯县,Tekes Xian,AI,0,0,0
154,81.127487,43.157982,0,0,0,0,0,0,0,0,昭苏县,Zhaosu Xian,AI,0,0,0
155,128.91269,43.110596,0,0,0,0,0,0,0,0,安图县,Antu Xian,AI,0,0,0
156,126.73363,42.96772,0,0,0,0,0,0,0,0,桦甸市,Huadian Shi,AH,0,0,0
157,129.84412,42.966022,0,0,0,0,0,0,0,0,图们市,Tumen Shi,AH,0,0,0
158,122.34619,42.948235,0,0,0,0,0,0,0,0,科尔沁左翼后旗,Horqin Zuoyi Houqi,AI,0,0,0
159,126.06308,42.944679,0,0,0,0,0,0,0,0,磐石县,Panshi Xian,AI,0,0,0
160,119.01878,42.934437,0,0,0,0,0,0,0,0,翁牛特旗,Wengniute Qi,AI,0,0,0
161,124.979,42.909512,0,0,0,0,0,0,0,0,东辽县,Dongliao Xian,AI,0,0,0
162,130.3632,42.874271,0,0,0,0,0,0,0,0,珲春市,Huichun Shi,AH,0,0,0
163,90.214363,42.86079,0,0,0,0,0,0,0,0,鄯善县,Shanshan(Piqan) Xian,AI,0,0,0
164,120.64565,42.843887,0,0,0,0,0,0,0,0,奈曼旗,Naiman Qi,AI,0,0,0
165,88.657135,42.788231,0,0,0,0,0,0,0,0,托克逊县,Toksun Xian,AI,0,0,0
166,129.43204,42.77277,0,0,0,0,0,0,0,0,龙井市,Longjing Shi,AH,0,0,0
167,124.12056,42.770992,0,0,0,0,0,0,0,0,昌图县,Changtu Xian,AI,0,0,0
168,123.34136,42.745182,0,0,0,0,0,0,0,3,康平县,Kangping Xian,AI,0,0,0
169,112.64438,42.740559,0,0,0,0,0,0,0,0,苏尼特右旗,Sunid Youqi,AI,0,0,0
170,124.71805,42.735374,0,0,0,0,0,0,0,0,西丰县,Xifeng Xian,AI,0,0,0
171,121.76318,42.727966,0,0,0,0,0,0,0,0,库伦旗,Hure Qi,AI,0,0,0
172,126.03673,42.680046,0,0,0,0,0,0,0,0,辉南县,Huinan Xian,AI,0,0,0
173,125.52465,42.670563,0,0,0,0,0,0,0,0,东丰县,Dongfeng Xian,AI,0,0,0
174,124.0381,42.536697,0,0,0,0,0,0,0,0,开原市,Kaiyuan Shi,AH,0,0,0
175,129.0034,42.535286,0,0,0,0,0,0,0,0,和龙县,Helong Xian,AI,0,0,0
176,125.68069,42.534595,0,0,0,0,0,0,0,0,梅河口市,Meihekou Shi,AH,0,0,0
177,123.40656,42.502869,0,0,0,0,0,0,0,0,法库县,Faku Xian,AI,0,0,0
178,123.54409,42.468254,0,0,0,0,0,0,0,0,铁法市,Tiefa Shi,AH,2,0,0
179,126.79465,42.390255,0,0,0,0,0,0,0,0,靖宇县,Jingyu Xian,AI,0,0,0
180,122.53844,42.384422,0,0,0,0,0,0,0,0,彰武县,Zhangwu Xian,AI,0,0,0
181,127.26592,42.32552,0,0,0,0,0,0,0,0,抚松县,Fusong Xian,AI,0,0,0
182,86.386162,42.315994,0,0,0,0,0,0,0,0,和静县,Hejing Xian,AI,0,0,0
183,114.99789,42.306622,0,0,0,0,0,0,0,0,正镶白旗,Zhengxiangbai Qi,AI,0,0,0
184,123.84785,42.295509,0,0,0,0,0,0,0,0,铁岭县,Tieling Xian,AI,0,0,0
185,119.89611,42.284286,0,0,0,0,0,0,0,0,敖汉旗,Aohan Qi,AI,0,0,0
186,125.72972,42.270134,0,0,0,0,0,0,0,0,柳河县,Liuhe Xian,AI,0,0,0
187,86.862968,42.256554,0,0,0,0,0,0,0,0,和硕县,Hoxud Xian,AI,0,0,0
188,115.99543,42.246212,0,0,0,0,0,0,0,0,正蓝旗,Zhenglan Qi,AI,0,0,0
189,113.84228,42.242733,0,0,0,0,0,0,0,0,镶黄旗,Xianghuang Qi,AI,0,0,0
190,116.47095,42.184219,0,0,0,0,0,0,0,0,多伦县,Duolun Xian,AI,0,0,0
191,124.91458,42.100761,0,0,0,0,0,0,0,0,清原满族自治县,Qingyuan Manzu Zizhixian,AI,0,0,0
192,86.560768,42.058575,0,0,0,0,0,0,0,0,焉耆回族自治县,Yanqi Huizu Zizhixian,AI,0,0,0
193,121.73553,42.049374,0,0,0,0,0,0,0,0,阜新蒙古族自治县,Fuxin Mongolzu Zizhixian,AI,0,0,0
194,122.82283,41.992039,0,0,0,0,0,0,0,0,新民县,Xinmin Xian,AI,0,0,0
195,101.07177,41.971432,0,0,0,0,0,0,0,0,额济纳旗,Ejin Qi,AI,0,0,0
196,86.638428,41.971031,0,0,0,0,0,0,0,0,博湖县,Bohu(Bagrax) Xian,AI,0,0,0
197,117.74023,41.942501,0,0,0,0,0,0,0,0,围场满族蒙古族自治县,Weichang Manzu Mongolzu Zizhixian,AI,0,0,0
198,118.68694,41.929714,0,0,0,0,0,0,0,0,喀喇沁旗,Harqin Qi,AI,0,0,0
199,115.27753,41.890621,0,0,0,0,0,0,0,0,太仆寺旗,Taibus Qi,AI,0,0,0
200,113.98579,41.889935,0,0,0,0,0,0,0,0,化德县,Huade Xian,AI,0,0,1
201,114.60369,41.848736,0,0,0,0,0,0,0,0,康保县,Kangbao Xian,AI,0,0,0
202,123.78885,41.846016,0,0,0,0,0,0,0,0,抚顺县,Fushun Xian,AI,0,0,0
203,120.76239,41.811039,0,0,0,0,0,0,0,0,北票市,Beipiao Shi,AH,0,0,0
204,81.866699,41.793251,0,0,0,0,0,0,0,0,拜城县,Baicheng Xian,AI,0,0,0
205,84.25119,41.773773,0,0,0,0,0,0,0,0,轮台县,Luntai(Buuguur) Xian,AI,0,0,0
206,86.136261,41.756794,0,0,0,0,0,0,0,0,库尔勒市,Korla Shi,AH,0,0,0
207,125.03371,41.722427,0,0,0,0,0,0,0,0,新宾满族自治县,Xinbin Manzu Zizhixian,AI,0,0,0
208,82.964897,41.715538,0,0,0,0,0,0,0,0,库车县,Kuqa Xian,AI,0,0,0
209,110.42892,41.694759,0,0,0,0,0,0,0,0,达尔罕茂明安联合旗,Darhan Muminggan Lianheqi,AI,0,0,9
210,122.11298,41.685833,0,0,0,0,0,0,0,0,黑山县,Heishan Xian,AI,0,0,0
211,125.75433,41.679268,0,0,0,0,0,0,0,0,通化县,Tonghua Xian,AI,0,0,0
212,115.69659,41.666111,0,0,0,0,0,0,0,0,沽源县,Guyuan Xian,AI,0,0,0
213,121.7866,41.595165,0,0,0,0,0,0,0,0,北镇满族自治县,Beizhen Manzu Zizhixian,AI,0,0,0
214,119.33505,41.59338,0,0,0,0,0,0,0,0,宁城县,Ningcheng Xian,AI,0,0,0
215,120.45078,41.580082,0,0,0,0,0,0,0,0,朝阳县,Chaoyang Xian,AI,0,0,0
216,108.52063,41.560913,0,0,0,0,0,0,0,0,乌拉特中旗,Urad Zhongqi,AI,0,0,0
217,113.53573,41.553158,0,0,0,0,0,0,0,0,商都县,Shangdu Xian,AI,0,0,2
218,82.600357,41.545689,0,0,0,0,0,0,0,0,新和县,Xinhe Xian,AI,0,0,0
219,121.24303,41.539394,0,0,0,0,0,0,0,0,义县,Yi Xian,AI,0,0,0
220,111.69153,41.514668,0,0,0,0,0,0,0,0,四子王旗,Dorbod Qi,AI,0,0,0
221,122.7292,41.506771,0,0,0,0,0,0,0,0,辽中县,Liaozhong Xian,AI,0,0,0
222,113.17655,41.450794,0,0,0,0,0,0,0,2,察哈尔右翼后旗,Qahar Youyi Houqi,AI,0,0,8
223,107.05665,41.443302,0,0,0,0,0,0,0,0,乌拉特后旗,Urad Houqi,AI,0,0,0
224,123.31554,41.422836,0,0,0,0,0,0,0,0,灯塔县,Dengta Xian,AI,8,0,0
225,128.1925,41.420891,0,0,0,0,0,0,0,0,长白朝鲜族自治县,Changbai Chaosenzu Zizhixian,AI,0,0,0
226,119.63696,41.402134,0,0,0,0,0,0,0,0,建平县,Jianping Xian,AI,0,0,0
227,122.42303,41.384235,0,0,0,0,0,0,0,0,台安县,Tai'an Xian,AI,0,0,0
228,86.263771,41.331844,0,0,0,0,0,0,0,0,尉犁县,Yuli(Lopnur) Xian,AI,0,0,0
229,117.7262,41.313469,0,0,0,0,0,0,1,0,隆化县,Longhua Xian,AI,0,0,0
230,124.11264,41.295799,0,0,0,0,0,0,2,0,本溪满族自治县,Benxi Manzu Zizhixian,AI,0,0,0
231,80.244057,41.272869,0,0,0,0,0,0,4,0,温宿县,Wensu Xian,AI,0,0,0
232,112.62726,41.265259,0,0,0,0,0,0,6,0,察哈尔右翼中旗,Qahar Youyi Zhongqi,AI,0,0,7
233,125.35204,41.264675,0,0,0,0,0,0,7,0,桓仁满族自治县,Huanren Manzu Zizhixian,AI,0,0,0
234,119.38989,41.239494,0,0,0,0,0,0,8,3,凌源县,Lingyuan Xian,AI,0,0,0
235,82.776695,41.218521,0,0,0,0,0,0,9,0,沙雅县,Shaya Xian,AI,0,0,0
236,79.229652,41.213226,0,0,0,0,0,0,0,0,乌什县,Wushi(Uqturpan) Xian,AI,0,0,0
237,123.07435,41.208042,0,0,0,0,0,0,0,0,辽阳县,Liaoyang Xian,AI,0,0,0
238,116.64015,41.202972,0,0,0,0,0,0,0,0,丰宁满族自治县,Fengning Manzu Zizhixian,AI,0,0,0
239,122.04939,41.18898,0,0,0,0,0,0,0,0,盘山县,Panshan Xian,AI,0,0,0
240,121.35494,41.171371,0,0,0,0,0,0,0,0,锦县,Jin Xian,AI,0,0,0
241,80.260826,41.166874,0,0,0,0,0,0,0,0,阿克苏市,Aksu Shi,AH,0,0,0
242,114.71282,41.15554,0,0,0,0,0,0,0,0,张北县,Zhangbei Xian,AI,0,0,0
243,126.18375,41.12241,0,0,0,0,0,0,0,0,集安市,Ji'an Shi,AH,0,0,0
244,119.73585,41.122234,0,0,0,0,0,0,0,0,喀喇沁左翼蒙古族自治县,Harqin Zuoyi Mongolzu Zizhixian,AI,0,0,0
245,111.44279,41.095356,0,0,0,0,0,0,0,0,武川县,Wuchuan Xian,AI,0,0,0
246,108.26856,41.093098,0,0,0,0,0,0,0,6,五原县,Wuyuan Xian,AI,0,0,0
247,113.96232,41.075169,0,0,0,0,0,0,0,0,尚义县,Shangyi Xian,AI,0,0,0
248,110.05346,41.027855,0,0,0,0,0,0,0,0,固阳县,Guyang Xian,AI,0,0,0
249,118.68012,41.00647,0,0,0,0,0,0,0,0,平泉县,Pingquan Xian,AI,0,0,0
250,122.06133,40.991978,0,0,0,0,0,0,0,0,大洼县,Dawa Xian,AI,0,0,0
251,115.26968,40.975365,0,0,0,0,0,0,0,0,崇礼县,Chongli Xian,AI,0,0,0
252,117.33181,40.928925,0,0,0,0,0,0,0,0,滦平县,Luanping Xian,AI,0,0,0
253,78.454994,40.928486,0,0,0,0,0,0,0,0,阿合奇县,Akqi Xian,AI,0,0,0
254,115.81398,40.913486,0,0,0,0,0,0,0,0,赤城县,Chicheng Xian,AI,0,0,0
255,112.56401,40.894535,0,0,0,0,0,0,0,0,卓资县,Zhuozi Xian,AI,0,0,0
256,107.14445,40.882214,0,0,0,0,0,0,0,0,杭锦后旗,Hanggin Houqi,AI,0,0,0
257,113.88815,40.87669,0,0,0,0,0,0,0,0,兴和县,Xinghe Xian,AI,0,0,3
258,122.75034,40.849636,0,0,0,0,0,0,0,0,海城市,Haicheng Shi,AH,5,0,0
259,119.79378,40.808987,0,0,0,0,0,0,0,0,建昌县,Jianchang Xian,AI,0,0,0
260,113.20451,40.779865,0,0,0,0,0,0,0,0,察哈尔右翼前旗,Qahar Youyi Qianqi,AI,0,0,6
261,118.15677,40.758366,0,0,0,0,0,0,0,0,承德县,Chengde Xian,AI,0,0,0
262,114.72073,40.75071,0,0,0,0,0,0,0,0,万全县,Wanquan Xian,AI,4,0,0
263,124.77281,40.728577,0,0,0,0,0,0,0,0,宽甸满族自治县,Kuandian Manzu Zizhixian,AI,0,0,0
264,108.65083,40.718399,0,0,0,0,0,0,0,0,乌拉特前旗,Urad Qianqi,AI,0,0,0
265,111.12491,40.708229,0,0,0,0,0,0,0,0,土默特左旗,Tumd Zuoqi,AI,0,0,0
266,114.41866,40.668831,0,0,0,0,0,0,0,0,怀安县,Huai'an Xian,AI,0,0,0
267,122.49625,40.637245,0,0,0,0,0,0,0,0,营口县,Yingkou Xian,AI,0,0,0
268,80.375763,40.631172,0,0,0,0,0,0,0,0,阿瓦提县,Awat Xian,AI,0,0,0
269,120.70344,40.619228,0,0,0,0,0,0,0,0,兴城市,Xingcheng Shi,AH,0,0,0
270,115.05115,40.610363,0,0,0,0,0,0,0,0,宣化县,Xuanhua Xian,AI,0,0,0
271,118.48032,40.599129,0,0,0,0,0,0,0,0,宽城满族自治县,Kuancheng Manzu Zizhixian,AI,0,0,0
272,110.51311,40.548046,0,0,0,0,0,0,0,0,土默特右旗,Tumd Youqi,AI,0,0,0
273,95.789055,40.534412,0,0,0,0,0,0,0,0,安西县,Anxi Xian,AI,0,0,0
274,112.49567,40.524708,0,0,0,0,0,0,0,0,凉城县,Liangcheng Xian,AI,9,0,5
275,79.044777,40.503178,0,0,0,0,0,0,0,0,柯坪县,Kalpin Xian,AI,0,0,0
276,115.96835,40.459694,0,0,0,0,0,0,0,0,延庆县,Yanqing Xian,AI,0,0,0
277,124.06615,40.455757,0,0,0,0,0,0,0,0,凤城满族自治县,Fengcheng Manzu Zizhixian,AI,0,0,0
278,113.15383,40.436588,0,0,0,0,0,0,0,0,丰镇市,Fengzhen Shi,AH,0,0,0
279,114.08205,40.415791,0,0,0,0,0,0,0,0,天镇县,Tianzhen Xian,AI,0,0,0
280,117.49094,40.412117,0,0,0,0,0,0,0,0,兴隆县,Xinglong Xian,AI,0,0,0
281,118.94453,40.404373,0,0,0,0,0,0,0,0,青龙满族自治县,Qinglong Manzu Zizhixian,AI,0,0,0
282,122.35947,40.397961,0,0,0,0,0,0,0,0,盖县,Gai Xian,AI,0,0,0
283,115.5107,40.397659,0,0,0,0,0,0,0,0,怀来县,Huailai Xian,AI,0,0,0
284,110.02905,40.396904,0,0,0,0,0,0,0,0,达拉特旗,Dalad Qi,AI,0,0,0
285,115.21474,40.376556,0,0,0,0,0,0,0,0,涿鹿县,Zhuolu Xian,AI,0,0,0
286,111.82157,40.372364,0,0,0,0,0,0,0,0,和林格尔县,Horinger Xian,AI,0,0,0
287,116.84046,40.371483,0,0,0,0,0,0,0,0,密云县,Miyun Xian,AI,0,0,0
288,113.75209,40.353703,0,0,0,0,0,0,0,0,阳高县,Yanggao Xian,AI,0,0,0
289,120.33303,40.328262,0,0,0,0,0,0,0,0,绥中县,Suizhong Xian,AI,0,0,0
290,107,40.324913,0,0,0,0,0,0,0,0,磴口县,Dengkou Xian,AI,0,0,0
291,116.62561,40.312084,0,0,0,0,0,0,0,0,怀柔县,Huairou Xian,AI,0,0,0
292,123.26877,40.278419,0,0,0,0,0,0,0,0,岫岩满族自治县,Xiuyan Manzu Zizhixian,AI,0,0,0
293,111.1553,40.271236,0,0,0,0,0,0,0,0,托克托县,Togtoh Xian,AI,0,0,0
294,116.22368,40.222099,0,0,0,0,0,0,0,2,昌平县,Changping Xian,AI,0,0,0
295,117.95798,40.184448,0,0,0,0,0,0,0,0,遵化县,Zunhua Xian,AI,0,0,0
296,118.31104,40.141926,0,0,0,0,0,0,0,0,迁西县,Qianxi Xian,AI,0,0,0
297,94.650879,40.140526,0,0,0,0,0,0,0,0,敦煌市,Dunhuang Shi,AH,0,0,0
298,117.11284,40.136341,0,0,0,0,0,0,0,0,平谷县,Pinggu Xian,AI,0,0,0
299,116.64145,40.127552,0,0,0,0,0,0,0,0,顺义县,Shunyi Xian,AI,0,0,0
300,114.16438,40.111378,0,0,0,0,0,0,0,0,阳原县,Yangyuan Xian,AI,0,0,0
301,117.40182,40.043865,0,0,0,0,0,0,0,0,蓟县,Ji Xian,AI,0,0,0
302,113.59396,40.039005,0,0,0,0,0,0,0,0,大同县,Datong Xian,AI,0,0,4
303,118.69151,40.008873,0,0,0,0,0,0,0,0,迁安县,Qian'an Xian,AI,0,0,0
304,112.69357,40.008095,0,0,0,0,0,0,0,0,左云县,Zuoyun Xian,AI,0,0,2
305,98.90107,39.986385,0,0,1,1,0,0,0,0,金塔县,Jinta Xian,AI,0,0,0
306,112.45738,39.984413,0,0,2,2,0,0,0,0,右玉县,Youyu Xian,AI,0,0,3
307,117.07612,39.982788,0,0,3,3,0,0,0,0,三河县,Sanhe Xian,AI,0,0,0
308,111.67451,39.91338,0,0,4,4,0,0,0,0,清水河县,Qingshuihe Xian,AI,0,0,0
309,116.65881,39.905922,0,0,5,5,0,0,0,0,通县,Tong Xian,AI,0,0,0
310,116.98542,39.884716,0,0,6,6,0,0,0,0,大厂回族自治县,Dachang Huizu Zizhixian,AI,0,0,0
311,119.23016,39.88467,0,0,7,7,0,0,0,0,抚宁县,Funing Xian,AI,0,0,0
312,117.75478,39.883671,0,0,8,8,0,0,0,0,玉田县,Yutian Xian,AI,0,0,0
313,118.86195,39.877323,0,0,9,9,0,0,0,0,卢龙县,Lulong Xian,AI,0,0,0
314,124.14217,39.869289,0,0,0,0,0,0,0,0,东沟县,Donggou Xian,AI,0,0,0
315,114.56905,39.840538,0,0,0,0,0,0,0,0,蔚县,Yu Xian,AI,0,0,0
316,108.72321,39.839581,0,0,0,0,0,0,0,0,杭锦旗,Hanggin Qi,AI,0,0,0
317,118.1349,39.827602,0,0,0,0,0,0,0,0,丰润县,Fengrun Xian,AI,0,0,0
318,97.564003,39.823662,0,0,0,0,0,0,0,0,玉门市,Yumen Shi,AH,0,0,0
319,113.10321,39.820141,0,0,0,0,0,0,0,0,怀仁县,Huairen Xian,AI,0,0,5
320,78.562965,39.786777,0,0,0,0,0,0,0,0,巴楚县,Bachu Xian,AI,0,0,0
321,116.99597,39.765232,0,0,0,0,0,0,0,0,香河县,Xianghe Xian,AI,0,0,0
322,114.27605,39.763554,0,0,0,0,0,0,0,0,广灵县,Guangling Xian,AI,0,0,0
323,118.75231,39.739655,0,0,0,0,0,0,0,0,滦县,Luan Xian,AI,0,0,0
324,116.33324,39.726154,0,0,0,0,0,0,0,0,大兴县,Daxing Xian,AI,0,0,0
325,117.30242,39.725895,0,0,0,0,0,0,0,0,宝坻县,Baodi Xian,AI,0,0,0
326,76.168442,39.715424,0,0,0,0,0,0,0,0,阿图什市,Artux Shi,AH,0,0,0
327,119.16641,39.706974,0,0,0,0,0,0,0,0,昌黎县,Changli Xian,AI,0,0,0
328,75.187202,39.705402,0,0,0,0,0,0,0,0,乌恰县,Wuqia(Ulugqat) Xian,AI,0,0,0
329,122.9791,39.697472,0,0,0,0,0,0,0,0,庄河县,Zhuanghe Xian,AI,0,0,15
330,113.6849,39.696335,0,0,0,0,0,0,0,0,浑源县,Hunyuan Xian,AI,0,0,0
331,110.87967,39.647034,0,0,0,0,0,0,0,0,准格尔旗,Jungar Qi,AI,0,0,0
332,121.97961,39.621075,0,0,0,0,0,0,0,0,瓦房店市,Wafangdian Shi,AH,0,0,0
333,118.11458,39.567284,0,0,0,0,0,0,0,0,丰南县,Fengnan Xian,AI,0,0,0
334,109.73379,39.566647,0,0,0,0,0,0,0,0,伊金霍洛旗,Ejin Horo Qi,AI,0,0,0
335,113.18238,39.560173,0,0,0,0,0,0,0,0,应县,Ying Xian,AI,0,0,0
336,112.83749,39.514214,0,0,0,0,0,0,0,0,山阴县,Shanyin Xian,AI,0,0,0
337,94.875648,39.513817,0,0,0,0,0,0,0,0,肃北蒙古族自治县,Subei Mongolzu Zizhixian,AI,0,0,0
338,118.68583,39.508682,0,0,0,0,0,0,0,0,滦南县,Luannan Xian,AI,0,0,0
339,76.74028,39.49387,0,0,0,0,0,0,0,0,伽师县,Jiashi Xian,AI,1,0,0
340,115.96815,39.487221,0,0,0,0,0,0,0,0,涿州市,Zhuozhou Shi,AH,0,0,2
341,111.49728,39.442062,0,0,0,0,0,0,0,0,偏关县,Pianguan Xian,AI,0,0,0
342,114.22922,39.437744,0,0,0,0,0,0,0,0,灵丘县,Lingqiu Xian,AI,0,0,0
343,116.30117,39.435631,0,0,0,0,0,0,0,0,固安县,Gu'an Xian,AI,0,0,0
344,118.91828,39.424881,0,0,0,0,0,0,0,0,乐亭县,Leting Xian,AI,0,0,0
345,94.265114,39.409336,0,0,0,0,0,0,0,0,阿克塞哈萨克族自治县,Aksay Kazakzu Zizhixian,AI,0,0,0
346,76.047562,39.408546,0,0,0,0,0,0,0,0,疏勒县,Shule Xian,AI,7,0,0
347,115.7078,39.391743,0,0,0,0,0,0,0,0,涞水县,Laishui Xian,AI,0,0,0
348,121.95647,39.390034,0,0,0,0,0,0,0,0,新金县,Xinjin Xian,AI,0,0,0
349,99.820282,39.381218,0,0,0,0,0,0,0,0,高台县,Gaotai Xian,AI,4,0,0
350,111.13822,39.380226,0,0,0,0,0,0,0,0,河曲县,Hequ Xian,AI,0,0,0
351,117.06313,39.378593,0,0,0,0,0,0,0,0,武清县,Wuqing Xian,AI,9,0,0
352,75.857651,39.375599,0,0,0,0,0,0,0,0,疏附县,Shufu Xian,AI,0,0,0
353,114.68877,39.354015,0,0,0,0,0,0,0,0,涞源县,Laiyuan Xian,AI,0,0,0
354,115.49348,39.349037,0,0,0,0,0,0,0,0,易县,Yi Xian,AI,0,0,0
355,117.8315,39.33189,0,0,0,0,0,0,0,0,宁河县,Ninghe Xian,AI,0,0,0
356,115.85886,39.32576,0,0,0,0,0,0,0,0,新城县,Xincheng Xian,AI,0,0,0
357,116.49061,39.32571,0,0,0,0,0,0,0,0,永清县,Yongqing Xian,AI,0,0,0
358,118.46062,39.277565,0,0,0,0,0,0,0,0,唐海县,Tanghai Xian,AI,0,0,0
359,122.57601,39.27269,0,0,0,0,0,0,0,0,长海县,Changhai Xian,AI,0,0,5
360,115.77419,39.269592,0,0,0,0,0,0,0,0,定兴县,Dingxing Xian,AI,0,0,0
361,76.769646,39.234463,0,0,0,0,0,0,0,0,岳普湖县,Yopurga Xian,AI,0,0,0
362,101.67279,39.198689,0,0,0,0,0,0,0,0,阿拉善右旗,Alxa Youqi,AI,0,0,0
363,113.27181,39.190063,0,0,0,0,0,0,0,4,繁峙县,Fanzhi Xian,AI,0,0,0
364,75.939812,39.149387,0,0,0,0,0,0,0,4,阿克陶县,Akto Xian,AI,0,0,0
365,100.16367,39.148624,0,0,0,0,0,0,0,0,临泽县,Linze Xian,AI,0,0,0
366,106.6867,39.111832,0,0,0,0,0,0,0,0,惠农县,Huinong Xian,AI,0,0,0
367,116.39525,39.101536,0,0,0,0,0,0,0,0,霸县,Ba Xian,AI,0,0,0
368,107.98152,39.09407,0,0,0,0,0,0,0,0,鄂托克旗,Otog Qi,AI,0,0,0
369,112.19473,39.093395,0,0,0,0,0,0,0,0,神池县,Shenchi Xian,AI,0,0,0
370,112.94904,39.06039,0,0,0,0,0,0,0,0,代县,Dai Xian,AI,0,0,0
371,115.86572,39.051655,0,0,0,0,0,0,0,0,容城县,Rongcheng Xian,AI,0,0,0
372,111.07457,39.032143,0,0,0,0,0,0,0,0,府谷县,Fugu Xian,AI,0,0,0
373,88.17041,39.020638,0,0,0,0,0,0,0,0,若羌县,Ruoqiang(Qakilik) Xian,AI,0,0,0
374,115.65739,39.019436,0,0,0,0,0,0,0,0,徐水县,Xushui Xian,AI,0,0,0
375,111.07948,39.012409,0,0,0,0,0,0,0,0,保德县,Baode Xian,AI,0,0,0
376,112.30479,39.007046,0,0,0,0,0,0,0,0,宁武县,Ningwu Xian,AI,0,0,0
377,116.0927,38.97588,0,0,0,0,0,0,0,0,雄县,Xiong Xian,AI,0,0,0
378,115.31562,38.947723,0,0,0,0,0,0,0,0,满城县,Mancheng Xian,AI,0,0,0
379,116.91908,38.934357,0,0,0,0,0,0,0,0,静海县,Jinghai Xian,AI,0,0,0
380,76.173309,38.927456,0,0,0,0,0,0,0,0,英吉沙县,Yengisar Xian,AI,0,0,0
381,115.92821,38.925182,0,0,0,0,0,0,0,0,安新县,Anxin Xian,AI,0,0,0
382,106.54294,38.906406,0,0,0,0,0,0,0,0,平罗县,Pingluo Xian,AI,0,0,0
383,111.84161,38.900566,0,0,0,0,0,0,0,0,五寨县,Wuzhai Xian,AI,0,0,0
384,77.647911,38.900036,0,0,0,0,0,0,0,0,麦盖提县,Markit Xian,AI,0,0,0
385,116.46456,38.864807,0,0,0,0,0,0,0,0,文安县,Wen'an Xian,AI,0,0,0
386,114.18756,38.85305,0,0,0,0,0,0,0,0,阜平县,Fuping Xian,AI,0,0,0
387,105.66557,38.841846,0,0,0,0,0,0,0,1,阿拉善左旗,Alxa Zuoqi,AI,0,0,0
388,99.608932,38.837013,0,0,0,0,0,0,0,0,肃南裕固族自治县,Sunan Yugurzu Zizhixian,AI,0,0,0
389,115.12358,38.833225,0,0,0,0,0,0,0,0,完县,Wan Xian,AI,0,0,0
390,110.50092,38.82196,0,0,0,0,0,0,0,0,神木县,Shenmu Xian,AI,0,0,0
391,106.69404,38.810596,0,0,0,0,0,0,0,0,陶乐县,Taole Xian,AI,0,0,0
392,101.08796,38.781105,0,0,0,0,0,0,0,0,山丹县,Shandan Xian,AI,0,0,0
393,115.48461,38.756588,0,0,0,0,0,0,0,0,清苑县,Qingyuan Xian,AI,0,0,0
394,114.96915,38.741493,0,0,0,0,0,0,0,0,唐县,Tang Xian,AI,0,0,0
395,112.69871,38.728821,0,0,0,0,0,0,0,0,原平县,Yuanping Xian,AI,0,0,0
396,113.25921,38.719177,0,0,0,0,0,0,0,0,五台县,Wutai Xian,AI,0,0,0
397,116.09048,38.707668,0,0,0,0,0,0,0,0,任丘市,Renqiu Shi,AH,0,0,0
398,115.13342,38.705265,0,0,0,0,0,0,0,0,望都县,Wangdu Xian,AI,0,0,0
399,111.56995,38.703972,0,0,0,0,0,0,0,0,岢岚县,Kelan Xian,AI,0,0,0
400,116.62189,38.695866,0,0,0,0,0,0,0,0,大城县,Dacheng Xian,AI,0,0,0
401,115.7742,38.688908,0,0,0,0,0,0,0,0,高阳县,Gaoyang Xian,AI,0,0,0
402,103.08884,38.625671,0,0,0,0,0,0,0,0,民勤县,Minqin Xian,AI,0,0,0
403,114.6902,38.621449,0,0,0,0,0,0,0,0,曲阳县,Quyang Xian,AI,0,0,0
404,108.84956,38.598644,0,0,0,0,0,0,0,0,乌审旗,Uxin Qi,AI,1,0,0
405,116.82543,38.580715,0,0,0,0,0,0,0,0,青县,Qing Xian,AI,0,0,0
406,106.34757,38.552708,0,0,0,0,0,0,0,0,贺兰县,Helan Xian,AI,0,0,0
407,114.97504,38.520061,0,0,0,0,0,0,0,0,定州市,Dingzhou Shi,AH,0,0,1
408,112.94377,38.492691,0,0,0,0,0,0,0,0,定襄县,Dingxiang Xian,AI,0,0,0
409,115.5747,38.490063,0,0,0,0,0,0,0,0,蠡县,Li Xian,AI,0,0,0
410,111.12375,38.472668,0,0,0,0,0,0,0,0,兴县,Xing Xian,AI,0,0,0
411,115.45908,38.457569,0,0,0,0,0,0,0,0,博野县,Boye Xian,AI,0,0,0
412,114.54361,38.436069,0,0,0,0,0,0,0,0,行唐县,Xingtang Xian,AI,0,0,0
413,116.08553,38.435699,0,0,0,0,0,0,0,1,河间县,Hejian Xian,AI,0,0,0
414,100.81054,38.431976,0,0,0,0,0,0,0,0,民乐县,Minle Xian,AI,0,0,0
415,115.83181,38.431767,0,0,0,0,0,0,0,0,肃宁县,Suning Xian,AI,0,0,0
416,77.251778,38.41399,0,0,0,0,0,0,0,0,莎车县,Shache(Yarkant) Xian,AI,0,0,0
417,115.31509,38.412342,0,0,0,0,0,0,0,0,安国县,Anguo Xian,AI,0,0,0
418,117.35182,38.366489,0,0,0,0,0,0,2,0,黄骅市,Huanghua Shi,AH,0,0,0
419,111.94011,38.357658,0,0,0,0,0,0,3,0,静乐县,Jingle Xian,AI,0,0,0
420,114.67573,38.342461,0,0,0,0,0,0,4,2,新乐县,Xinle Xian,AI,0,0,0
421,116.86197,38.309002,0,0,0,0,0,0,6,0,沧县,Cang Xian,AI,0,0,0
422,114.36588,38.30547,0,0,0,0,0,0,7,8,灵寿县,Lingshou Xian,AI,0,0,0
423,111.67884,38.282673,0,0,0,0,0,0,9,0,岚县,Lan Xian,AI,0,0,0
424,106.25098,38.277855,0,0,0,0,0,0,0,0,永宁县,Yongning Xian,AI,0,0,0
425,114.19392,38.252403,0,0,0,0,0,0,0,0,平山县,Pingshan Xian,AI,0,0,0
426,101.96912,38.246647,0,0,0,0,0,0,0,0,永昌县,Yongchang Xian,AI,0,0,0
427,115.73602,38.245987,0,0,0,0,0,0,0,0,饶阳县,Raoyang Xian,AI,0,0,0
428,115.51057,38.230526,0,0,0,0,0,0,0,0,安平县,Anping Xian,AI,0,0,0
429,107.43605,38.22477,0,0,0,0,0,0,0,0,鄂托克前旗,Otog Qianqi,AI,0,0,0
430,116.1149,38.190697,0,0,0,0,0,0,0,0,献县,Xian Xian,AI,0,0,0
431,77.265877,38.188942,0,0,0,0,0,0,0,0,泽普县,Zepu(Poskam) Xian,AI,0,0,0
432,115.19209,38.184902,0,0,0,0,0,0,0,0,深泽县,Shenze Xian,AI,0,0,0
433,114.96936,38.176727,0,0,0,0,0,0,0,0,无极县,Wuji Xian,AI,0,0,0
434,100.2403,38.174961,0,0,0,0,0,0,0,0,祁连县,Qilian Xian,AI,0,0,0
435,114.56364,38.14011,0,0,0,0,0,0,0,0,正定县,Zhengding Xian,AI,0,0,0
436,85.527115,38.138302,0,0,0,0,0,0,0,0,且末县,Qiemo(Qarqan) Xian,AI,0,0,0
437,117.49832,38.135265,0,0,0,0,0,0,0,0,海兴县,Haixing Xian,AI,0,0,0
438,113.41297,38.090958,0,0,0,0,0,0,0,0,盂县,Yu Xian,AI,0,0,0
439,106.32814,38.088886,0,0,0,0,0,0,0,0,灵武县,Lingwu Xian,AI,0,0,0
440,114.30772,38.083111,0,0,0,0,0,0,0,0,获鹿县,Huolu Xian,AI,0,0,0
441,111.79213,38.07338,0,0,0,0,0,0,0,0,娄烦县,Loufan Xian,AI,0,0,0
442,112.66719,38.063313,0,0,0,0,0,0,0,0,阳曲县,Yangqu Xian,AI,0,0,0
443,116.56663,38.062065,0,0,0,0,0,0,0,0,泊头市,Botou Shi,AH,0,0,0
444,117.09825,38.056232,0,0,0,0,0,0,0,0,孟村回族自治县,Mengcun Huizu Zizhixian,AI,0,0,0
445,117.22554,38.055328,0,0,0,0,0,0,0,0,盐山县,Yanshan Xian,AI,0,0,0
446,115.97733,38.043091,0,0,0,0,0,0,0,0,武强县,Wuqiang Xian,AI,0,0,0
447,116.69678,38.037567,0,0,0,0,0,0,0,0,南皮县,Nanpi Xian,AI,0,0,0
448,114.83418,38.036713,0,0,0,0,0,0,0,0,藁城市,Gaocheng Shi,AH,2,0,0
449,114.13749,38.03413,0,0,0,0,0,0,0,0,井陉县,Jingxing Xian,AI,3,0,0
450,115.03542,38.032494,0,0,0,0,0,0,0,0,晋县,Jin Xian,AI,0,0,0
451,110.4956,38.023293,0,0,0,0,0,0,0,0,佳县,Jia Xian,AI,0,0,0
452,115.54887,38.01173,0,0,0,0,0,0,0,0,深县,Shen Xian,AI,0,0,0
453,106.19549,37.986172,0,0,0,0,0,0,0,0,吴忠市,Wuzhong Shi,AH,3,0,5
454,109.2916,37.959286,0,0,0,0,0,0,0,0,横山县,Hengshan Xian,AI,0,0,0
455,110.98312,37.952896,0,0,0,0,0,0,0,0,临县,Lin Xian,AI,0,0,0
456,120.72922,37.916355,0,0,0,0,0,0,0,0,长岛县,Changdao Xian,AI,0,0,0
457,115.21532,37.913963,0,0,0,0,0,0,0,0,辛集市,Xinji Shi,AH,0,0,0
458,112.1545,37.91016,0,0,0,0,0,0,0,0,古交市,Gujiao Shi,AH,0,0,0
459,105.98094,37.902767,0,0,0,0,0,0,0,0,青铜峡市,Qingtongxia Shi,AH,1,0,6
460,113.16871,37.886784,0,0,0,0,0,0,0,0,寿阳县,Shouyang Xian,AI,0,0,0
461,114.65269,37.88578,0,0,0,0,0,0,0,0,栾城县,Luancheng Xian,AI,0,0,0
462,77.416985,37.885113,0,0,0,0,0,0,0,7,叶城县,Yecheng Xian,AI,0,0,0
463,116.53282,37.884556,0,0,0,0,0,0,0,0,东光县,Dongguang Xian,AI,0,0,0
464,111.23225,37.882561,0,0,0,0,0,0,0,0,方山县,Fangshan Xian,AI,0,0,0
465,116.14471,37.868179,0,0,0,0,0,0,0,0,阜城县,Fucheng Xian,AI,0,0,0
466,115.89066,37.805992,0,0,0,0,0,0,0,0,武邑县,Wuyi Xian,AI,0,0,0
467,120.7405,37.804516,0,0,0,0,0,0,0,0,蓬莱县,Penglai Xian,AI,0,0,0
468,113.62227,37.802036,0,0,0,0,0,0,0,0,平定县,Pingding Xian,AI,0,0,0
469,107.40371,37.781296,0,0,0,0,0,0,0,0,盐池县,Yanchi Xian,AI,0,0,0
470,117.38357,37.775925,0,0,0,0,0,0,0,0,庆云县,Qingyun Xian,AI,0,0,0
471,75.225723,37.775669,0,0,0,0,0,0,0,0,塔什库尔干塔吉克自治县,Taxkorgan Tajik Zizhixian,AI,0,0,0
472,110.18326,37.760258,0,0,0,0,0,0,0,0,米脂县,Mizhi Xian,AI,0,0,0
473,114.77218,37.752926,0,0,0,0,0,0,0,0,赵县,Zhao Xian,AI,0,0,0
474,114.50881,37.750031,0,0,0,0,0,0,0,0,元氏县,Yuanshi Xian,AI,0,0,0
475,117.60121,37.740623,0,0,0,0,0,0,0,0,无棣县,Wudi Xian,AI,0,0,0
476,117.21653,37.737892,0,0,0,0,0,0,0,0,乐陵市,Leling Shi,AH,0,0,0
477,118.12795,37.700382,0,0,0,0,0,0,0,0,沾化县,Zhanhua Xian,AI,0,0,0
478,116.2581,37.688007,0,0,0,0,0,0,0,0,景县,Jing Xian,AI,0,0,0
479,114.37698,37.662655,0,0,0,0,0,0,0,0,赞皇县,Zanhuang Xian,AI,0,0,0
480,120.33459,37.656082,0,0,0,0,0,0,0,0,龙口市,Longkou Shi,AH,0,0,0
481,116.7928,37.649857,0,0,0,0,0,0,0,0,宁津县,Ningjin Xian,AI,0,0,0
482,117.57631,37.640835,0,0,0,0,0,0,0,0,阳信县,Yangxin Xian,AI,0,0,0
483,110.01008,37.634377,0,0,0,0,0,0,0,0,子洲县,Zizhou Xian,AI,0,0,0
484,116.38395,37.626717,0,0,0,0,0,0,0,0,吴桥县,Wuqiao Xian,AI,0,0,0
485,114.9154,37.621086,0,0,0,0,0,0,0,0,宁晋县,Ningjin Xian,AI,0,0,0
486,78.278999,37.612972,0,0,0,0,0,0,0,0,皮山县,Pishan(Guma) Xian,AI,0,0,0
487,112.33967,37.611202,0,0,0,0,0,0,0,0,清徐县,Qingxu Xian,AI,0,0,0
488,113.6968,37.608364,0,0,0,0,0,0,0,0,昔阳县,Xiyang Xian,AI,0,0,0
489,114.61153,37.604755,0,0,0,0,0,0,0,0,高邑县,Gaoyi Xian,AI,0,0,0
490,108.8045,37.593559,0,0,0,0,0,0,0,0,靖边县,Jingbian Xian,AI,0,0,0
491,107.59183,37.592659,0,0,0,0,0,0,0,0,定边县,Dingbian Xian,AI,0,0,0
492,118.53972,37.590141,0,0,0,0,0,0,0,0,垦利县,Kenli Xian,AI,0,0,0
493,115.56381,37.565983,0,0,0,0,0,0,0,0,冀县,Ji Xian,AI,0,0,0
494,112.15627,37.544411,0,0,0,0,0,0,0,0,交城县,Jiaocheng Xian,AI,0,0,0
495,115.24651,37.529594,0,0,0,0,0,0,0,0,新河县,Xinhe Xian,AI,0,0,0
496,105.18661,37.513252,0,0,0,0,0,0,0,5,中卫县,Zhongwei Xian,AI,0,0,0
497,111.13518,37.510105,0,0,0,0,0,0,0,0,离石县,Lishi Xian,AI,1,0,0
498,115.71808,37.50264,0,0,0,0,0,0,0,0,枣强县,Zaoqiang Xian,AI,0,0,0
499,110.25407,37.50098,0,0,0,0,0,0,0,0,绥德县,Suide Xian,AI,0,0,0
500,114.68058,37.49469,0,0,0,0,0,0,0,0,柏乡县,Baixiang Xian,AI,0,0,0
501,118.25559,37.49131,0,0,0,0,0,0,0,0,利津县,Lijin Xian,AI,8,0,0
502,105.67355,37.490055,0,0,0,0,0,0,0,9,中宁县,Zhongning Xian,AI,0,0,0
503,117.50389,37.482723,0,0,0,0,0,0,0,0,惠民县,Huimin Xian,AI,0,0,0
504,102.88088,37.463989,0,0,0,0,0,0,0,0,古浪县,Gulang Xian,AI,0,0,0
505,110.7319,37.456886,0,0,0,0,0,0,0,0,吴堡县,Wubu Xian,AI,0,0,0
506,114.50006,37.439831,0,0,0,0,0,0,0,0,临城县,Lincheng Xian,AI,0,0,0
507,112.02419,37.436981,0,0,0,0,0,0,0,0,文水县,Wenshui Xian,AI,0,0,0
508,110.88132,37.43549,0,0,0,0,0,0,0,0,柳林县,Liulin Xian,AI,0,0,0
509,112.55276,37.425507,0,0,0,0,0,0,0,0,太谷县,Taigu Xian,AI,0,0,0
510,121.58773,37.376553,0,0,0,0,0,0,0,0,牟平县,Muping Xian,AI,0,0,0
511,101.6151,37.374016,0,0,0,0,0,0,0,0,门源回族自治县,Menyuan Huizu Zizhixian,AI,0,0,0
512,118.02375,37.36813,0,0,0,0,0,0,0,0,滨州市,Binzhou Shi,AH,0,0,0
513,115.38007,37.359154,0,0,0,0,0,0,0,0,南宫市,Nangong Shi,AH,0,0,0
514,112.3153,37.353817,0,0,0,0,0,0,0,0,祁县,Qi Xian,AI,0,0,0
515,114.76604,37.35228,0,0,0,0,0,0,0,0,隆尧县,Longyao Xian,AI,0,0,0
516,120.38838,37.35215,0,0,0,0,0,0,0,0,招远县,Zhaoyuan Xian,AI,0,0,0
517,115.97087,37.343838,0,0,0,0,0,0,0,0,故城县,Gucheng Xian,AI,0,0,0
518,111.18813,37.339596,0,0,0,0,0,0,0,0,中阳县,Zhongyang Xian,AI,0,0,0
519,116.57841,37.332096,0,0,0,0,0,0,0,0,陵县,Ling Xian,AI,0,0,0
520,113.56688,37.331421,0,0,0,0,0,0,0,0,和顺县,Heshun Xian,AI,0,0,0
521,100.13216,37.326725,0,0,0,0,0,0,0,0,刚察县,Gangca Xian,AI,0,0,0
522,117.15755,37.308678,0,0,0,0,0,0,0,0,商河县,Shanghe Xian,AI,0,0,0
523,99.020386,37.303333,0,0,0,0,0,0,0,0,天峻县,Tianjun Xian,AI,0,0,0
524,120.82707,37.302383,0,0,0,0,0,0,0,0,栖霞县,Qixia Xian,AI,0,0,0
525,114.51186,37.295002,0,0,0,0,0,0,0,0,内丘县,Neiqiu Xian,AI,0,0,0
526,79.740196,37.26646,0,0,0,0,0,0,0,0,墨玉县,Moyu(Karakax) Xian,AI,0,0,0
527,111.77903,37.263405,0,0,0,0,0,0,0,0,汾阳县,Fenyang Xian,AI,0,0,0
528,116.07293,37.21315,0,0,0,0,0,0,0,0,武城县,Wucheng Xian,AI,0,0,0
529,115.02284,37.212341,0,0,0,0,0,0,0,0,巨鹿县,Julu Xian,AI,0,0,0
530,112.1776,37.20726,0,0,0,0,0,0,0,0,平遥县,Pingyao Xian,AI,0,0,0
531,122.05669,37.193062,0,0,0,0,0,0,0,0,文登市,Wendeng Shi,AH,0,0,0
532,116.86052,37.191311,0,0,0,0,0,0,0,0,临邑县,Linyi Xian,AI,0,0,0
533,119.938,37.17543,0,0,0,0,0,0,0,0,莱州市,Laizhou Shi,AH,0,0,0
534,117.81664,37.175308,0,0,0,0,0,0,0,0,高青县,Gaoqing Xian,AI,0,0,0
535,122.40815,37.164955,0,0,0,0,0,0,0,0,荣城市,Rongcheng Shi,AH,0,0,0
536,116.42907,37.157734,0,0,0,0,0,0,0,0,平原县,Pingyuan Xian,AI,0,0,0
537,104.06149,37.155224,0,0,0,0,0,0,0,0,景泰县,Jingtai Xian,AI,0,0,0
538,111.78277,37.143234,0,0,0,0,0,0,0,0,孝义县,Xiaoyi Xian,AI,0,0,0
539,109.66875,37.137657,0,0,0,0,0,0,0,0,子长县,Zichang Xian,AI,0,0,0
540,118.1277,37.135395,0,0,0,0,0,0,0,0,博兴县,Boxing Xian,AI,0,0,0
541,114.68074,37.126076,0,0,0,0,0,0,0,0,任县,Ren Xian,AI,0,0,0
542,79.928093,37.105923,0,0,0,0,0,0,0,4,和田县,Hotan Xian,AI,0,0,0
543,110.1257,37.096619,0,0,0,0,0,0,0,8,清涧县,Qingjian Xian,AI,0,0,0
544,113.36811,37.07428,0,0,0,0,0,0,0,0,左权县,Zuoquan Xian,AI,0,0,0
545,112.96366,37.070942,0,0,0,0,0,0,0,0,榆社县,Yushe Xian,AI,0,0,0
546,115.6563,37.070076,0,0,0,0,0,0,0,0,清河县,Qinghe Xian,AI,9,0,0
547,115.14606,37.0681,0,0,0,0,0,0,0,0,广宗县,Guangzong Xian,AI,0,0,0
548,115.0224,37.06797,0,0,0,0,0,0,0,0,平乡县,Pingxiang Xian,AI,0,0,0
549,114.49426,37.066357,0,0,0,0,0,0,0,0,邢台县,Xingtai Xian,AI,0,0,0
550,80.185898,37.066029,0,0,0,0,0,0,0,0,洛浦县,Lop Xian,AI,0,0,0
551,82.689606,37.061184,0,0,0,0,0,0,0,0,民丰县,Minfeng(Niya) Xian,AI,5,0,0
552,118.40031,37.049801,0,0,0,0,0,0,0,0,广饶县,Guangrao Xian,AI,0,0,0
553,111.91216,37.026474,0,0,0,0,0,0,0,0,介休县,Jiexiu Xian,AI,0,0,0
554,80.802406,37.000599,0,0,0,0,0,0,0,0,策勒县,Qira Xian,AI,0,0,0
555,114.68731,36.999573,0,0,0,0,0,0,0,0,南和县,Nanhe Xian,AI,0,0,0
556,110.82667,36.995705,0,0,0,0,0,0,0,0,石楼县,Shilou Xian,AI,0,0,0
557,105.90628,36.982105,0,0,0,0,0,0,0,0,同心县,Tongxin Xian,AI,1,0,0
558,103.12082,36.980793,0,0,0,0,0,0,0,0,天祝藏族自治县,Tianzhu Zangzu Zizhixian,AI,0,0,0
559,115.25926,36.974178,0,0,0,0,0,0,0,0,威县,Wei Xian,AI,0,0,0
560,117.21142,36.972935,0,0,0,0,0,0,0,0,济阳县,Jiyang Xian,AI,0,0,0
561,120.70584,36.971165,0,0,1,1,0,0,0,0,莱阳市,Laiyang Shi,AH,0,0,0
562,111.19975,36.959717,0,0,2,2,0,0,0,0,交口县,Jiaokou Xian,AI,0,0,0
563,118.10982,36.953293,0,0,3,3,0,0,0,0,桓台县,Huantai Xian,AI,0,0,0
564,116.00289,36.950279,0,0,4,4,0,0,0,0,夏津县,Xiajin Xian,AI,0,0,0
565,116.65239,36.945358,0,0,5,5,0,0,0,0,禹城县,Yucheng Xian,AI,0,0,0
566,98.477905,36.930157,0,0,6,6,0,0,0,0,乌兰县,Ulan Xian,AI,1,0,0
567,108.17708,36.927856,0,0,7,7,0,0,0,0,吴旗县,Wuqi Xian,AI,0,0,0
568,114.8745,36.924026,0,0,8,8,0,0,0,0,鸡泽县,Jize Xian,AI,0,0,0
569,101.66661,36.921352,0,0,9,9,0,0,0,0,大通回族土族自治县,Datong Huizu Tuzu Zizhixian,AI,0,0,0
570,121.51398,36.907784,0,0,0,0,0,0,0,0,乳山县,Rushan Xian,AI,0,0,0
571,100.98606,36.899391,0,0,0,0,0,0,0,0,海晏县,Haiyan Xian,AI,0,0,0
572,117.72652,36.885693,0,0,0,0,0,0,0,0,邹平县,Zouping Xian,AI,0,0,0
573,118.73851,36.879799,0,0,0,0,0,0,0,0,寿光县,Shouguang Xian,AI,0,0,0
574,110.18204,36.879646,0,0,0,0,0,0,0,0,延川县,Yanchuan Xian,AI,0,0,0
575,109.32443,36.86853,0,0,0,0,0,0,0,0,安塞县,Ansai Xian,AI,4,0,0
576,116.231,36.861622,0,0,0,0,0,0,0,0,高唐县,Gaotang Xian,AI,0,0,0
577,115.49031,36.858692,0,0,0,0,0,0,0,0,临西县,Linxi Xian,AI,0,0,0
578,114.48775,36.858078,0,0,0,0,0,0,0,0,沙河市,Shahe Shi,AH,0,0,0
579,120.50645,36.856449,0,0,0,0,0,0,0,0,莱西市,Laixi Shi,AI,0,0,0
580,119.39998,36.855667,0,0,0,0,0,0,0,8,昌邑县,Changyi Xian,AI,0,0,0
581,81.666885,36.848957,0,0,0,0,0,0,0,0,于田县,Yutian(Keriya) Xian,AI,0,0,0
582,115.70152,36.846214,0,0,0,0,0,0,0,0,临清市,Linqing Shi,AH,0,0,0
583,111.77621,36.842152,0,0,0,0,0,0,0,0,灵石县,Lingshi Xian,AI,0,0,0
584,112.86326,36.8368,0,0,0,0,0,0,0,0,武乡县,Wuxiang Xian,AI,0,0,0
585,101.95054,36.835018,0,0,0,0,0,0,0,0,互助土族自治县,Huzhu Tuzu Zizhixian,AI,0,0,0
586,108.76804,36.823208,0,0,0,0,0,0,0,2,志丹县,Zhidan Xian,AI,0,0,0
587,115.16535,36.819218,0,0,0,0,0,0,0,0,丘县,Qiu Xian,AI,0,0,0
588,116.75139,36.79348,0,0,0,0,0,0,0,0,齐河县,Qihe Xian,AI,0,0,0
589,114.48263,36.790363,0,0,0,0,0,0,0,0,永年县,Yongnian Xian,AI,0,0,0
590,119.94828,36.788235,0,0,0,0,0,0,0,0,平度市,Pingdu Shi,AH,0,0,0
591,114.94965,36.779305,0,0,0,0,0,0,0,0,曲周县,Quzhou Xian,AI,0,0,0
592,121.15793,36.772659,0,0,0,0,0,0,0,0,海阳县,Haiyang Xian,AI,0,0,0
593,110.63348,36.761459,0,0,0,0,0,0,0,0,永和县,Yonghe Xian,AI,0,0,0
594,112.69898,36.757431,0,0,0,0,0,0,0,0,沁县,Qin Xian,AI,0,0,0
595,103.25861,36.736996,0,0,0,0,0,0,0,0,永登县,Yongdeng Xian,AI,0,0,0
596,117.52358,36.713188,0,0,0,0,0,0,0,0,章丘县,Zhangqiu Xian,AI,0,0,0
597,118.83671,36.703575,0,0,0,0,0,0,0,0,昌乐县,Changle Xian,AI,0,0,0
598,114.19186,36.697582,0,0,0,0,0,0,0,0,武安市,Wu'an Shi,AH,0,0,0
599,101.26856,36.688725,0,0,0,0,0,0,0,0,湟源县,Huangyuan Xian,AI,0,0,0
600,118.47827,36.687916,0,0,0,0,0,0,0,0,青州市,Qingzhou Shi,AH,0,0,0
601,110.93065,36.687626,0,0,0,0,0,0,0,0,隰县,Xi Xian,AI,0,0,0
602,111.56273,36.650539,0,0,0,0,0,0,0,0,汾西县,Fenxi Xian,AI,0,0,0
603,114.53043,36.588005,0,0,0,0,0,0,0,0,邯郸县,Handan Xian,AI,0,0,0
604,116.25023,36.586617,0,0,0,0,0,0,0,0,茌平县,Chiping Xian,AI,0,0,0
605,110.00874,36.583702,0,0,0,0,0,0,0,0,延长县,Yanchang Xian,AI,0,0,0
606,107.30432,36.57341,0,0,0,0,0,0,0,0,环县,Huan Xian,AI,0,0,0
607,104.68429,36.565273,0,0,0,0,0,0,0,2,靖远县,Jingyuan Xian,AI,0,0,0
608,113.67039,36.56414,0,0,0,0,0,0,0,0,涉县,She Xian,AI,0,0,0
609,111.72808,36.563824,0,0,0,0,0,0,0,0,霍州市,Huozhou Shi,AH,0,0,0
610,105.64232,36.560551,0,0,0,0,0,0,0,0,海原县,Haiyuan Xian,AI,0,0,0
611,116.72324,36.55283,0,0,0,0,0,0,0,0,长清县,Changqing Xian,AI,0,0,0
612,114.8031,36.552029,0,0,0,0,0,0,0,0,肥乡县,Feixiang Xian,AI,0,0,0
613,113.04076,36.534588,0,0,0,0,0,0,0,0,襄垣县,Xiangyuan Xian,AI,0,0,0
614,115.29815,36.534302,0,0,0,0,0,0,0,0,馆陶县,Guantao Xian,AI,6,0,0
615,118.54277,36.511246,0,0,0,0,0,0,0,0,临朐县,Linqu Xian,AI,0,0,0
616,113.38003,36.504337,0,0,0,0,0,0,0,0,黎城县,Licheng Xian,AI,0,0,0
617,101.56419,36.499611,0,0,0,0,0,0,0,0,湟中县,Huangzhong Xian,AI,0,0,0
618,112.32956,36.497116,0,0,0,0,0,0,0,0,沁源县,Qinyuan Xian,AI,0,0,0
619,102.10476,36.497112,0,0,0,0,0,0,0,0,平安县,Ping'an Xian,AI,0,0,9
620,102.39441,36.487244,0,0,0,0,0,0,0,0,乐都县,Ledu Xian,AI,0,0,0
621,114.93684,36.480518,0,0,0,0,0,0,0,0,广平县,Guangping Xian,AI,0,0,0
622,115.43623,36.473129,0,0,0,0,0,0,0,0,冠县,Guan Xian,AI,0,0,0
623,110.74281,36.469944,0,0,0,0,0,0,0,0,大宁县,Daning Xian,AI,0,0,0
624,107.98985,36.455559,0,0,0,0,0,0,0,0,华池县,Huachi Xian,AI,0,0,0
625,114.69406,36.441349,0,0,0,0,0,0,0,0,成安县,Cheng'an Xian,AI,0,0,0
626,119.19739,36.429054,0,0,0,0,0,0,0,0,安丘县,Anqiu Xian,AI,0,0,0
627,94.893936,36.426014,0,0,0,0,0,0,0,0,格尔木市,Golmud Shi,AH,0,0,0
628,111.0968,36.415764,0,0,0,0,0,0,0,0,蒲县,Pu Xian,AI,0,0,0
629,119.75256,36.385406,0,0,0,0,0,0,0,0,高密县,Gaomi Xian,AI,0,0,0
630,120.45041,36.382107,0,0,0,0,0,0,0,0,即墨市,Jimo Shi,AH,0,0,0
631,114.37424,36.359043,0,0,0,0,0,0,0,0,磁县,Ci Xian,AI,0,0,0
632,114.92826,36.357582,0,0,0,0,0,0,0,0,魏县,Wei Xian,AI,0,0,0
633,114.60708,36.341301,0,0,0,0,0,0,0,0,临漳县,Linzhang Xian,AI,0,0,0
634,113.22115,36.335094,0,0,0,0,0,0,0,0,潞城县,Lucheng Xian,AI,0,0,0
635,102.8064,36.330341,0,0,0,0,0,0,0,0,民和回族土族自治县,Minhe Huizu Tuzu Zizhixian,AI,0,0,0
636,116.23943,36.329586,0,0,0,0,0,0,0,0,东阿县,Dong'e Xian,AI,0,0,0
637,103.94651,36.32497,0,0,0,0,0,0,0,0,皋兰县,Gaolan Xian,AI,0,0,0
638,112.88245,36.321949,0,0,0,0,0,0,1,0,屯留县,Tunliu Xian,AI,0,0,0
639,98.093857,36.306084,0,0,0,0,0,0,2,0,都兰县,Dulan Xian,AI,7,0,0
640,120.0073,36.300026,0,0,0,0,0,0,3,0,胶州市,Jiaozhou Shi,AH,0,0,0
641,116.44867,36.286934,0,0,0,0,0,0,4,0,平阴县,Pingyin Xian,AI,0,0,0
642,111.91692,36.282902,0,0,0,0,0,0,5,0,古县,Gu Xian,AI,0,0,0
643,100.61626,36.28009,0,0,0,0,0,0,6,0,共和县,Gonghe Xian,AI,0,0,0
644,109.34457,36.278625,0,0,0,0,0,0,7,0,甘泉县,Ganquan Xian,AI,0,0,0
645,115.14652,36.275528,0,0,0,0,0,0,8,0,大名县,Daming Xian,AI,0,0,0
646,111.68291,36.259399,0,0,0,0,0,0,9,0,洪洞县,Hongtong Xian,AI,0,0,0
647,115.6663,36.237743,0,0,0,0,0,0,0,0,莘县,Shen Xian,AI,0,0,0
648,117.66173,36.205116,0,0,0,0,0,0,0,0,莱芜市,Laiwu Shi,AH,0,0,0
649,113.43078,36.200932,0,0,0,0,0,0,0,0,平顺县,Pingshun Xian,AI,0,0,0
650,116.76697,36.189663,0,0,0,0,0,0,0,0,肥城县,Feicheng Xian,AI,0,0,0
651,118.16246,36.185055,0,0,0,0,0,0,0,0,沂源县,Yiyuan Xian,AI,0,0,0
652,112.2403,36.144066,0,0,0,0,0,0,0,0,安泽县,Anze Xian,AI,8,0,0
653,112.87379,36.119934,0,0,0,0,0,0,0,0,长子县,Zhangzi Xian,AI,9,0,0
654,115.7755,36.115799,0,0,0,0,0,0,0,0,阳谷县,Yanggu Xian,AI,0,0,0
655,113.19962,36.113499,0,0,0,0,0,0,0,0,壶关县,Huguan Xian,AI,0,0,0
656,114.3455,36.098343,0,0,0,0,0,0,0,0,安阳县,Anyang Xian,AI,0,0,0
657,110.67517,36.095631,0,0,0,0,0,0,0,0,吉县,Ji Xian,AI,0,0,0
658,102.26915,36.093975,0,0,0,0,0,0,0,0,化隆回族自治县,Hualong Huizu Zizhixian,AI,0,0,0
659,115.19762,36.077473,0,0,0,0,0,0,0,0,南乐县,Nanle Xian,AI,0,0,0
660,113.81281,36.068802,0,0,0,0,0,0,0,0,林县,Lin Xian,AI,0,0,0
661,101.4482,36.053295,0,0,0,0,0,0,0,0,贵德县,Guide Xian,AI,0,0,0
662,113.04483,36.045422,0,0,0,0,0,0,0,0,长治县,Changzhi Xian,AI,0,0,0
663,110.16488,36.045174,0,0,0,0,0,0,0,0,宜川县,Yichuan Xian,AI,0,0,0
664,106.2781,36.014095,0,0,0,0,0,0,0,0,固原县,Guyuan Xian,AI,0,0,0
665,107.87602,36.005165,0,0,0,0,0,0,0,0,庆阳县,Qingyang Xian,AI,0,0,0
666,115.85392,35.996849,0,0,0,0,0,0,0,0,台前县,Taiqian Xian,AI,0,0,0
667,109.36716,35.995628,0,0,0,0,0,0,0,0,富县,Fu Xian,AI,0,0,0
668,119.40398,35.993355,0,0,0,0,0,0,0,0,诸城市,Zhucheng Shi,AH,0,0,0
669,110.83298,35.973175,0,0,0,0,0,0,0,0,乡宁县,Xiangning Xian,AI,0,0,0
670,105.7244,35.97123,0,0,0,0,0,0,0,0,西吉县,Xiji Xian,AI,0,0,0
671,111.84244,35.967442,0,0,0,0,0,0,0,0,浮山县,Fushan Xian,AI,0,0,0
672,114.89738,35.953903,0,0,0,0,0,0,0,0,内黄县,Neihuang Xian,AI,0,0,0
673,103.34034,35.947586,0,0,0,0,0,0,0,9,永靖县,Yongjing Xian,AI,0,0,0
674,102.03659,35.936253,0,0,0,0,0,0,0,0,尖扎县,Jianzha Xian,AI,0,0,0
675,114.35269,35.925518,0,0,0,0,0,0,0,0,汤阴县,Tangyin Xian,AI,0,0,0
676,115.4877,35.911049,0,0,0,0,0,0,0,0,范县,Fan Xian,AI,0,0,0
677,116.29917,35.910343,0,0,0,0,0,0,0,0,东平县,Dongping Xian,AI,0,0,0
678,117.75588,35.90966,0,0,0,0,0,0,0,0,新泰市,Xintai Shi,AH,4,0,0
679,115.11004,35.908768,0,0,0,0,0,0,0,0,清丰县,Qingfeng Xian,AI,0,0,0
680,119.97691,35.876053,0,0,0,0,0,0,0,0,胶南市,Jiaonan Shi,AH,0,0,0
681,111.43651,35.867706,0,0,0,0,0,0,0,0,襄汾县,Xiangfen Xian,AI,0,0,0
682,104.10787,35.846821,0,0,0,0,0,0,0,0,榆中县,Yuzhong Xian,AI,0,0,0
683,102.48079,35.846066,0,0,0,0,0,0,0,0,循化撒拉族自治县,Xunhua Salazu Zizhixian,AI,0,0,0
684,106.64259,35.843468,0,0,0,0,0,0,0,0,彭阳县,Pengyang Xian,AI,0,0,0
685,108.01901,35.817829,0,0,0,0,0,0,0,0,合水县,Heshui Xian,AI,0,0,0
686,116.08621,35.802727,0,0,0,0,0,0,0,0,梁山县,Liangshan Xian,AI,0,0,0
687,112.91959,35.792057,0,0,0,0,0,0,0,0,高平县,Gaoping Xian,AI,1,0,0
688,118.62395,35.791027,0,0,0,0,0,0,0,0,沂水县,Yishui Xian,AI,0,0,0
689,113.27701,35.778126,0,0,0,0,0,0,0,0,陵川县,Lingchuan Xian,AI,0,0,0
690,116.79002,35.764397,0,0,0,0,0,0,0,0,宁阳县,Ningyang Xian,AI,0,0,0
691,109.42742,35.761604,0,0,0,0,0,0,0,0,洛川县,Luochuan Xian,AI,8,0,0
692,119.20094,35.748051,0,0,0,0,0,0,0,0,五莲县,Wulian Xian,AI,0,0,0
693,111.70844,35.738762,0,0,0,0,0,0,0,0,翼城县,Yicheng Xian,AI,0,0,0
694,116.48556,35.729855,0,0,0,0,0,0,0,0,汶上县,Wenshang Xian,AI,0,0,0
695,102.87244,35.719296,0,0,0,0,0,0,0,0,积石山保安族东乡族撒拉族自治县,Jishishan  Bao'anzu Dongxiangzu Salazu Zizhixian,AI,0,0,0
696,117.92838,35.713753,0,0,0,0,0,0,0,0,蒙阴县,Mengyin Xian,AI,0,0,0
697,115.01371,35.705147,0,0,0,0,0,0,0,0,濮阳县,Puyang Xian,AI,0,0,0
698,105.05614,35.694199,0,0,0,0,0,0,0,0,会宁县,Huining Xian,AI,0,0,0
699,112.17013,35.690399,0,0,0,0,0,0,0,0,沁水县,Qinshui Xian,AI,0,0,0
700,107.19681,35.683887,0,0,0,0,0,0,0,0,镇原县,Zhenyuan Xian,AI,0,0,0
701,114.54432,35.668385,0,0,0,0,0,0,0,0,浚县,Xun Xian,AI,0,0,0
702,103.38943,35.66407,0,0,0,0,0,0,0,0,东乡族自治县,Dongxiangzu Zizhixian,AI,0,0,0
703,117.27132,35.660744,0,0,0,0,0,0,0,0,泗水县,Sishui Xian,AI,0,0,0
704,111.47002,35.641285,0,0,0,0,0,0,0,0,曲沃县,Quwo Xian,AI,0,0,0
705,106.12224,35.617092,0,0,0,0,0,0,0,4,隆德县,Longde Xian,AI,0,0,0
706,111.21615,35.616409,0,0,0,0,0,0,0,0,新绛县,Xinjiang Xian,AI,0,0,0
707,111.33807,35.608864,0,0,0,0,0,0,0,0,侯马市,Houma Shi,AH,0,0,0
708,114.19437,35.606449,0,0,0,0,0,0,0,0,淇县,Qi Xian,AI,0,0,0
709,115.93501,35.605061,0,0,0,0,0,0,0,0,郓城县,Yuncheng Xian,AI,0,0,0
710,110.97883,35.602161,0,0,0,0,0,0,0,0,稷山县,Jishan Xian,AI,0,0,0
711,116.98723,35.598602,0,0,0,0,0,0,0,0,曲阜市,Qufu Shi,AH,0,0,0
712,109.83678,35.591377,0,0,0,0,0,0,0,0,黄龙县,Huanglong Xian,AI,0,0,0
713,99.990868,35.589657,0,0,0,0,0,0,0,0,兴海县,Xinghai Xian,AI,6,0,0
714,109.26382,35.589474,0,0,0,0,0,0,0,0,黄陵县,Huangling Xian,AI,0,0,0
715,110.69781,35.587402,0,0,0,0,0,0,0,0,河津县,Hejin Xian,AI,0,0,0
716,100.74362,35.584301,0,0,0,0,0,0,0,0,贵南县,Guinan Xian,AI,0,0,0
717,118.83442,35.581886,0,0,0,0,0,0,0,0,莒县,Ju Xian,AI,0,0,0
718,114.5108,35.581505,0,0,0,0,0,0,0,0,滑县,Hua Xian,AI,0,0,0
719,104.62031,35.575092,0,0,0,0,0,0,0,0,定西县,Dingxi Xian,AI,0,0,0
720,115.50055,35.573517,0,0,0,0,0,0,0,0,鄄城县,Juancheng Xian,AI,0,0,0
721,116.8237,35.556698,0,0,0,0,0,0,0,0,兖州县,Yanzhou Xian,AI,0,0,0
722,118.46138,35.55386,0,0,0,0,0,0,0,0,沂南县,Yinan Xian,AI,0,0,0
723,105.72882,35.524097,0,0,0,0,0,0,0,0,静宁县,jingning Xian,AI,0,0,0
724,102.00889,35.511459,0,0,0,0,0,0,0,0,同仁县,Tongren Xian,AI,0,0,0
725,117.62941,35.505894,0,0,0,0,0,0,0,0,平邑县,Pingyi Xian,AI,0,0,0
726,107.93047,35.501427,0,0,0,0,0,0,0,0,宁县,Ning Xian,AI,0,0,0
727,102.98101,35.496674,0,0,0,0,0,0,0,0,临夏县,Linxia Xian,AI,0,0,0
728,108.37039,35.494724,0,0,0,0,0,0,0,0,正宁县,Zhengning Xian,AI,0,0,0
729,106.34081,35.494087,0,0,0,0,0,0,0,0,泾源县,Jingyuan Xian,AI,0,0,0
730,112.418,35.490593,0,0,0,0,0,0,0,0,阳城县,Yangcheng Xian,AI,0,0,0
731,111.56133,35.489243,0,0,0,0,0,0,0,0,绛县,Jiang Xian,AI,0,0,0
732,103.56407,35.478271,0,0,0,0,0,0,0,0,广河县,Guanghe Xian,AI,0,0,0
733,110.43764,35.465939,0,0,0,0,0,0,0,0,韩城市,Hancheng Shi,AH,0,0,0
734,113.79414,35.458675,0,0,0,0,0,0,0,0,辉县市,Huixian Shi,AH,0,0,0
735,103.34565,35.430473,0,0,0,0,0,0,0,0,和政县,Hezheng Xian,AI,0,0,0
736,110.83169,35.415573,0,0,0,0,0,0,0,0,万荣县,Wanrong Xian,AI,0,0,0
737,114.07027,35.410385,0,0,0,0,0,0,0,4,卫辉市,Weihui Shi,AH,0,0,0
738,116.96844,35.40382,0,0,0,0,0,0,0,0,邹县,Zou Xian,AI,0,0,0
739,116.34298,35.400688,0,0,0,0,0,0,0,0,嘉祥县,Jiaxiang Xian,AI,0,0,0
740,109.11311,35.397278,0,0,0,0,0,0,0,0,宜君县,Yijun Xian,AI,0,0,0
741,116.08871,35.39621,0,0,0,0,0,0,0,0,巨野县,Juye Xian,AI,0,0,0
742,103.85794,35.379147,0,0,0,0,0,0,0,0,临洮县,Lintao Xian,AI,0,0,0
743,103.70357,35.371662,0,0,0,0,0,0,0,0,康乐县,Kangle Xian,AI,0,0,0
744,111.21721,35.357723,0,0,0,0,0,0,0,0,闻喜县,Wenxi Xian,AI,0,0,0
745,107.36339,35.328808,0,0,0,0,0,0,0,0,泾川县,Jingchuan Xian,AI,0,0,0
746,113.86825,35.30994,0,0,0,0,0,0,0,0,新乡县,Xinxiang Xian,AI,0,0,0
747,107.04573,35.305904,0,0,0,0,0,0,0,0,崇信县,Chongxin Xian,AI,0,0,0
748,111.67043,35.300838,0,0,0,0,0,0,0,0,垣曲县,Yuanqu Xian,AI,0,0,0
749,115.08884,35.298492,0,0,0,0,0,0,0,0,东明县,Dongming Xian,AI,0,0,0
750,113.66022,35.268127,0,0,0,0,0,0,0,0,获嘉县,Huojia Xian,AI,0,0,0
751,117.96462,35.265209,0,0,0,0,0,0,0,0,费县,Fei Xian,AI,0,0,0
752,100.57506,35.254711,0,0,0,0,0,0,0,0,同德县,Tongde Xian,AI,0,0,0
753,110.15102,35.242584,0,0,0,0,0,0,0,0,合阳县,Heyang Xian,AI,0,0,0
754,113.43484,35.231197,0,0,0,0,0,0,0,0,修武县,Xiuwu Xian,AI,0,0,0
755,106.65195,35.218842,0,0,0,0,0,0,0,0,华亭县,Huating Xian,AI,2,0,0
756,105.24949,35.213928,0,0,0,0,0,0,0,0,通渭县,Tongwei Xian,AI,0,0,0
757,107.78932,35.205441,0,0,0,0,0,0,0,0,长武县,Changwu Xian,AI,0,0,0
758,102.50566,35.204971,0,0,0,0,0,0,0,0,夏河县,Xiahe xian,AI,0,0,0
759,106.04574,35.200787,0,0,0,0,0,0,0,0,庄浪县,Zhuanglang Xian,AI,5,0,0
760,114.68272,35.19836,0,0,0,0,0,0,0,0,长垣县,Changyuan Xian,AI,0,0,0
761,109.93044,35.190914,0,0,0,0,0,0,0,0,澄城县,Chengcheng Xian,AI,0,0,0
762,118.82428,35.182281,0,0,0,0,0,0,0,0,莒南县,Junan Xian,AI,0,0,0
763,109.58706,35.181622,0,0,0,0,0,0,0,0,白水县,Baishui Xian,AI,0,0,0
764,113.06248,35.165844,0,0,0,0,0,0,0,0,博爱县,Bo'ai Xian,AI,0,0,0
765,110.77404,35.147945,0,0,0,0,0,0,0,0,临猗县,Linyi Xian,AI,0,0,0
766,114.19469,35.142761,0,0,0,0,0,0,0,0,延津县,Yanjin Xian,AI,0,0,0
767,104.21017,35.139488,0,0,0,0,0,0,0,0,渭源县,Weiyuan Xian,AI,0,0,0
768,111.22005,35.137451,0,0,0,0,0,0,0,0,夏县,Xia Xian,AI,0,0,0
769,108.33258,35.122498,0,0,0,0,0,0,0,0,旬邑县,Xunyi Xian,AI,0,0,0
770,113.39246,35.098892,0,0,0,0,0,0,0,0,武陟县,Wuzhi Xian,AI,0,0,0
771,112.58267,35.092438,0,0,0,0,0,0,0,0,济源市,Jiyuan Shi,AH,0,0,0
772,112.93699,35.089302,0,0,0,0,0,0,0,0,沁阳市,Qinyang Shi,AH,0,0,0
773,117.15816,35.08609,0,0,0,0,0,0,0,0,滕州市,Tengzhou Shi,AH,0,0,1
774,115.56662,35.073986,0,0,0,0,0,0,0,0,定陶县,Dingtao Xian,AI,0,0,0
775,107.6163,35.071903,0,0,0,0,0,0,0,0,灵台县,Lingtai Xian,AI,0,0,0
776,116.30453,35.068165,0,0,0,0,0,0,0,8,金乡县,Jinxiang Xian,AI,0,0,0
777,113.96297,35.051949,0,0,0,0,0,0,0,0,原阳县,Yuanyang Xian,AI,0,0,0
778,114.40883,35.039677,0,0,0,0,0,0,0,0,封丘县,Fengqiu Xian,AI,0,0,0
779,108.07799,35.039658,0,0,0,0,0,0,0,0,彬县,Bin Xian,AI,0,0,0
780,101.47086,35.03656,0,0,0,0,0,0,0,0,泽库县,Zeekog Xian,AI,0,0,0
781,104.6356,35.007137,0,0,0,0,0,0,0,0,陇西县,Longxi Xian,AI,0,0,0
782,116.6497,34.998501,0,0,0,0,0,0,0,0,鱼台县,Yutai Xian,AI,0,0,0
783,106.21236,34.995049,0,0,0,0,0,0,0,0,张家川回族自治县,Zhangjiachuan Huizu Zizhixian,AI,0,0,0
784,115.87518,34.962231,0,0,0,0,0,0,0,0,成武县,Chengwu Xian,AI,0,0,0
785,109.58512,34.955936,0,0,0,0,0,0,0,0,蒲城县,Pucheng Xian,AI,0,0,0
786,113.07546,34.938118,0,0,0,0,0,0,0,0,温县,Wen Xian,AI,0,0,0
787,118.64453,34.924881,0,0,0,0,0,0,0,0,临沭县,Linshu Xian,AI,0,0,0
788,98.208473,34.921768,0,0,0,0,0,0,0,0,玛多县,Madoi Xian,AI,0,0,2
789,108.97147,34.913269,0,0,0,0,0,0,0,0,耀县,Yao Xian,AI,0,0,0
790,112.7828,34.903179,0,0,0,0,0,0,0,0,孟县,Meng Xian,AI,0,0,0
791,106.85296,34.891407,0,0,0,0,0,0,0,0,陇县,Long Xian,AI,0,0,0
792,110.44372,34.866585,0,0,0,0,0,0,0,0,永济县,Yongji Xian,AI,0,0,0
793,105.67271,34.86322,0,0,0,0,0,0,0,0,秦安县,Qin'an Xian,AI,0,0,0
794,118.04575,34.85371,0,0,0,0,0,0,0,0,苍山县,Cangshan Xian,AI,0,0,0
795,104.47214,34.850636,0,0,0,0,0,0,0,6,漳县,Zhang Xian,AI,0,0,0
796,111.21096,34.841091,0,0,0,0,0,0,0,0,平陆县,Pinglu Xian,AI,0,0,0
797,119.12331,34.840782,0,0,0,0,0,0,0,0,赣榆县,Ganyu Xian,AI,0,0,0
798,112.43572,34.828304,0,0,0,0,0,0,0,0,孟津县,Mengjin Xian,AI,0,0,0
799,115.53945,34.827587,0,0,0,0,0,0,0,0,曹县,Cao Xian,AI,0,0,0
800,114.81012,34.826515,0,0,0,0,0,0,0,0,兰考县,Lankao Xian,AI,8,0,0
801,108.57009,34.808723,0,0,0,0,0,0,0,0,淳化县,Chunhua Xian,AI,0,0,0
802,117.1163,34.804466,0,0,0,0,0,0,0,0,微山县,Weishan Xian,AI,0,0,0
803,116.07925,34.797901,0,0,0,0,0,0,0,0,单县,Shan Xian,AI,0,0,0
804,109.93905,34.797245,0,0,0,0,0,0,0,0,大荔县,Dali Xian,AI,0,0,0
805,113.3474,34.783108,0,0,0,0,0,0,0,0,荥阳县,Xingyang Xian,AI,0,0,0
806,111.19497,34.7817,0,0,0,0,0,0,0,0,陕县,Shan Xian,AI,0,0,0
807,112.96642,34.768822,0,0,0,0,0,0,0,0,巩县,Gong Xian,AI,0,0,0
808,111.76631,34.765198,0,0,0,0,0,0,0,0,渑池县,Mianchi Xian,AI,0,0,0
809,114.42587,34.759876,0,0,0,0,0,0,0,0,开封县,Kaifeng Xian,AI,0,0,0
810,109.16157,34.754429,0,0,0,0,0,0,0,0,富平县,Fuping Xian,AI,0,0,0
811,106.13658,34.746304,0,0,0,0,0,0,0,0,清水县,Qingshui Xian,AI,0,0,0
812,105.32908,34.739437,0,0,0,0,0,0,0,0,甘谷县,Gangu Xian,AI,0,0,0
813,116.92695,34.737995,0,0,0,0,0,0,0,0,沛县,Pei Xian,AI,0,0,0
814,101.61309,34.737598,0,0,0,0,0,0,0,0,河南蒙古族自治县,Henan Mongolzu Zizhixian,AI,0,0,0
815,112.1443,34.733059,0,0,0,0,0,0,0,0,新安县,Xin'an Xian,AI,0,0,0
816,114.02625,34.732094,0,0,0,0,0,0,0,0,中牟县,Zhongmou Xian,AI,0,0,0
817,112.77994,34.731133,0,0,1,1,0,0,0,0,偃师县,Yanshi Xian,AI,0,0,0
818,111.91818,34.726078,0,0,2,2,0,0,0,0,义马市,Yima Shi,AH,0,0,0
819,104.88529,34.720016,0,0,3,3,0,0,0,0,武山县,Wushan Xian,AI,0,0,0
820,116.58418,34.703617,0,0,4,4,0,0,0,0,丰县,Feng Xian,AI,0,0,0
821,110.68829,34.697308,0,0,5,5,0,0,0,0,芮城县,Ruicheng Xian,AI,0,0,0
822,108.1384,34.695213,0,0,6,6,0,0,0,0,永寿县,Yongshou Xian,AI,0,0,0
823,103.35958,34.688717,0,0,7,7,0,0,0,0,临潭县,Lintan Xian,AI,0,0,0
824,107.81314,34.683945,0,0,8,8,0,0,0,0,麟游县,Linyou Xian,AI,0,0,0
825,115.13981,34.654659,0,0,9,9,0,0,0,0,民权县,Minquan Xian,AI,0,0,0
826,107.13386,34.644875,0,0,0,0,0,0,0,0,千阳县,Qianyang Xian,AI,0,0,0
827,108.92629,34.619747,0,0,0,0,0,0,0,0,三原县,Sanyuan Xian,AI,0,0,0
828,118.33446,34.618134,0,0,0,0,0,0,0,0,郯城县,Tancheng Xian,AI,0,0,0
829,103.50758,34.598072,0,0,0,0,0,0,0,0,卓尼县,Zhuoni Xian,AI,0,0,0
830,102.48956,34.596649,0,0,0,0,0,0,0,0,碌曲县,Luqu Xian,AI,0,0,0
831,110.08936,34.56831,0,0,0,0,0,0,0,0,华阴县,Huayin Xian,AI,0,0,0
832,114.77448,34.553513,0,0,0,0,0,0,0,0,杞县,Qi Xian,AI,0,0,0
833,110.24547,34.545723,0,0,0,0,0,0,0,0,潼关县,Tongguan Xian,AI,0,0,0
834,108.83756,34.533337,0,0,0,0,0,0,0,0,泾阳县,Jingyang Xian,AI,0,0,0
835,109.08047,34.533325,0,0,0,0,0,0,0,0,高陵县,Gaoling Xian,AI,0,0,0
836,108.2356,34.5303,0,0,0,0,0,0,0,0,乾县,Qian Xian,AI,0,0,0
837,110.86538,34.527512,0,0,0,0,0,0,0,0,灵宝县,Lingbao Xian,AI,0,0,0
838,118.75987,34.527508,0,0,0,0,0,0,0,0,东海县,Donghai Xian,AI,0,0,0
839,107.38592,34.522518,0,0,0,0,0,0,0,0,凤翔县,Fengxiang Xian,AI,0,0,0
840,109.75989,34.519627,0,0,0,0,0,0,0,0,华县,Hua Xian,AI,0,0,0
841,113.35456,34.514629,0,0,0,0,0,0,0,0,密县,Mi Xian,AI,0,0,0
842,112.16522,34.512718,0,0,0,0,0,0,0,0,宜阳县,Yiyang Xian,AI,0,0,0
843,108.41656,34.489967,0,0,0,0,0,0,0,1,礼泉县,Liquan Xian,AI,0,0,0
844,114.45908,34.475006,0,0,0,0,0,0,0,0,通许县,Tongxu Xian,AI,0,0,0
845,100.24619,34.474026,0,0,0,0,0,0,0,0,玛沁县,Maqeen Xian,AI,0,0,0
846,113.02462,34.455818,0,0,0,0,0,0,0,0,登封县,Dengfeng Xian,AI,0,0,0
847,115.31537,34.445976,0,0,0,0,0,0,0,0,宁陵县,Ningling Xian,AI,0,0,0
848,107.62709,34.439636,0,0,0,0,0,0,0,0,岐山县,Qishan Xian,AI,0,0,0
849,104.03025,34.436455,0,0,0,0,0,0,0,0,岷县,Min Xian,AI,0,0,0
850,115.06597,34.430504,0,0,0,0,0,0,0,0,睢县,Sui Xian,AI,0,0,0
851,116.34025,34.427879,0,0,0,0,0,0,0,0,砀山县,Dangshan Xian,AI,0,0,0
852,112.42628,34.421947,0,0,0,0,0,0,0,0,伊川县,Yichuan Xian,AI,0,0,0
853,114.18077,34.413452,0,0,0,0,0,0,0,0,尉氏县,Weishi Xian,AI,0,0,0
854,115.85235,34.401199,0,0,0,0,0,0,0,0,虞城县,Yucheng Xian,AI,0,0,0
855,113.71909,34.397324,0,0,0,0,0,0,1,0,新郑县,Xinzheng Xian,AI,0,0,0
856,111.6534,34.385807,0,0,0,0,0,0,2,0,洛宁县,Luoning Xian,AI,0,0,0
857,115.60745,34.385052,0,0,0,0,0,0,3,0,商丘县,Shangqiu Xian,AI,0,0,0
858,118.34036,34.373093,0,0,0,0,0,0,5,0,新沂市,Xinyi Shi,AH,0,0,0
859,109.21272,34.368351,0,0,0,0,0,0,6,0,临潼县,Lintong Xian,AI,0,0,0
860,107.86849,34.361824,0,0,0,0,0,0,7,0,扶风县,Fufeng Xian,AI,9,0,0
861,107.38158,34.349838,0,0,0,0,0,0,8,0,宝鸡县,Baoji Xian,AI,0,0,0
862,117.95779,34.314041,0,0,0,0,0,0,0,0,邳县,Pi Xian,AI,0,0,0
863,108.4826,34.298721,0,0,0,0,0,0,0,0,兴平县,Xingping Xian,AI,0,0,0
864,119.25579,34.298286,0,0,0,0,0,0,0,0,灌云县,Guanyun Xian,AI,0,0,0
865,107.75479,34.273563,0,0,0,0,0,0,0,0,眉县,Mei Xian,AI,0,0,0
866,117.18768,34.269634,0,0,0,0,0,0,0,0,铜山县,Tongshan Xian,AI,0,0,0
867,108.19746,34.268913,0,0,0,0,0,0,0,0,武功县,Wugong Xian,AI,0,0,0
868,116.12141,34.237991,0,0,0,0,0,0,0,0,夏邑县,Xiayi Xian,AI,0,0,0
869,113.76073,34.223938,0,0,0,0,0,0,0,8,长葛县,Changge Xian,AI,0,0,0
870,119.56526,34.20026,0,0,0,0,0,0,0,0,响水县,Xiangshui Xian,AI,0,0,0
871,116.93383,34.192528,0,0,0,0,0,0,0,0,萧县,Xiao Xian,AI,0,0,0
872,105.17829,34.191364,0,0,0,0,0,0,0,0,礼县,Li Xian,AI,0,0,0
873,108.21199,34.171139,0,0,0,0,0,0,0,0,周至县,Zhouzhi Xian,AI,7,0,0
874,113.46706,34.162491,0,0,0,0,0,0,0,0,禹州市,Yuzhou Shi,AH,0,0,0
875,112.83702,34.161762,0,0,0,0,0,0,0,0,汝州市,Ruzhou Shi,AH,0,0,0
876,108.945,34.161434,0,0,0,0,0,0,0,0,长安县,Chang'an Xian,AI,9,0,0
877,112.45784,34.15575,0,0,0,0,0,0,0,0,汝阳县,Ruyang Xian,AI,0,0,0
878,109.32156,34.153698,0,0,0,0,0,0,0,0,蓝田县,Lantian Xian,AI,0,0,0
879,112.08755,34.147213,0,0,0,0,0,0,0,0,嵩县,Song Xian,AI,0,0,0
880,118.77732,34.134148,0,0,0,0,0,0,0,8,沭阳县,Shuyang Xian,AI,0,0,7
881,95.773033,34.12722,0,0,0,0,0,0,0,0,曲麻莱县,Qumarleeb Xian,AI,0,0,0
882,108.6039,34.11182,0,0,0,0,0,0,0,0,户县,Hu Xian,AI,0,0,0
883,114.19534,34.107433,0,0,0,0,0,0,0,0,鄢陵县,Yanling Xian,AI,0,0,0
884,110.13496,34.095757,0,0,0,0,0,0,0,0,洛南县,Luonan Xian,AI,0,0,0
885,119.34633,34.090416,0,0,0,0,0,0,0,0,灌南县,Guannan Xian,AI,0,0,6
886,115.29646,34.076611,0,0,0,0,0,0,0,0,柘城县,Zhecheng Xian,AI,0,0,0
887,107.30506,34.066788,0,0,0,0,0,0,0,0,太白县,Taibai Xian,AI,0,0,0
888,114.85638,34.063873,0,0,0,0,0,0,0,0,太康县,Taikang Xian,AI,0,0,4
889,103.21825,34.062107,0,0,0,0,0,0,0,0,迭部县,Diebu Xian,AI,0,0,0
890,114.38127,34.060081,0,0,0,0,0,0,0,0,扶沟县,Fugou Xian,AI,0,0,1
891,111.04092,34.052612,0,0,0,0,0,0,0,0,卢氏县,Lushi Xian,AI,0,0,0
892,104.39568,34.050892,0,0,0,0,0,0,0,0,宕昌县,Dangchang Xian,AI,0,0,0
893,113.81975,34.031391,0,0,0,0,0,0,0,0,许昌县,Xuchang Xian,AI,0,0,0
894,105.29073,34.011929,0,0,0,0,0,0,0,0,西和县,Xihe Xian,AI,0,0,0
895,119.83395,34.011044,0,0,0,0,0,0,0,0,滨海县,Binhai Xian,AI,0,0,0
896,102.07683,33.995193,0,0,0,0,0,0,0,0,玛曲县,Maqu Xian,AI,0,0,0
897,113.20341,33.972054,0,0,0,0,0,0,0,0,郏县,Jia Xian,AI,0,0,9
898,99.89917,33.95948,0,0,0,0,0,0,0,0,甘德县,Gadee Xian,AI,0,0,0
899,118.29706,33.958302,0,0,0,0,0,0,0,0,宿迁市,Suqian Shi,AH,0,0,0
900,116.364,33.939457,0,0,0,0,0,0,0,0,永城县,Yongcheng Xian,AI,0,0,0
901,106.51279,33.918312,0,0,0,0,0,0,0,0,凤县,Feng Xian,AI,0,0,0
902,116.77503,33.915382,0,0,0,0,0,0,0,0,濉溪县,Suixi Xian,AI,0,0,0
903,106.29855,33.90963,0,0,0,0,0,0,0,0,两当县,Liangdang Xian,AI,0,0,0
904,117.94442,33.899052,0,0,0,0,0,0,0,0,睢宁县,Suining Xian,AI,0,0,0
905,115.7709,33.879292,0,0,0,0,0,0,0,0,亳州市,Bozhou Shi,AH,0,0,0
906,113.06117,33.871128,0,0,0,0,0,0,0,0,宝丰县,Baofeng Xian,AI,0,0,5
907,115.48136,33.860767,0,0,0,0,0,0,0,0,鹿邑县,Luyi Xian,AI,0,0,5
908,95.613853,33.857201,0,0,0,0,0,0,0,0,治多县,Zhidoi Xian,AI,0,0,0
909,113.47237,33.853691,0,0,0,0,0,0,0,0,襄城县,Xiangcheng Xian,AI,0,0,0
910,113.96064,33.808605,0,0,0,0,0,0,0,0,临颍县,Linying Xian,AI,0,0,0
911,114.52444,33.793056,0,0,0,0,0,0,0,0,西华县,Xihua Xian,AI,0,0,2
912,119.79275,33.791904,0,0,0,0,0,0,0,0,阜宁县,Funing Xian,AI,0,0,0
913,104.3654,33.790802,0,0,0,0,0,0,0,0,舟曲县,Zhouqu Xian,AI,0,0,0
914,111.61588,33.78941,0,0,0,0,0,0,0,4,栾川县,Luanchuan Xian,AI,0,0,0
915,106.08667,33.777554,0,0,0,0,0,0,0,0,徽县,Hui Xian,AI,0,0,0
916,120.25701,33.76915,0,0,0,0,0,0,0,0,射阳县,Sheyang Xian,AI,0,0,0
917,119.26123,33.766373,0,0,0,0,0,0,0,0,涟水县,Lianshui Xian,AI,0,0,0
918,99.652039,33.74984,0,0,0,0,0,0,0,0,达日县,Tarlag Xian,AI,0,0,0
919,105.73032,33.743565,0,0,0,0,0,0,0,5,成县,Cheng Xian,AI,0,0,0
920,112.90194,33.737118,0,0,0,0,0,0,0,0,鲁山县,Lushan Xian,AI,0,0,7
921,114.88245,33.733982,0,0,0,0,0,0,0,0,淮阳县,Huaiyang Xian,AI,0,0,7
922,118.67892,33.711864,0,0,0,0,0,0,0,0,泗阳县,Siyang Xian,AI,0,0,9
923,110.32864,33.694244,0,0,0,0,0,0,0,0,丹凤县,Danfeng Xian,AI,0,0,0
924,109.1132,33.679565,0,0,0,0,0,0,0,0,柞水县,Zuoshui Xian,AI,0,0,0
925,115.18975,33.644604,0,0,0,0,0,0,0,0,郸城县,Dancheng Xian,AI,0,0,6
926,116.9714,33.642368,0,0,0,0,0,0,0,0,宿县,Su Xian,AI,0,0,0
927,119.01759,33.629189,0,0,0,0,0,0,0,0,淮阴县,Huaiyin Xian,AI,0,0,5
928,113.34553,33.623302,0,0,0,0,0,0,0,0,叶县,Ye Xian,AI,0,0,6
929,106.92735,33.619236,0,0,0,0,0,0,0,0,留坝县,Liuba Xian,AI,0,0,0
930,113.99039,33.596268,0,0,0,0,0,0,0,6,郾城县,Yancheng Xian,AI,0,0,0
931,102.9584,33.57943,0,0,0,0,0,0,0,0,若尔盖县,Ruo'ergai Xian,AI,0,0,0
932,117.55181,33.545761,0,0,0,0,0,0,0,0,灵璧县,Lingbi Xian,AI,0,0,0
933,114.59573,33.537884,0,0,0,0,0,0,0,0,商水县,Shangshui Xian,AI,0,0,3
934,109.87898,33.533928,0,0,0,0,0,0,0,0,山阳县,Shanyang Xian,AI,0,0,0
935,110.87067,33.530945,0,0,0,0,0,0,0,0,商南县,Shangnan Xian,AI,0,0,0
936,107.99208,33.525879,0,0,0,0,0,0,0,0,佛坪县,Foping Xian,AI,0,0,0
937,116.21124,33.51041,0,0,0,0,0,0,0,0,涡阳县,Guoyang Xian,AI,0,0,0
938,119.14111,33.502789,0,0,0,0,0,0,0,0,淮安市,Huai'an Shi,AH,0,0,0
939,112.42433,33.494419,0,0,0,0,0,0,0,0,南召县,Nanzhao Xian,AI,0,0,0
940,117.87888,33.478374,0,0,0,0,0,0,0,0,泗县,Si Xian,AI,0,0,0
941,119.78514,33.468704,0,0,0,0,0,0,0,0,建湖县,Jianhu Xian,AI,0,0,0
942,118.21172,33.456211,0,0,0,0,0,0,0,0,泗洪县,Sihong Xian,AI,4,0,0
943,114.89969,33.442211,0,0,0,0,0,0,0,0,项城县,Xiangcheng Xian,AI,0,0,9
944,113.5869,33.432571,0,0,0,0,0,0,0,0,舞阳县,Wuyang Xian,AI,0,0,0
945,109.15329,33.431843,0,0,0,0,0,0,0,0,镇安县,Zhen'an Xian,AI,0,0,0
946,101.4827,33.42585,0,0,0,0,0,0,0,0,久治县,Jigzhi Xian,AI,4,0,1
947,79.65387,33.422401,0,0,0,0,0,0,0,0,日土县,Rutog Xian,AI,0,0,0
948,115.06371,33.397488,0,0,0,0,0,0,0,0,沈丘县,Shenqiu Xian,AI,0,0,8
949,104.92928,33.39484,0,0,0,0,0,0,0,0,武都县,Wudu Xian,AI,0,0,0
950,114.01553,33.389057,0,0,0,0,0,0,0,0,西平县,Xiping Xian,AI,0,0,0
951,97.104103,33.360184,0,0,0,0,0,0,0,0,称多县,Chindu Xian,AI,0,0,0
952,105.60007,33.336685,0,0,0,0,0,0,0,0,康县,Kang Xian,AI,8,0,0
953,106.16131,33.332401,0,0,0,0,0,0,0,0,略阳县,Lueyang Xian,AI,0,0,0
954,108.32333,33.321884,0,0,0,0,0,0,0,0,宁陕县,Ningshan Xian,AI,0,0,0
955,113.5099,33.316284,0,0,0,0,0,0,0,0,舞钢市,Wugang Shi,AH,0,0,0
956,117.31171,33.314575,0,0,0,0,0,0,0,0,固镇县,Guzhen Xian,AI,0,0,0
957,111.47452,33.300713,0,0,0,0,0,0,0,0,西峡县,Xixia Xian,AI,0,0,0
958,118.84305,33.295208,0,0,0,0,0,0,0,0,洪泽县,Hongze Xian,AI,0,0,0
959,116.55575,33.268639,0,0,0,0,0,0,0,0,蒙城县,Mengcheng Xian,AI,0,0,0
960,114.25935,33.267239,0,0,0,0,0,0,0,0,上蔡县,Shangcai Xian,AI,0,0,0
961,115.35361,33.262821,0,0,0,0,0,0,0,0,界首市,Jieshou Shi,AH,0,0,0
962,112.99251,33.260078,0,0,0,0,0,0,0,0,方城县,Fangcheng Xian,AI,0,0,0
963,104.22585,33.258823,0,0,0,0,0,0,0,0,南坪县,Nanping Xian,AI,0,0,0
964,119.31004,33.235947,0,0,0,0,0,0,0,0,宝应县,Baoying Xian,AI,0,0,0
965,107.54173,33.221088,0,0,0,0,0,0,0,0,洋县,Yang Xian,AI,0,0,0
966,120.45911,33.196274,0,0,0,0,0,0,0,4,大丰县,Dafeng Xian,AI,0,0,0
967,115.60896,33.16544,0,0,0,0,0,0,0,0,太和县,Taihe Xian,AI,3,0,0
968,107.32794,33.157131,0,0,0,0,0,0,0,0,城固县,Chenggu Xian,AI,0,0,0
969,106.67147,33.156429,0,0,0,0,0,0,0,0,勉县,Mian Xian,AI,0,0,0
970,113.98911,33.147839,0,0,0,0,0,0,0,0,遂平县,Suiping Xian,AI,0,0,0
971,117.88253,33.139736,0,0,0,0,0,0,0,0,五河县,Wuhe Xian,AI,0,0,0
972,111.4791,33.138515,0,0,0,0,0,0,0,0,淅川县,Xichuan Xian,AI,0,0,0
973,116.20302,33.133087,0,0,0,0,0,0,0,0,利辛县,Lixin Xian,AI,0,0,0
974,115.25605,33.071312,0,0,0,0,0,0,0,0,临泉县,Linquan Xian,AI,0,0,0
975,112.93617,33.05994,0,0,0,0,0,0,0,0,社旗县,Sheqi Xian,AI,0,0,0
976,111.83859,33.050232,0,0,0,0,0,0,0,0,内乡县,Neixiang Xian,AI,0,0,0
977,108.25346,33.043373,0,0,0,0,0,0,0,0,石泉县,Shiquan Xian,AI,0,0,0
978,112.23482,33.038555,0,0,0,0,0,0,0,0,镇平县,Zhenping Xian,AI,0,0,0
979,119.01728,33.020245,0,0,0,0,0,0,0,0,金湖县,Jinhu Xian,AI,0,0,0
980,118.49534,33.014736,0,0,0,0,0,0,0,0,盱眙县,Xuyi Xian,AI,0,0,0
981,114.346,33.007538,0,0,0,0,0,0,0,0,汝南县,Runan Xian,AI,0,0,0
982,106.93116,33.004894,0,0,0,0,0,0,0,0,南郑县,Nanzheng Xian,AI,0,0,0
983,97.015274,33.003223,0,0,0,0,0,0,0,0,玉树县,Yushu Xian,AI,0,0,0
984,112.53547,33.001678,0,0,0,0,0,0,0,0,南阳县,Nanyang Xian,AI,0,0,0
985,110.4188,32.995605,0,0,0,0,0,0,0,0,郧西县,Yunxi Xian,AI,0,0,0
986,107.76037,32.990273,0,0,0,0,0,0,0,0,西乡县,Xixiang Xian,AI,0,0,0
987,98.097191,32.976891,0,0,0,0,0,0,0,0,石渠县,SeerxuuXian,AI,0,0,4
988,114.62688,32.962265,0,0,0,0,0,0,0,0,平舆县,Pingyu Xian,AI,0,0,0
989,117.19356,32.95665,0,0,0,0,0,0,0,9,怀远县,Huaiyuan Xian,AI,0,0,0
990,104.67808,32.948002,0,0,0,0,0,0,0,0,文县,Wen Xian,AI,0,0,0
991,119.83727,32.934067,0,0,0,0,0,0,0,0,兴化市,Xinghua Shi,AH,0,0,0
992,100.7358,32.91671,0,0,0,0,0,0,0,0,班玛县,Baima Xian,AI,0,0,0
993,115.80901,32.903057,0,0,0,0,0,0,0,0,阜阳县,Fuyang Xian,AI,2,0,0
994,95.300903,32.901932,0,0,0,0,0,0,0,0,杂多县,Zadoi Xian,AI,0,0,0
995,101.70603,32.899113,0,0,0,0,0,0,0,0,阿坝县,Aba(Ngawa) Xian,AI,0,0,0
996,108.51544,32.895229,0,0,0,0,0,0,0,0,汉阴县,Hanyin Xian,AI,0,0,0
997,117.55489,32.862991,0,0,0,0,0,0,0,0,凤阳县,Fengyang Xian,AI,0,0,69
998,120.30573,32.845482,0,0,0,0,0,0,0,0,东台市,Dongtai Shi,AH,9,0,0
999,110.81399,32.83374,0,0,0,0,0,0,0,0,郧县,Yun Xian,AI,0,0,0
1000,109.37236,32.831093,0,0,0,0,0,0,0,0,旬阳县,Xunyang Xian,AI,0,0,0
1001,106.25432,32.81963,0,0,0,0,0,0,0,5,宁强县,Ningqiang Xian,AI,0,0,0
1002,110.10673,32.814625,0,0,0,0,0,0,0,0,白河县,Baihe Xian,AI,0,0,0
1003,114.01991,32.807674,0,0,0,0,0,0,0,0,确山县,Queshan Xian,AI,0,0,0
1004,102.54904,32.793327,0,0,0,0,0,0,0,0,红原县,Hongyuan Xian,AI,0,0,0
1005,119.43733,32.79071,0,0,0,0,0,0,0,0,高邮县,Gaoyou Xian,AI,0,0,0
1006,117.98607,32.780071,0,0,0,0,0,0,0,0,嘉山县,Jiashan Xian,AI,0,0,79
1007,114.97392,32.751263,0,0,0,0,0,0,0,0,新蔡县,Xincai Xian,AI,0,0,0
1008,113.31919,32.723171,0,0,0,0,0,0,0,0,泌阳县,Biyang Xian,AI,0,0,0
1009,116.72009,32.705585,0,0,0,0,0,0,0,0,凤台县,Fengtai Xian,AI,0,0,0
1010,112.83252,32.697708,0,0,0,0,0,0,0,0,唐河县,Tanghe Xian,AI,0,0,0
1011,118.99815,32.690521,0,0,0,0,0,0,0,0,天长县,Tianchang Xian,AI,0,0,19
1012,112.08096,32.684826,0,0,0,0,0,0,0,0,邓州市,Dengzhou Shi,AH,0,0,0
1013,103.5927,32.648323,0,0,0,0,0,0,0,0,松潘县,Songpan Xian,AI,0,0,0
1014,115.58257,32.640636,0,0,0,0,0,0,0,0,阜南县,Funan Xian,AI,0,0,0
1015,116.25251,32.638569,0,0,0,0,0,0,0,0,颍上县,Yingshang Xian,AI,0,0,0
1016,114.38121,32.609119,0,0,0,0,0,0,0,0,正阳县,Zhengyang Xian,AI,0,0,0
1017,105.23141,32.582409,0,0,0,0,0,0,0,0,青川县,Qingchuan Xian,AI,0,0,0
1018,116.77711,32.575748,0,0,0,0,0,0,0,0,寿县,Shou Xian,AI,0,0,0
1019,120.45834,32.543049,0,0,0,0,0,0,0,0,海安县,Hai'an Xian,AI,0,0,0
1020,108.53822,32.537327,0,0,0,0,0,0,0,0,紫阳县,Ziyang Xian,AI,5,0,0
1021,107.89598,32.53429,0,0,0,0,0,0,0,0,镇巴县,Zhenba Xian,AI,0,0,0
1022,117.67569,32.530247,0,0,0,0,0,0,0,0,定远县,Dingyuan Xian,AI,0,0,59
1023,112.35843,32.524872,0,0,0,0,0,0,0,0,新野县,Xinye Xian,AI,0,0,0
1024,120.14482,32.508217,0,0,0,0,0,0,0,0,泰县,Tai Xian,AI,0,0,0
1025,80.090218,32.504166,0,0,0,0,0,0,0,0,噶尔县,Gar Xian,AI,0,0,0
1026,119.91124,32.495872,0,0,0,0,0,0,0,0,泰州市,Taizhou Shi,AH,0,0,0
1027,117.16139,32.483223,0,0,0,0,0,0,0,0,长丰县,Changfeng Xian,AI,0,0,0
1028,118.42687,32.452389,0,0,0,0,0,0,0,0,来安县,Lai'an Xian,AI,0,0,29
1029,115.40031,32.445427,0,0,0,0,0,0,0,0,淮滨县,Huaibin Xian,AI,0,0,0
1030,119.55569,32.43153,0,0,0,0,0,0,0,0,江都县,Jiangdu Xian,AI,0,0,0
1031,104.52972,32.413155,0,0,0,0,0,0,0,0,平武县,Pingwu Xian,AI,0,0,0
1032,109.3611,32.400501,0,0,0,0,0,0,0,0,平利县,Pingli Xian,AI,0,0,0
1033,81.119637,32.392265,0,0,0,0,0,0,0,0,革吉县,Gee'gyai Xian,AI,0,0,0
1034,119.43719,32.39127,0,0,0,0,0,0,0,0,邗江县,Hanjiang Xian,AI,0,0,0
1035,111.6767,32.3862,0,0,0,0,0,0,0,0,老河口市,Laohekou Shi,AH,0,0,0
1036,120.55866,32.384022,0,0,0,0,0,0,0,0,如皋县,Rugao Xian,AI,0,0,0
1037,113.39302,32.370747,0,0,0,0,0,0,0,8,桐柏县,Tongbai Xian,AI,0,0,0
1038,106.83276,32.361755,0,0,0,0,0,0,0,0,南江县,Nanjiang Xian,AI,0,0,0
1039,118.8379,32.348419,0,0,0,0,0,0,0,0,六合县,Luhe Xian,AI,0,0,0
1040,114.72909,32.34243,0,0,0,0,0,0,0,0,息县,Xi Xian,AI,0,0,0
1041,116.26069,32.338554,0,0,0,0,0,0,0,0,霍邱县,Huoqiu Xian,AI,0,0,0
1042,109.70952,32.333389,0,0,0,0,0,0,0,0,竹溪县,Zhuxi Xian,AI,0,0,0
1043,108.89921,32.313961,0,0,0,0,0,0,0,0,岚皋县,Langao Xian,AI,0,0,0
1044,121.19411,32.311134,0,0,0,0,0,0,0,0,如东县,Rudong Xian,AI,0,0,0
1045,84.058487,32.29908,0,0,0,0,0,0,0,7,改则县,Geerzee Xian,AI,0,0,0
1046,100.33474,32.269882,0,0,0,0,0,0,0,0,色达县,Seertar Xian,AI,0,0,5
1047,111.64581,32.26936,0,0,0,0,0,0,0,0,谷城县,Gucheng Xian,AI,0,0,0
1048,100.97465,32.268356,0,0,0,0,0,0,0,0,壤塘县,Zamtang Xian,AI,0,0,0
1049,119.17763,32.267544,0,0,0,0,0,0,0,0,仪征市,Yizheng Shi,AH,0,0,9
1050,91.670647,32.259514,0,0,0,0,0,0,0,0,安多县,Amdo Xian,AI,0,0,0
1051,119.82066,32.239208,0,0,0,0,0,0,0,0,扬中县,Yangzhong Xian,AI,0,0,0
1052,110.2286,32.226128,0,0,0,0,0,0,0,0,竹山县,Zhushan Xian,AI,0,0,0
1053,106.29138,32.222748,0,0,0,0,0,0,0,0,旺苍县,Wangcang Xian,AI,0,0,0
1054,96.476952,32.208443,0,0,0,0,0,0,0,0,囊谦县,Nangqeen Xian,AI,0,0,0
1055,119.44429,32.20649,0,0,0,0,0,0,0,0,丹徒县,Dantu Xian,AI,0,0,0
1056,114.52224,32.202374,0,0,0,0,0,0,0,0,罗山县,Luoshan Xian,AI,0,0,0
1057,115.6711,32.18354,0,0,0,0,0,0,0,0,固始县,Gushi Xian,AI,0,0,0
1058,120.01617,32.160381,0,0,0,0,0,0,0,0,泰兴县,Taixing Xian,AI,0,0,0
1059,112.7566,32.132023,0,0,0,0,0,0,0,0,枣阳市,Zaoyang Shi,AH,0,0,0
1060,115.04458,32.130302,0,0,0,0,0,0,0,0,潢川县,Huangchuan Xian,AI,0,0,0
1061,92.29039,32.114056,0,0,0,0,0,0,0,0,聂荣县,Nyainrong Xian,AI,0,0,0
1062,114.11926,32.102108,0,0,0,0,0,0,0,0,信阳县,Xinyang Xian,AI,0,0,0
1063,118.26437,32.098347,0,0,0,0,0,0,0,0,全椒县,Quanjiao Xian,AI,0,0,49
1064,121.07733,32.085182,0,0,0,0,0,0,0,0,南通县,Nantong Xian,AI,0,0,0
1065,108.04597,32.069965,0,0,0,0,0,0,0,0,万源县,Wanyuan Xian,AI,0,0,0
1066,102.98004,32.065624,0,0,0,0,0,0,0,0,黑水县,Heishui Xian,AI,0,0,0
1067,118.6176,32.064869,0,0,0,0,0,0,0,0,江浦县,Jiangpu Xian,AI,0,0,0
1068,110.72715,32.058971,0,0,0,0,0,0,0,5,房县,Fang Xian,AI,0,0,0
1069,105.46332,32.033401,0,0,0,0,0,0,0,0,剑阁县,Jiange Xian,AI,0,0,0
1070,120.26318,32.014404,0,0,0,0,0,0,0,0,靖江县,Jingjiang Xian,AI,0,0,0
1071,114.89877,32.009701,0,0,0,0,0,0,0,0,光山县,Guangshan Xian,AI,0,0,0
1072,119.56985,31.995802,0,0,0,0,0,0,0,0,丹阳市,Danyang Shi,AH,0,0,0
1073,108.14827,31.977345,0,0,1,1,0,0,0,0,白沙工农区,Baisha Gongnongqu,AI,0,0,0
1074,118.83971,31.955864,0,0,2,2,0,0,2,0,江宁县,Jiangning Xian,AI,0,0,0
1075,108.66972,31.950069,0,0,3,3,0,0,5,0,城口县,Chengkou Xian,AI,0,0,0
1076,119.16273,31.946535,0,0,4,4,0,0,6,0,句容县,Jurong Xian,AI,0,0,0
1077,107.24596,31.925125,0,0,5,5,0,0,9,0,通江县,Tongjiang Xian,AI,0,0,0
1078,94.059891,31.923021,0,0,6,6,0,0,0,0,巴青县,Baqeen Xian,AI,0,0,0
1079,102.23379,31.911007,0,0,7,7,0,0,0,0,马尔康县,Barkam Xian,AI,0,0,0
1080,120.26609,31.90877,0,0,8,8,0,0,0,0,江阴市,Jiangyin Shi,AH,0,0,0
1081,121.1682,31.893732,0,0,9,9,0,0,0,0,海门县,Haimen Xian,AI,0,0,0
1082,109.51627,31.891205,0,0,0,0,0,0,0,0,镇坪县,Zhenping Xian,AI,0,0,0
1083,111.26708,31.888035,0,0,0,0,0,0,0,0,保康县,Baokang Xian,AI,0,0,0
1084,117.47131,31.887754,0,0,0,0,0,0,0,9,肥东县,Feidong Xian,AI,0,0,0
1085,93.779015,31.886972,0,0,0,0,0,0,0,0,索县,Sog Xian,AI,0,0,0
1086,103.85303,31.688932,0,0,0,0,0,0,0,0,茂县,Mao Xian,AI,0,0,0
1087,115.85912,31.685169,0,0,0,0,0,0,0,0,金寨县,Jinzhai Xian,AI,0,0,0
1088,119.02287,31.656557,0,0,0,0,0,0,0,0,溧水县,Lishui Xian,AI,0,0,0
1089,104.42853,31.649504,0,0,0,0,0,0,0,0,安县,An Xian,AI,0,0,0
1090,120.73379,31.646582,0,0,0,0,0,0,0,0,常熟市,Changshu Shi,AH,0,0,0
1091,105.15763,31.63843,0,0,0,0,0,0,0,0,梓潼县,Zitong Xian,AI,0,0,0
1092,99.986717,31.631144,0,0,0,0,0,0,0,3,甘孜县,Garzee Xian,AI,0,0,0
1093,121.38989,31.627645,0,0,0,0,0,0,0,0,崇明县,Chongming Xian,AI,0,0,0
1094,114.85754,31.625341,0,0,0,0,0,0,0,0,新县,Xin Xian,AI,0,0,0
1095,113.81899,31.61832,0,0,0,0,0,0,0,0,广水市,Guangshui Shi,AH,0,0,0
1096,105.96703,31.58316,0,0,0,0,0,0,0,0,阆中县,Langzhong Xian,AI,0,0,0
1097,120.29621,31.574585,0,0,0,0,0,0,0,0,无锡县,Wuxi Xian,AI,7,0,0
1098,107.10965,31.573645,0,0,0,0,0,0,0,0,平昌县,Pingchang Xian,AI,0,0,0
1099,114.11475,31.555717,0,0,0,0,0,0,0,0,大悟县,Dawu Xian,AI,0,0,0
1100,118.48344,31.555685,0,0,0,0,0,0,0,0,当涂县,Dangtu Xian,AI,0,0,0
1101,106.40368,31.526846,0,0,0,0,0,0,0,0,仪陇县,Yilong Xian,AI,0,0,0
1102,98.208023,31.50634,0,0,0,0,0,0,0,0,江达县,Jomda Xian,AI,0,0,0
1103,102.05733,31.486824,0,0,0,0,0,0,0,0,金川县,Jinchuan(Quqeen) Xian,AI,0,0,0
1104,104.19762,31.342484,0,0,0,0,0,0,0,0,绵竹县,Mianzhu Xian,AI,0,0,0
1105,118.86151,31.32163,0,0,0,0,0,0,0,0,高淳县,Gaochun Xian,AI,0,0,0
1106,120.61862,31.31271,0,0,0,0,0,0,0,0,吴县,Wu Xian,AI,0,0,0
1107,117.91132,31.298515,0,0,0,0,0,0,0,0,无为县,Wuwei Xian,AI,0,0,0
1108,114.61572,31.287647,0,0,0,0,0,0,0,0,红安县,Hong'an Xian,AI,4,0,0
1109,113.68892,31.263714,0,0,0,0,0,0,0,0,安陆市,Anlu Shi,AH,0,0,0
1110,117.28835,31.253363,0,0,0,0,0,0,0,0,庐江县,Lujiang Xian,AI,0,0,0
1111,110.75928,31.23525,0,0,0,0,0,0,0,0,兴山县,Xingshan Xian,AI,0,0,0
1112,105.37611,31.229305,0,0,0,0,0,0,0,0,盐亭县,Yanting Xian,AI,0,0,0
1113,107.50009,31.226969,0,0,0,0,0,0,0,0,达县,Da Xian,AI,0,0,0
1114,96.588074,31.216978,0,0,0,0,0,0,0,0,类乌齐县,Riwoqee Xian,AI,0,0,0
1115,98.82695,31.216948,0,0,0,0,0,0,0,0,白玉县,Baiyuu Xian,AI,0,0,3
1116,121.69783,31.197155,0,0,0,0,0,0,0,0,川沙县,Chuansha Xian,AI,0,0,0
1117,108.4195,31.187906,0,0,0,0,0,0,0,0,开县,Kai Xian,AI,0,0,0
1118,112.58926,31.169827,0,0,0,0,0,0,0,0,钟祥县,Zhongxiang Xian,AI,0,0,0
1119,120.63779,31.167065,0,0,0,0,0,0,0,0,吴江县,Wujiang Xian,AI,0,0,0
1120,118.56583,31.147228,0,0,0,0,0,0,0,0,芜湖县,Wuhu Xian,AI,0,0,0
1121,121.10776,31.144772,0,0,0,0,0,0,0,0,青浦县,Qingpu Xian,AI,0,0,0
1122,87.233894,29.291576,0,0,0,0,0,0,0,0,昂仁县,Ngamring Xian,AI,0,0,0
1123,90.982277,29.289984,0,0,0,0,0,0,0,0,贡嘎县,Gonggar Xian,AI,0,0,0
1124,121.42555,29.283617,0,0,0,0,0,0,0,0,宁海县,Ninghai Xian,AI,0,0,0
1125,106.25296,29.281507,0,0,0,0,0,0,0,0,江津县,Jiangjin Xian,AI,0,0,0
1126,116.18919,29.272564,0,0,0,0,0,0,1,0,都昌县,Duchang Xian,AI,0,0,0
1127,115.1013,29.262537,0,0,0,0,0,0,4,0,武宁县,Wuning Xian,AI,0,0,0
1128,113.80643,29.261196,0,0,0,0,0,0,6,0,通城县,Tongcheng Xian,AI,0,0,0
1129,120.22798,29.260567,0,0,0,0,0,0,7,0,东阳市,Dongyang Shi,AH,0,0,0
1130,117.84459,29.244728,0,0,0,0,0,0,0,0,婺源县,Wuyuan Xian,AI,0,0,0
1131,102.36903,29.236254,0,0,0,0,0,0,0,0,石棉县,Shimian Xian,AI,0,0,0
1132,89.840157,29.231953,0,0,0,0,0,0,0,0,仁布县,Rinbung Xian,AI,0,0,0
1133,103.26637,29.226482,0,0,0,0,0,0,0,0,峨边彝族自治县,Ebian Yizu Zizhixian,AI,0,0,0
1134,91.776871,29.223824,0,0,0,0,0,0,0,0,乃东县,Needong Xian,AI,4,0,0
1135,91.304939,29.221889,0,0,0,0,0,0,0,0,扎囊县,Zhanang Xian,AI,5,0,0
1136,94.1996,29.2143,0,0,0,0,0,0,0,0,米林县,Mainling Xian,AI,0,0,0
1137,103.94312,29.209244,0,0,0,0,0,0,0,0,犍为县,Qianweixian,AI,0,0,0
1138,119.47885,29.204453,0,0,0,0,0,0,0,0,兰溪市,Lanxi Shi,AH,0,0,0
1139,104.98831,29.188721,0,0,0,0,0,0,0,0,富顺县,Fushun Xian,AI,0,0,0
1140,110.20719,25.236319,0,0,0,0,0,0,0,0,临桂县,Lingui Xian,AI,0,0,0
1141,102.49001,25.232294,0,0,0,0,0,0,1,0,富民县,Fumin Xian,AI,0,0,0
1142,100.30888,25.230034,0,0,0,0,0,0,2,0,巍山彝族回族自治县,Weishan Yizu Huizu Zizhixian,AI,0,0,0
1143,109.38817,25.217857,0,0,0,0,0,0,3,0,融安县,Rong'an Xian,AI,0,0,0
1144,101.27696,25.196548,0,0,0,0,0,0,4,0,南华县,Nanhua Xian,AI,0,0,0
1145,111.58242,25.189919,0,0,0,0,0,0,5,0,江华瑶族自治县,Jianghua Yaozu Zizhixian,AI,0,0,0
1146,106.1015,25.17083,0,0,0,0,0,0,6,0,望谟县,Wangmo Xian,AI,0,0,0
1147,102.0801,25.147398,0,0,0,0,0,0,7,0,禄丰县,Lufeng Xian,AI,0,0,0
1148,115.39172,25.138239,0,0,0,0,0,0,8,0,安远县,Anyuan Xian,AI,0,0,0
1149,113.34679,25.134874,0,0,0,0,0,0,9,0,乐昌县,Lechang Xian,AI,0,0,0
1150,114.30209,25.118843,0,0,0,0,0,0,0,0,南雄县,Nanxiong Xian,AI,0,0,0
1151,105.46661,25.115334,0,0,0,0,0,0,0,0,安龙县,Anlong Xian,AI,0,0,0
1152,116.0906,25.091484,0,0,0,0,0,0,0,0,武平县,Wuping Xian,AI,0,0,0
1153,113.74312,25.090054,0,0,0,0,0,0,0,0,仁化县,Renhua Xian,AI,0,0,0
1154,109.24854,25.065443,0,0,0,0,0,0,0,0,融水苗族自治县,Rongshui Miaozu Zizhixian,AI,0,0,0
1155,118.18125,25.060591,0,0,0,0,0,0,0,0,安溪县,Anxi Xian,AI,0,0,0
1156,100.52559,25.055601,0,0,0,0,0,0,0,0,南涧彝族自治县,Nanjian Yizu Zizhixian,AI,0,0,0
1157,116.41784,25.053339,0,0,0,0,0,0,0,0,上杭县,Shanghang Xian,AI,0,0,0
1158,103.66253,25.032265,0,0,0,0,0,0,0,0,陆良县,Luliang Xian,AI,0,0,0
1159,98.49498,25.024349,0,0,0,0,0,0,0,0,腾冲县,Tengchong Xian,AI,0,0,0
1160,118.80282,25.022078,0,0,0,0,0,0,0,0,惠安县,Hui'an Xian,AI,0,0,9
1161,121.45836,25.013855,0,0,0,0,0,0,0,0,台北县,Taipei Hsien,AI,0,0,0
1162,107.15588,25.008724,0,0,0,0,0,0,0,0,天峨县,Tian'e Xian,AI,0,0,0
1163,121.3064,24.998001,0,0,0,0,0,0,0,0,桃园县,Taoyuan Hsien,AI,0,0,0
1164,117.52119,24.994219,0,0,0,0,0,0,0,0,华安县,Hua'an Xian,AI,0,0,0
1165,105.81012,24.992802,0,0,0,0,0,0,0,0,册亨县,Ceheng Xian,AI,0,0,0
1166,107.53483,24.983593,0,0,0,0,0,0,0,0,南丹县,Nandan Xian,AI,0,0,0
1167,109.98013,24.981726,0,0,0,0,0,0,0,0,永福县,Yongfu Xian,AI,0,0,0
1168,118.37565,24.953054,0,0,0,0,0,0,0,0,南安县,Nan'an Xian,AI,0,0,0
1169,115.63363,24.946922,0,0,0,0,0,0,0,0,寻乌县,Xunwu Xian,AI,0,0,0
1170,114.06315,24.945763,0,0,0,0,0,0,0,0,始兴县,Shixing Xian,AI,0,0,0
1171,102.47412,24.918442,0,0,0,0,0,0,0,0,安宁县,Anning Xian,AI,0,0,0
1172,103.14198,24.911066,0,0,1,1,0,0,0,0,宜良县,Yiliang Xian,AI,0,0,0
1173,102.79896,24.901342,0,0,2,2,0,0,0,0,呈贡县,Chenggong Xian,AI,0,0,0
1174,114.78477,24.899044,0,0,3,3,0,0,0,0,龙南县,Longnan Xian,AI,0,0,0
1175,104.30344,24.883085,0,0,4,4,0,0,0,5,罗平县,Luoping Xian,AI,0,0,0
1176,110.82197,24.832979,0,0,5,5,0,0,0,0,恭城县,Gongcheng Xian,AI,0,0,0
1177,103.99129,24.831856,0,0,6,6,0,0,0,0,师宗县,Shizong Xian,AI,0,0,0
1178,99.606697,24.831064,0,0,7,7,0,0,0,0,昌宁县,Changning Xian,AI,0,0,0
1179,108.25638,24.829609,0,0,8,8,0,0,0,0,环江毛南族自治县,Huanjiang Maonanzu Zizhixian,AI,0,0,0
1180,111.26509,24.824177,0,0,9,9,0,0,0,0,富川瑶族自治县,Fuchuan Yaozu Zizhixian,AI,0,0,0
1181,118.57193,24.810106,0,0,0,0,0,0,0,0,晋江县,Jinjiang Xian,AI,0,0,0
1182,120.95786,24.809208,0,0,0,0,0,0,0,0,新竹县,Hsinchu Hsien,AI,0,0,0
1183,98.294823,24.807653,0,0,0,0,0,0,0,0,梁河县,Lianghe Xian,AI,0,0,0
1184,106.56207,24.792288,0,0,0,0,0,0,0,0,乐业县,Leye Xian,AI,0,0,0
1185,113.26926,24.784229,0,0,0,0,0,0,0,0,乳源瑶族自治县,Ruyuan Yaozu Zizhixian,AI,0,0,0
1186,108.89851,24.781307,0,0,0,0,0,0,0,0,罗城仫佬族自治县,Luocheng Mulaozu Zizhixian,AI,0,0,0
1187,105.33133,24.78113,0,0,0,0,0,0,0,0,隆林各族自治县,Longlin Gezu Zizhixian,AI,0,0,0
1188,112.37812,24.779701,0,0,0,0,0,0,0,0,连县,Lian Xian,AI,0,0,0
1189,110.48363,24.777758,0,0,0,0,0,0,0,0,阳朔县,Yangshuo Xian,AI,0,0,0
1190,115.017,24.771282,0,0,0,0,0,0,0,0,定南县,Dingnan Xian,AI,0,0,0
1191,103.25993,24.76148,0,0,0,0,0,0,0,0,路南彝族自治县,Lunan Yizu Zizhixian,AI,0,0,0
1192,120.54454,31.864676,0,0,0,0,0,0,0,0,张家港市,Zhangjiagang Shi,AH,0,0,0
1193,106.75476,31.849014,0,0,0,0,0,0,0,0,巴中县,Bazhong Xian,AI,0,0,0
1194,104.44476,31.825459,0,0,0,0,0,0,0,0,北川县,Beichuan Xian,AI,0,0,0
1195,121.66275,31.81035,0,0,0,0,0,0,0,0,启东市,Qidong Shi,AH,0,0,0
1196,98.583702,31.80517,0,0,0,0,0,0,0,0,德格县,Deegee Xian,AI,0,0,2
1197,115.40706,31.803518,0,0,0,0,0,0,0,0,商城县,Shangcheng Xian,AI,0,0,0
1198,119.9523,31.782784,0,0,0,0,0,0,0,3,武进县,Wujin Xian,AI,0,0,0
1199,111.84473,31.781881,0,0,0,0,0,0,0,0,南漳县,Nanzhang Xian,AI,0,0,0
1200,104.74095,31.778116,0,0,0,0,0,0,0,0,江油市,Jiangyou Shi,AH,0,0,0
1201,116.49412,31.754595,0,0,0,0,0,0,0,0,六安县,Lu'an Xian,AI,0,0,0
1202,110.67695,31.754316,0,0,0,0,0,0,0,0,神农架林区,Shennongjia Linqu,AI,0,0,0
1203,119.57062,31.746979,0,0,0,0,0,0,0,6,金坛县,Jintan Xian,AI,0,0,0
1204,105.93304,31.743105,0,0,0,0,0,0,0,0,苍溪县,Cangxi Xian,AI,0,0,0
1205,118.103,31.720116,0,0,0,0,0,0,0,0,含山县,Hanshan Xian,AI,0,0,0
1206,117.15776,31.716938,0,0,0,0,0,0,0,0,肥西县,Feixi Xian,AI,0,0,0
1207,113.36982,31.715105,0,0,0,0,0,0,0,0,随州市,Suizhou Shi,AH,0,0,0
1208,118.36112,31.714224,0,0,0,0,0,0,0,0,和县,He Xian,AI,0,0,0
1209,112.26013,31.710701,0,0,0,0,0,0,0,0,宜城县,Yicheng Xian,AI,1,0,0
1210,79.802841,31.483721,0,0,0,0,0,0,0,0,札达县,Zanda Xian,AI,0,0,0
1211,93.68119,31.481417,0,0,0,0,0,0,0,0,比如县,Biru Xian,AI,0,0,0
1212,92.056244,31.480192,0,0,0,0,0,0,0,0,那曲县,Nagqu Xian,AI,0,0,0
1213,103.57815,31.477791,0,0,0,0,0,0,0,0,汶川县,Wenchuan Xian,AI,0,0,0
1214,116.93854,31.456448,0,0,0,0,0,0,0,0,舒城县,Shucheng Xian,AI,0,0,0
1215,103.16439,31.454174,0,0,0,0,0,0,0,0,理县,Li Xian,AI,0,0,0
1216,121.09863,31.451,0,0,0,0,0,0,0,0,太仓县,Taicang Xian,AI,0,0,0
1217,119.486,31.430706,0,0,0,0,0,0,0,0,溧阳县,Liyang Xian,AI,0,0,0
1218,95.630638,31.411268,0,0,0,0,0,0,0,0,丁青县,Deengqeen Xian,AI,0,0,0
1219,116.32011,31.407784,0,0,0,0,0,0,0,0,霍山县,Huoshan Xian,AI,0,0,0
1220,109.62247,31.406134,0,0,0,0,0,0,0,0,巫溪县,Wuxi Xian,AI,0,0,0
1221,100.67564,31.395166,0,0,0,0,0,0,0,0,炉霍县,Luhuo(Zhaggo) Xian,AI,0,0,0
1222,120.94823,31.386108,0,0,0,0,0,0,0,0,昆山市,Kunshan Shi,AH,0,0,0
1223,121.24902,31.385845,0,0,0,0,0,0,0,0,嘉定县,Jiading Xian,AI,0,0,0
1224,90.020287,31.366695,0,0,0,0,0,0,0,0,班戈县,Bangoin Xian,AI,0,0,0
1225,119.81438,31.363638,0,0,0,0,0,0,0,0,宜兴市,Yixing Shi,AH,0,0,0
1226,106.05859,31.359615,0,0,0,0,0,0,0,0,南部县,Nanbu Xian,AI,0,0,0
1227,107.71529,31.359371,0,0,0,0,0,0,0,0,宣汉县,Xuanhan Xian,AI,0,0,0
1228,97.166138,31.143131,0,0,0,0,0,0,0,0,昌都县,Qamdo Xian,AI,0,0,0
1229,104.17404,31.13427,0,0,0,0,0,0,0,0,什邡县,Shenfang Xian,AI,0,0,0
1230,119.18147,31.134151,0,0,0,0,0,0,0,0,郎溪县,Langxi Xian,AI,0,0,0
1231,121.37207,31.106131,0,0,0,0,0,0,0,0,上海县,Shanghai Xian,AI,0,0,0
1232,105.08757,31.09462,0,0,0,0,0,0,0,0,三台县,Santai Xian,AI,0,0,0
1233,118.19427,31.090563,0,0,0,0,0,0,0,0,繁昌县,Fangchang Xian,AI,0,0,0
1234,109.88886,31.081345,0,0,0,0,0,0,0,0,巫山县,Wushan Xian,AI,0,0,0
1235,107.86745,31.078833,0,0,0,0,0,0,0,0,开江县,Kaijiang Xian,AI,0,0,0
1236,106.56503,31.075796,0,0,0,0,0,0,0,0,营山县,Yingshan Xian,AI,0,0,0
1237,111.64176,31.068062,0,0,0,0,0,0,0,0,远安县,Yuan'an Xian,AI,0,0,0
1238,121.7519,31.055321,0,0,0,0,0,0,0,0,南汇县,Nanhui Xian,AI,0,0,0
1239,109.52475,31.054707,0,0,0,0,0,0,0,0,奉节县,Fengjie Xian,AI,0,0,0
1240,116.93861,31.05228,0,0,0,0,0,0,0,0,桐城县,Tongcheng Xian,AI,0,0,0
1241,104.67905,31.044277,0,0,0,0,0,0,0,2,中江县,Zhongjiang Xian,AI,0,0,0
1242,106.40889,31.036739,0,0,0,0,0,0,0,0,蓬安县,Peng'an Xian,AI,0,0,0
1243,110.40453,31.030022,0,0,0,0,0,0,0,0,巴东县,Badong Xian,AI,0,0,0
1244,113.7464,31.025822,0,0,0,0,0,0,0,0,云梦县,Yunmeng Xian,AI,0,0,0
1245,113.11685,31.024815,0,0,0,0,0,0,0,0,京山县,Jingshan Xian,AI,0,0,0
1246,85.155975,31.022945,0,0,0,0,0,0,0,0,措勤县,Coqeen Xian,AI,9,0,0
1247,103.62142,31.014395,0,0,0,0,0,0,0,0,都江堰市,Dujiangyan Shi,AH,0,0,0
1248,119.90137,31.013893,0,0,0,0,0,0,0,0,长兴县,Changxing Xian,AI,0,0,0
1249,105.88094,31.010458,0,0,0,0,0,0,0,0,西充县,Xichong Xian,AI,0,0,0
1250,121.22764,31.009476,0,0,0,0,0,0,0,0,松江县,Songjiang Xian,AI,0,0,0
1251,110.69416,30.999617,0,0,0,0,0,0,0,0,秭归县,Zigui Xian,AI,0,0,0
1252,102.35508,30.992863,0,0,0,0,0,0,0,0,小金县,Xiaojin Xian,AI,0,0,0
1253,103.94507,30.991879,0,0,0,0,0,0,0,0,彭县,Peng Xian,AI,0,0,0
1254,101.12205,30.989025,0,0,0,0,0,0,0,1,道孚县,Dawu Xian,AI,0,0,0
1255,104.28307,30.98131,0,0,0,0,0,0,0,0,广汉市,Guanghan Shi,AH,0,0,0
1256,108.89149,30.966854,0,0,0,0,0,0,0,0,云阳县,Yunyang Xian,AI,0,0,0
1257,117.7875,30.953846,0,0,0,0,0,0,0,0,铜陵县,Tongling Xian,AI,0,0,0
1258,113.56968,30.946003,0,0,0,0,0,0,0,0,应城市,Yingcheng Shi,AH,0,0,0
1259,100.30366,30.94496,0,0,0,0,0,0,0,0,新龙县,Xinlong(Nyagrong) Xian,AI,0,0,1
1260,94.698189,30.940203,0,0,0,0,0,0,0,0,边坝县,Banbar Xian,AI,0,0,0
1261,88.704735,30.931904,0,0,0,0,0,0,0,0,申扎县,Xainza Xian,AI,0,0,0
1262,118.33241,30.924437,0,0,0,0,0,0,0,0,南陵县,Nanling Xian,AI,0,0,0
1263,121.45528,30.915609,0,0,0,0,0,0,0,0,奉贤县,Fengxian Xian,AI,0,0,0
1264,121.15807,30.901217,0,0,0,0,0,0,0,0,金山县,Jinshan Xian,AI,0,0,0
1265,119.42019,30.894686,0,0,0,0,0,0,0,0,广德县,Guangde Xian,AI,0,0,0
1266,105.38237,30.87612,0,0,0,0,0,0,0,0,射洪县,Shehong Xian,AI,0,0,0
1267,101.88769,30.876024,0,0,0,0,0,0,0,0,丹巴县,Danba(Rongzhag) Xian,AI,1,0,0
1268,114.36559,30.875669,0,0,0,0,0,0,0,0,黄陂县,Huangpi Xian,AI,0,0,0
1269,98.270248,30.86838,0,0,0,0,0,0,0,0,贡觉县,Konjo Xian,AI,0,0,0
1270,104.43456,30.857916,0,0,0,0,0,0,0,0,金堂县,Jintang Xian,AI,0,0,0
1271,116.35818,30.857161,0,0,0,0,0,0,0,0,岳西县,Yuexi Xian,AI,0,0,0
1272,114.79912,30.845839,0,0,0,0,0,0,0,0,新洲县,Xinzhou Xian,AI,0,0,0
1273,106.96224,30.844326,0,0,0,0,0,0,0,0,渠县,Qu Xian,AI,0,0,0
1274,120.91722,30.843824,0,0,0,0,0,0,0,0,嘉善县,Jiashan Xian,AI,0,0,0
1275,108.35496,30.836559,0,0,0,0,0,0,0,0,万县,Wan Xian,AI,0,0,0
1276,111.78712,30.831511,0,0,0,0,0,0,0,0,当阳市,Dangyang Shi,AH,0,0,0
1277,104.16055,30.83139,0,0,0,0,0,0,0,0,新都县,Xindu Xian,AI,0,0,0
1278,103.88877,30.807074,0,0,0,0,0,0,0,0,郫县,Pi Xian,AI,0,0,0
1279,115.3904,30.790346,0,0,0,0,0,0,0,0,罗田县,Luotian Xian,AI,0,0,0
1280,105.70863,30.776373,0,0,0,0,0,0,0,0,蓬溪县,Pengxi Xian,AI,0,0,0
1281,111.32417,30.773214,0,0,0,0,0,0,0,0,宜昌县,Yichang Xian,AI,0,0,0
1282,106.11032,30.771528,0,0,0,0,0,0,0,0,南充县,Nanchong Xian,AI,0,0,0
1283,95.82933,30.74814,0,0,0,0,0,0,0,0,洛隆县,Lhorong Xian,AI,0,0,0
1284,115.66945,30.742138,0,0,0,0,0,0,0,0,英山县,Yingshan Xian,AI,0,0,0
1285,107.20484,30.738197,0,0,0,0,0,0,0,0,大竹县,Dazhu Xian,AI,0,0,0
1286,122.45438,30.723564,0,0,0,0,0,0,0,0,嵊泗县,Shengsi Xian,AI,0,0,0
1287,121.01234,30.70422,0,0,0,0,0,0,0,0,平湖县,Pinghu Xian,AI,0,0,0
1288,103.8306,30.702269,0,0,0,0,0,0,0,0,温江县,Wenjiang Xian,AI,0,0,0
1289,117.21059,30.69371,0,0,0,0,0,0,0,0,枞阳县,Zongyang Xian,AI,0,0,0
1290,118.40659,30.68671,0,0,0,0,0,0,0,0,泾县,Jing Xian,AI,0,0,0
1291,107.78897,30.666655,0,0,0,0,0,0,0,0,梁平县,Liangping Xian,AI,0,0,0
1292,97.558945,30.660685,0,0,0,0,0,0,0,0,察雅县,Chagyab Xian,AI,0,0,0
1293,113.16412,30.65625,0,0,0,0,0,0,0,0,天门市,Tianmen Shi,AH,0,0,0
1294,113.8287,30.648508,0,0,0,0,0,0,0,0,汉川县,Hanchuan Xian,AI,0,0,0
1295,120.54274,30.641678,0,0,0,0,0,0,2,0,桐乡县,Tongxiang Xian,AI,0,0,0
1296,119.68716,30.637701,0,0,0,0,0,0,3,0,安吉县,Anji Xian,AI,0,0,0
1297,117.86305,30.636639,0,0,0,0,0,0,5,0,青阳县,Qingyang Xian,AI,0,0,0
1298,103.67261,30.636564,0,0,0,0,0,0,6,0,崇庆县,Chongqing Xian,AI,0,0,0
1299,116.5672,30.630346,0,0,0,0,0,0,7,0,潜山县,Qianshan Xian,AI,0,0,0
1300,118.97754,30.619968,0,0,0,0,0,0,8,0,宁国县,Ningguo Xian,AI,0,0,0
1301,109.72627,30.610687,0,0,0,0,0,0,9,0,建始县,Jianshi Xian,AI,0,0,0
1302,93.505119,30.604832,0,0,0,0,0,0,0,0,嘉黎县,Jiali(Lhari) Xian,AI,0,0,0
1303,103.52304,30.584782,0,0,0,0,0,0,0,0,大邑县,Dayi Xian,AI,0,0,0
1304,114.02563,30.580984,0,0,0,0,0,0,0,0,汉阳县,Hanyang Xian,AI,0,0,0
1305,103.92331,30.579893,0,0,0,0,0,0,0,0,双流县,Shuangliu Xian,AI,0,0,0
1306,120.0848,30.553133,0,0,0,0,0,0,0,0,德清县,Deqing Xian,AI,0,0,0
1307,106.44057,30.54562,0,0,0,0,0,0,0,0,岳池县,Yuechi Xian,AI,0,0,0
1308,120.69362,30.528711,0,0,0,0,0,0,0,0,海宁市,Haining Shi,AH,0,0,0
1309,120.93202,30.517859,0,0,0,0,0,0,0,0,海盐县,Haiyan Xian,AI,2,0,0
1310,91.09977,30.486753,0,0,0,0,0,0,0,0,当雄县,Damxung Xian,AI,0,0,0
1311,106.63175,30.474428,0,0,0,0,0,0,0,0,广安县,Guangan Xian,AI,0,0,0
1312,111.1915,30.474218,0,0,0,0,0,0,0,0,长阳土家族自治县,Changyang Tujiazu Zizhixian,AI,0,0,0
1313,115.25204,30.458691,0,0,0,0,0,0,0,0,浠水县,Xishui Xian,AI,0,0,0
1314,114.86549,30.446987,0,0,0,0,0,0,0,0,黄州市,Huangzhou Shi,AH,0,0,0
1315,120.29733,30.431538,0,0,0,0,0,0,0,0,余杭县,Yuhang Xian,AI,0,0,0
1316,111.75759,30.429537,0,0,0,0,0,0,0,0,枝江县,Zhijiang Xian,AI,0,0,0
1317,103.81094,30.423536,0,0,0,0,0,0,0,0,新津县,Xinjin Xian,AI,0,0,0
1318,112.89296,30.420952,0,0,0,0,0,0,0,0,潜江市,Qianjiang Shi,AH,0,0,0
1319,116.26508,30.420059,0,0,0,0,0,0,0,0,太湖县,Taihu Xian,AI,0,0,0
1320,103.45683,30.41659,0,0,0,0,0,0,0,0,邛崃县,Qionglai Xian,AI,0,0,0
1321,116.64709,30.409006,0,0,0,0,0,0,0,0,怀宁县,Huaining Xian,AI,0,0,0
1322,111.45792,30.392385,0,0,0,0,0,0,0,0,枝城市,Zhicheng Shi,AH,0,0,0
1323,104.55041,30.390272,0,0,0,0,0,0,0,0,简阳县,Jianyang Xian,AI,0,0,3
1324,106.76959,30.383263,0,0,0,0,0,0,0,0,华蓥市,Huaying Shi,AH,0,0,0
1325,102.82102,30.372356,0,0,0,0,0,0,0,0,宝兴县,Baoxing Xian,AI,0,0,0
1326,113.45283,30.371765,0,0,0,0,0,0,0,0,仙桃市,Xiantao Shi,AH,0,0,0
1327,106.29092,30.36116,0,0,0,0,0,0,0,0,武胜县,Wusheng Xian,AI,0,0,0
1328,114.31539,30.353367,0,0,0,0,0,0,0,0,武昌县,Wuchang Xian,AI,0,0,0
1329,112.19077,30.350445,0,0,0,0,0,0,0,0,江陵县,Jiangling Xian,AI,0,0,0
1330,106.91963,30.335321,0,0,0,0,0,0,0,0,邻水县,Linshui Xian,AI,0,0,0
1331,107.35619,30.323742,0,0,0,0,0,0,0,0,垫江县,Dianjiang Xian,AI,0,0,0
1332,81.181648,30.312555,0,0,0,0,0,0,0,0,普兰县,Burang Xian,AI,0,0,9
1333,108.93354,30.299772,0,0,0,0,0,0,0,6,利川市,Lichuan Shi,AH,0,0,0
1334,108.03158,30.298578,0,0,0,0,0,0,0,7,忠县,Zhong Xian,AI,0,0,0
1335,118.53877,30.291025,0,0,0,0,0,0,0,0,旌德县,Jingde Xian,AI,0,0,0
1336,105.0209,30.286827,0,0,0,0,0,0,0,0,乐至县,Lezhi Xian,AI,0,0,0
1337,122.20725,30.24157,0,0,0,0,0,0,0,0,岱山县,Daishan Xian,AI,0,0,0
1338,115.4247,30.238474,0,0,0,0,0,0,0,0,蕲春县,Qichun Xian,AI,0,0,0
1339,119.72128,30.231056,0,0,0,0,0,0,0,0,临安县,Lin'an Xian,AI,0,0,0
1340,103.50259,30.214197,0,0,0,0,0,0,0,0,蒲江县,Pujiang Xian,AI,0,0,0
1341,117.4667,30.207769,0,0,0,0,0,0,0,9,石台县,Shitai Xian,AI,0,0,0
1342,110.67886,30.204006,0,0,0,0,0,0,0,0,五峰土家族自治县,Wufeng Tujiazu Zizhixian,AI,0,0,0
1343,103.86925,30.200752,0,0,0,0,0,0,0,0,彭山县,Pengshan Xian,AI,0,0,0
1344,111.77278,30.178774,0,0,0,0,0,0,0,0,松滋县,Songzi Xian,AI,6,0,0
1345,121.24129,30.174122,0,0,0,0,0,0,0,0,慈溪市,Cixi Shi,AH,0,0,0
1346,105.821,30.173649,0,0,0,0,0,0,0,0,潼南县,Tongnan Xian,AI,0,0,0
1347,120.25893,30.161488,0,0,0,0,0,0,0,0,萧山市,Xiaoshan Shi,AH,0,0,0
1348,102.92673,30.15958,0,0,0,0,0,0,0,0,芦山县,Lushan Xian,AI,0,0,0
1349,116.1142,30.151213,0,0,0,0,0,0,0,0,宿松县,Susong Xian,AI,0,0,0
1350,116.67433,30.123537,0,0,0,0,0,0,0,0,望江县,Wangjiang Xian,AI,0,0,0
1351,104.65019,30.122671,0,0,0,0,0,0,0,0,资阳县,Ziyang Xian,AI,0,0,2
1352,105.32452,30.1127,0,0,0,0,0,0,0,0,安岳县,Anyue Xian,AI,0,0,0
1353,117.01768,30.09761,0,0,0,0,0,0,0,0,东至县,Dongzhi Xian,AI,0,0,0
1354,103.09607,30.094233,0,0,0,0,0,0,0,0,名山县,Mingshan Xian,AI,0,0,0
1355,114.96296,30.093138,0,0,0,0,0,0,0,0,大冶县,Daye Xian,AI,0,0,0
1356,115.93494,30.079201,0,0,0,0,0,0,0,0,黄梅县,Huangmei Xian,AI,0,0,0
1357,102.7505,30.078638,0,0,0,0,0,0,0,0,天全县,Tianquan Xian,AI,0,0,0
1358,118.58411,30.077772,0,0,0,0,0,0,0,0,绩溪县,Jixi Xian,AI,0,0,0
1359,112.22649,30.057533,0,0,0,0,0,0,0,0,公安县,Gong'an Xian,AI,0,0,0
1360,96.91629,30.053537,0,0,0,0,0,0,0,0,八宿县,Baxoi Xian,AI,0,0,0
1361,119.94775,30.053434,0,0,0,0,0,0,0,0,富阳县,Fuyang Xian,AI,0,0,0
1362,101.95849,30.052546,0,0,0,0,0,0,0,0,康定县,Kangding(Dardo) Xian,AI,0,0,0
1363,103.83146,30.050497,0,0,0,0,0,0,0,0,眉山县,Meishan Xian,AI,0,0,0
1364,121.15276,30.049067,0,0,0,0,0,0,0,0,余姚市,Yuyao Shi,AH,0,0,0
1365,101.00568,30.030823,0,0,0,0,0,0,0,0,雅江县,Yajiang(Nyagquka) Xian,AI,0,0,0
1366,103.51226,30.02619,0,0,0,0,0,0,0,0,丹棱县,Danling Xian,AI,3,0,0
1367,120.87675,30.017284,0,0,0,0,0,0,0,0,上虞县,Shangyu Xian,AI,0,0,0
1368,99.114258,30.011551,0,0,0,0,0,0,0,0,巴塘县,Batang Xian,AI,0,0,7
1369,120.57826,30.004515,0,0,0,0,0,0,0,0,绍兴县,Shaoxing Xian,AI,0,0,0
1370,104.14377,30.004446,0,0,0,0,0,0,0,0,仁寿县,Renshou Xian,AI,0,0,0
1371,106.25956,30.003942,0,0,0,0,0,0,0,0,合川县,Hechuan Xian,AI,0,0,0
1372,100.26836,29.993374,0,0,0,0,0,0,0,0,理塘县,Litang Xian,AI,0,0,6
1373,108.11845,29.992769,0,0,0,0,0,0,0,0,石柱土家族自治县,Shizhu Tujiazu Zizhixian,AI,0,0,0
1374,109.48023,29.989573,0,0,0,0,0,0,0,0,宣恩县,Xuan'en Xian,AI,0,0,0
1375,113.89558,29.975599,0,0,0,0,0,0,0,2,嘉鱼县,Jiayu Xian,AI,0,0,0
1376,117.93021,29.933117,0,0,0,0,0,0,0,0,黟县,Yi Xian,AI,0,0,0
1377,102.24074,29.923153,0,0,0,0,0,0,0,0,泸定县,Luding Xian,AI,0,0,0
1378,103.36971,29.912813,0,0,0,0,0,0,0,0,洪雅县,Hongya Xian,AI,0,0,0
1379,116.55122,29.896095,0,0,0,0,0,0,0,0,彭泽县,Pengze Xian,AI,0,0,0
1380,91.26062,29.895348,0,0,0,0,0,0,0,0,林周县,Lhuunzhub Xian,AI,0,0,0
1381,110.02555,29.892548,0,0,0,0,0,0,0,0,鹤峰县,Hefeng Xian,AI,0,0,0
1382,107.71456,29.887396,0,0,0,0,0,0,0,0,丰都县,Fengdu Xian,AI,0,0,0
1383,93.242683,29.887054,0,0,0,0,0,0,0,0,工布江达县,Gongbo'gyamda Xian,AI,0,0,0
1384,121.54266,29.866316,0,0,0,0,0,0,0,0,鄞县,Yin Xian,AI,0,0,0
1385,118.43394,29.86577,0,0,0,0,0,0,0,0,歙县,She Xian,AI,0,0,0
1386,95.745041,29.86479,0,0,0,0,0,0,0,0,波密县,Bomi(Bowo) Xian,AI,0,0,0
1387,115.55716,29.855417,0,0,0,0,0,0,0,0,武穴市,Wuxue Shi,AH,8,0,0
1388,117.70698,29.854147,0,0,0,0,0,0,0,0,祁门县,Qimen Xian,AI,0,0,4
1389,106.04175,29.852438,0,0,0,0,0,0,0,0,铜梁县,Tongliang Xian,AI,0,0,0
1390,103.84511,29.837276,0,0,0,0,0,0,0,0,青神县,Qingshen Xian,AI,0,0,0
1391,107.06115,29.833637,0,0,0,0,0,0,0,0,长寿县,Changshou Xian,AI,0,0,0
1392,91.725586,29.833454,0,0,0,0,0,0,0,0,墨竹工卡县,Maizhokunggar Xian,AI,0,0,0
1393,115.20963,29.83013,0,0,0,0,0,0,0,0,阳新县,Yangxin Xian,AI,0,0,0
1394,112.90025,29.815758,0,0,0,0,0,0,0,0,监利县,Jianli Xian,AI,0,0,0
1395,113.46259,29.813757,0,0,0,0,0,0,0,0,洪湖市,Honghu Shi,AH,0,0,0
1396,119.66494,29.802458,0,0,0,0,0,0,0,0,桐庐县,Tonglu Xian,AI,0,0,0
1397,102.83732,29.795326,0,0,0,0,0,0,0,0,荥经县,Yingjing Xian,AI,0,0,0
1398,104.84836,29.784748,0,0,0,0,0,0,0,0,资中县,Zizhong Xian,AI,0,0,1
1399,118.17577,29.781191,0,0,1,1,0,0,0,0,休宁县,Xiuning Xian,AI,0,0,0
1400,103.57242,29.74136,0,0,2,2,0,0,0,0,夹江县,Jiajiang Xian,AI,0,0,0
1401,116.21802,29.734993,0,0,3,3,0,0,0,0,湖口县,Hukou Xian,AI,0,0,0
1402,106.62262,29.724749,0,0,4,4,0,0,0,0,江北县,Jiangbei Xian,AI,0,0,0
1403,112.40646,29.72431,0,0,5,5,0,0,0,0,石首市,Shishou Shi,AH,0,0,0
1404,120.22766,29.713137,0,0,6,6,0,0,0,0,诸暨市,Zhuji Shi,AH,0,0,0
1405,105.71049,29.711468,0,0,7,7,0,0,0,0,大足县,Dazu Xian,AI,0,0,0
1406,113.87461,29.708353,0,0,8,8,0,0,0,0,蒲圻市,Puqi Shi,AH,0,0,0
1407,89.093819,29.687109,0,0,9,9,0,0,0,0,南木林县,Namling Xian,AI,0,0,0
1408,115.65448,29.685339,0,0,0,0,0,0,0,0,瑞昌市,Ruichang Shi,AH,0,0,0
1409,98.586586,29.680418,0,0,0,0,0,0,0,0,芒康县,Mangkam Xian,AI,0,0,0
1410,97.843048,29.677557,0,0,0,0,0,0,0,0,左贡县,Zogang Xian,AI,0,0,0
1411,109.14426,29.676367,0,0,0,0,0,0,0,0,咸丰县,Xianfeng Xian,AI,0,0,0
1412,91.353333,29.671459,0,0,0,0,0,0,0,0,达孜县,Dagzee Xian,AI,0,0,0
1413,90.953522,29.661907,0,0,0,0,0,0,0,0,堆龙德庆县,Doilungdeeqeen Xian,AI,0,0,0
1414,104.07744,29.65851,0,0,0,0,0,0,0,0,井研县,Jingyan Xian,AI,0,0,0
1415,121.40691,29.651657,0,0,0,0,0,0,0,0,奉化市,Fenghua Shi,AH,0,0,0
1416,84.175194,29.650202,0,0,0,0,0,0,0,5,仲巴县,Zhongba Xian,AI,0,0,0
1417,111.75699,29.640152,0,0,0,0,0,0,0,0,澧县,Li Xian,AI,0,0,0
1418,111.8762,29.63579,0,0,0,0,0,0,0,0,津市市,Jinshi Shi,AH,0,0,0
1419,115.89149,29.610123,0,0,0,0,0,0,0,0,九江县,Jiujiang Xian,AI,0,0,0
1420,119.03929,29.602446,0,0,0,0,0,0,0,0,淳安县,Chuna'an Xian,AI,0,0,0
1421,103.48222,29.60173,0,0,0,0,0,0,0,0,峨眉山市,Emeishan Shi,AH,0,0,0
1422,106.21726,29.599508,0,0,0,0,0,0,0,0,璧山县,Bishan Xian,AI,0,0,0
1423,114.50382,29.597151,0,0,0,0,0,0,0,0,通山县,Tongshan Xian,AI,0,0,0
1424,111.37361,29.588543,0,0,0,0,0,0,0,0,石门县,Shimen Xian,AI,0,0,0
1425,120.81528,29.58749,0,0,0,0,0,0,0,0,嵊县,Sheng Xian,AI,0,0,0
1426,94.484245,29.580338,0,0,0,0,0,0,0,0,林芝县,Nyingchi Xian,AI,0,0,0
1427,114.04384,29.548801,0,0,0,0,0,0,0,4,崇阳县,Chongyang Xian,AI,0,0,0
1428,108.78371,29.526186,0,0,0,0,0,0,0,0,黔江土家族苗族自治县,Qianjiang Tujiazu Miaozu Zizhixian,AI,0,0,0
1429,104.65919,29.524572,0,0,0,0,0,0,0,0,威远县,Weiyuan Xian,AI,0,0,0
1430,112.55929,29.518757,0,0,0,0,0,0,0,0,华容县,Huarong Xian,AI,0,0,0
1431,109.40482,29.505201,0,0,0,0,0,0,0,0,来凤县,Laifeng Xian,AI,0,0,0
1432,120.90211,29.494654,0,0,0,0,0,0,0,0,新昌县,Xinchang Xian,AI,6,0,0
1433,105.77257,29.491501,0,0,0,0,0,0,0,0,双桥区,Shuangqiao Qu,AI,0,0,0
1434,119.27213,29.480106,0,0,0,0,0,0,0,0,建德县,Jiande Xian,AI,0,0,0
1435,121.86618,29.474428,0,0,0,0,0,0,0,0,象山县,Xiangshan Xian,AI,0,0,0
1436,113.44913,29.473249,0,0,0,0,0,0,0,0,临湘县,LinXiang Xian,AI,0,0,0
1437,104.42037,29.463898,0,0,0,0,0,0,0,0,荣县,Rong Xian,AI,0,0,0
1438,119.88367,29.458708,0,0,0,0,0,0,0,0,浦江县,Pujiang Xian,AI,0,0,0
1439,109.4379,29.458569,0,0,0,0,0,0,0,0,龙山县,Longshan Xian,AI,0,0,0
1440,116.04112,29.453485,0,0,0,0,0,0,0,0,星子县,Xingzi Xian,AI,0,0,0
1441,111.65202,29.448666,0,0,0,0,0,0,0,0,临澧县,Linli Xian,AI,0,0,0
1442,90.162506,29.432381,0,0,0,0,0,0,0,0,尼木县,Nyeemo Xian,AI,0,0,0
1443,88.259163,29.427794,0,0,0,0,0,0,0,0,谢通门县,Xaitongmoin Xian,AI,0,0,0
1444,111.12171,29.426342,0,0,0,0,0,0,0,0,慈利县,Cili Xian,AI,0,0,0
1445,105.59631,29.412771,0,0,0,0,0,0,0,4,荣昌县,Rongchang Xian,AI,0,0,0
1446,112.1674,29.40868,0,0,0,0,0,0,0,0,安乡县,Anxiang Xian,AI,0,0,0
1447,110.16237,29.392685,0,0,0,0,0,0,0,3,桑植县,Sangzhi Xian,AI,0,0,0
1448,117.23636,29.382742,0,0,0,0,0,0,0,0,浮梁县,Fuliang Xian,AI,0,0,0
1449,106.52355,29.379204,0,0,0,0,0,0,0,0,巴县,Ba Xian,AI,0,0,0
1450,112.40821,29.366085,0,0,0,0,0,0,0,0,南县,Nan Xian,AI,0,0,0
1451,105.89661,29.360287,0,0,0,0,0,0,0,0,永川县,Yongchuan Xian,AI,0,0,0
1452,90.729866,29.356596,0,0,0,0,0,0,0,0,曲水县,Quuxuu Xian,AI,0,0,0
1453,102.67693,29.354038,0,0,0,0,0,0,0,0,汉源县,Hanyuan Xian,AI,0,0,0
1454,105.27304,29.34938,0,0,0,0,0,0,0,0,隆昌县,Longchang Xian,AI,0,0,4
1455,115.74503,29.330564,0,0,0,0,0,0,0,0,德安县,De'an Xian,AI,0,0,0
1456,107.74444,29.31547,0,0,0,0,0,0,0,0,武隆县,Wulong Xian,AI,0,0,0
1457,85.221313,29.314558,0,0,0,0,0,0,0,0,萨嘎县,Saga Xian,AI,0,0,0
1458,120.07162,29.300087,0,0,0,0,0,0,0,0,义乌市,Yiwu Shi,AH,0,0,0
1459,108.17096,29.292057,0,0,0,0,0,0,0,0,彭水苗族土家族自治县,Pengshui Miaozu Tujiazu Zizhixian,AI,0,0,0
1460,107.10468,29.168348,0,0,0,0,0,0,0,0,南川县,Nanchuan Xian,AI,0,0,0
1461,118.40488,29.14485,0,0,0,0,0,0,0,0,开化县,Kaihua Xian,AI,0,0,0
1462,113.11295,29.140289,0,0,0,0,0,0,0,0,岳阳县,Yueyang Xian,AI,0,0,0
1463,121.02656,29.138258,0,0,0,0,0,0,0,0,天台县,Tiantai Xian,AI,0,0,0
1464,92.582596,29.137484,0,0,0,0,0,0,0,0,加查县,Gyaca Xian,AI,0,0,0
1465,121.37657,29.109299,0,0,0,0,0,0,0,0,三门县,Sanmen Xian,AI,0,0,0
1466,119.64992,29.104712,0,0,0,0,0,0,0,0,金华县,Jinhua Xian,AI,0,0,0
1467,89.253647,29.100878,0,0,0,0,0,0,0,0,白朗县,Bainang Xian,AI,0,0,0
1468,87.635918,29.085146,0,0,0,0,0,0,0,0,拉孜县,Lhazee Xian,AI,0,0,0
1469,92.205307,29.056973,0,0,0,0,0,0,0,0,曲松县,Qusum Xian,AI,0,0,0
1470,120.4314,29.050676,0,0,0,0,0,0,0,0,磐安县,Pan'an Xian,AI,0,0,0
1471,115.80976,29.04734,0,0,0,0,0,0,0,0,永修县,Yongxiu Xian,AI,0,0,0
1472,93.09594,29.04554,0,0,0,0,0,0,0,0,朗县,Nang Xian,AI,1,0,0
1473,114.55963,29.038708,0,0,0,0,0,0,0,0,修水县,Xiushui Xian,AI,0,0,0
1474,100.29718,29.036667,0,0,0,0,0,0,0,0,稻城县,Daocheng(Dabba) Xian,AI,0,0,9
1475,119.17238,29.034788,0,0,0,0,0,0,0,0,龙游县,Longyou Xian,AI,0,0,0
1476,91.679169,29.028172,0,0,0,0,0,0,0,0,琼结县,Qonggyai Xian,AI,0,0,0
1477,106.63931,29.025259,0,0,0,0,0,0,0,0,綦江县,Qijiang Xian,AI,0,0,0
1478,109.85261,29.005901,0,0,0,0,0,0,0,0,永顺县,Yongshun Xian,AI,0,0,0
1479,101.51363,29.004007,0,0,0,0,0,0,0,0,九龙县,Jiulong(Gyaisi) Xian,AI,0,0,0
1480,116.66383,28.994167,0,0,0,0,0,0,0,0,波阳县,Boyang Xian,AI,0,0,0
1481,102.7652,28.969839,0,0,0,0,0,0,0,0,甘洛县,Ganluo Xian,AI,9,0,0
1482,90.399757,28.968317,0,0,0,0,0,0,0,7,浪卡子县,Nagarzee Xian,AI,0,0,0
1483,117.12409,28.964994,0,0,0,0,0,0,0,6,乐平县,Leping Xian,AI,0,0,0
1484,103.90469,28.96217,0,0,0,0,0,0,0,0,沐川县,Muchuan Xian,AI,0,0,0
1485,118.86765,28.956821,0,0,0,0,0,0,0,0,衢县,Qu Xian,AI,1,0,1
1486,117.58012,28.953411,0,0,0,0,0,0,0,9,德兴市,Dexing Shi,AH,0,0,0
1487,99.798874,28.926657,0,0,0,0,0,0,0,0,乡城县,Xiangcheng(Qagcheeng) Xian,AI,0,0,8
1488,89.598824,28.919807,0,0,0,0,0,0,0,0,江孜县,Gyangzee Xian,AI,0,0,0
1489,111.96997,28.911768,0,0,0,0,0,0,0,0,汉寿县,Hanshou Xian,AI,0,0,0
1490,105.43388,28.907078,0,0,0,0,0,0,0,0,泸县,Lu Xian,AI,0,0,0
1491,118.50266,28.903732,0,0,0,0,0,0,0,0,常山县,Changshan Xian,AI,0,0,0
1492,111.47777,28.901598,0,0,0,0,0,0,0,0,桃源县,Taoyuan Xian,AI,0,0,0
1493,88.008987,28.89925,0,0,0,0,0,0,0,0,萨迦县,Sa'gya Xian,AI,0,0,0
1494,120.02525,28.897268,0,0,0,0,0,0,0,0,永康县,Yongkang Xian,AI,0,0,0
1495,119.80227,28.895449,0,0,0,0,0,0,0,0,武义县,Wuyi Xian,AI,0,0,0
1496,107.59658,28.878649,0,0,0,0,0,0,0,0,道真仡佬族苗族自治县,Daozhen Gelaozu Miaozu Zizhixian,AI,0,0,0
1497,115.35664,28.861025,0,0,0,0,0,0,0,0,靖安县,Jing'an Xian,AI,0,0,0
1498,85.315941,28.85668,0,0,0,0,0,0,0,0,吉隆县,Gyirong Xian,AI,0,0,0
1499,120.73346,28.852207,0,0,0,0,0,0,0,0,仙居县,Xianju Xian,AI,0,0,0
1500,104.97202,28.847984,0,0,0,0,0,0,0,5,南溪县,Nanxi Xian,AI,0,0,0
1501,121.1206,28.843132,0,0,0,0,0,0,0,0,临海市,Linhai Shi,AH,0,0,0
1502,115.5499,28.842564,0,0,0,0,0,0,0,0,安义县,Anyi Xian,AI,0,0,0
1503,108.766,28.841646,0,0,0,0,0,0,0,0,酉阳土家族苗族自治县,Youyang Tujiazu Miaozu Zizhixian,AI,0,0,0
1504,112.37997,28.837835,0,0,0,0,0,0,0,0,沅江市,Yuanjiang Shi,AH,0,0,0
1505,103.53006,28.833059,0,0,0,0,0,0,0,0,马边彝族自治县,Mabian Yizu Zizhixian,AI,0,0,0
1506,105.82673,28.812002,0,0,0,0,0,0,0,0,合江县,Hejiang Xian,AI,0,0,0
1507,113.08084,28.81172,0,0,0,0,0,0,0,0,汨罗市,Miluo Shi,AI,7,0,0
1508,105.38173,28.782063,0,0,0,0,0,0,0,0,纳溪县,Naxi Xian,AI,0,0,0
1509,118.61594,28.735312,0,0,0,0,0,0,0,0,江山市,Jiangshan Shi,AH,0,0,0
1510,105.05721,28.726171,0,0,0,0,0,0,0,0,江安县,Jiang'an Xian,AI,0,0,0
1511,99.283966,28.712606,0,0,0,0,0,0,0,0,得荣县,Deerong Xian,AI,0,0,0
1512,113.57494,28.709812,0,0,0,0,0,0,0,0,平江县,Pingjiang Xian,AI,0,0,0
1513,109.64812,28.708584,0,0,0,0,0,0,0,0,保靖县,Baojing Xian,AI,0,0,0
1514,115.37715,28.70723,0,0,0,0,0,0,0,0,奉新县,Fengxin Xian,AI,0,0,0
1515,104.52423,28.701313,0,0,0,0,0,0,0,0,宜宾县,Yibin Xian,AI,0,0,0
1516,117.06884,28.69187,0,0,0,0,0,0,0,0,万年县,Wannian Xian,AI,0,0,0
1517,116.68195,28.691545,0,0,0,0,0,0,0,0,余干县,Yugan Xian,AI,0,0,0
1518,115.81368,28.685682,0,0,0,0,0,0,0,0,新建县,Xinjian Xian,AI,0,0,0
1519,118.24018,28.679602,0,0,0,0,0,0,0,0,玉山县,Yushan Xian,AI,0,0,0
1520,112.88029,28.67621,0,0,0,0,0,0,0,0,湘阴县,Xiangyin Xian,AI,0,0,0
1521,97.476013,28.674919,0,0,0,0,0,0,0,0,察隅县,Zayuu Xian,AI,0,0,0
1522,87.111053,28.659052,0,0,0,0,0,0,0,0,定日县,Tingri xian,AI,0,0,0
1523,104.16097,28.657145,0,0,0,0,0,0,0,0,屏山县,Pingshan Xian,AI,0,0,0
1524,120.05844,28.648392,0,0,0,0,0,0,0,0,缙云县,Jinyun Xian,AI,0,0,0
1525,102.50378,28.643764,0,0,0,0,0,0,0,0,越西县,Yuexi Xian,AI,0,0,0
1526,121.25835,28.642612,0,0,0,0,0,0,0,0,黄岩市,Huangyan Shi,AH,0,0,0
1527,104.40749,28.630072,0,0,0,0,0,0,0,0,水富县,Shuifu Xian,AI,0,0,0
1528,109.95229,28.612244,0,0,0,0,0,0,0,0,古丈县,Guzhang Xian,AI,0,0,0
1529,103.95541,28.597258,0,0,0,0,0,0,0,0,绥江县,Suijiang Xian,AI,0,0,0
1530,119.26347,28.587894,0,0,0,0,0,0,0,0,遂昌县,Suichang Xian,AI,0,0,0
1531,109.4875,28.587791,0,0,0,0,0,0,0,0,花垣县,Huayuan Xian,AI,0,0,0
1532,105.69704,28.584595,0,0,0,0,0,0,0,0,赤水县,Chishui Xian,AI,0,0,0
1533,104.90739,28.577988,0,0,0,0,0,0,0,0,长宁县,Changning Xian,AI,0,0,0
1534,112.37273,28.567715,0,0,0,0,0,0,0,0,益阳县,Yiyang Xian,AI,0,0,0
1535,89.684578,28.563877,0,0,0,0,0,0,0,0,康马县,Kangmar Xian,AI,0,0,0
1536,108.49393,28.560753,0,0,0,0,0,0,0,0,沿河土家族自治县,Yanhe Tujiazu Zizhixian,AI,0,0,0
1537,107.44736,28.556452,0,0,0,0,0,0,0,0,正安县,Zheng'an Xian,AI,0,0,0
1538,115.93243,28.552488,0,0,0,0,0,0,0,0,南昌县,Nanchang Xian,AI,0,0,0
1539,102.1657,28.550951,0,0,0,0,0,0,0,0,冕宁县,Mianning Xian,AI,0,0,0
1540,107.88981,28.526127,0,0,0,0,0,0,0,0,务川仡佬族苗族自治县,Wuchuan Gelaozu Miaozu Zizhixian,AI,0,0,0
1541,114.35611,28.520634,0,0,0,0,0,0,0,0,铜鼓县,Tonggu Xian,AI,0,0,0
1542,112.13399,28.519619,0,0,0,0,0,0,0,3,桃江县,Taojiang Xian,AI,0,0,0
1543,98.914726,28.491188,0,0,0,0,0,0,0,0,德钦县,Deeqeen Xian,AI,0,0,0
1544,110.39697,28.458191,0,0,0,0,0,0,0,0,沅陵县,Yuanling Xian,AI,6,0,0
1545,119.48534,28.450748,0,0,0,0,0,0,0,0,松阳县,Songyang Xian,AI,0,0,0
1546,108.98788,28.450329,0,0,0,0,0,0,0,0,秀山土家族苗族自治县,Xiushan Tujiazu Miaozu Zizhixian,AI,0,0,0
1547,118.19136,28.438469,0,0,0,0,0,0,0,0,广丰县,Guangfeng Xian,AI,0,0,0
1548,91.43634,28.437246,0,0,0,0,0,0,0,0,措美县,Comai Xian,AI,0,0,0
1549,117.90309,28.426693,0,0,0,0,0,0,0,0,上饶县,Shangrao Xian,AI,0,0,0
1550,115.37228,28.425598,0,0,0,0,0,0,0,0,高安县,Gao'an  Xian,AI,0,0,0
1551,117.60305,28.423759,0,0,0,0,0,0,0,0,横峰县,Hengfeng Xian,AI,0,0,0
1552,92.462959,28.409546,0,0,0,0,0,0,0,0,隆子县,Lhuunzee Xian,AI,0,0,0
1553,117.42131,28.401876,0,0,0,0,0,0,0,0,弋阳县,Yiyang Xian,AI,0,0,0
1554,114.7789,28.393312,0,0,0,0,0,0,0,0,宜丰县,Yifeng Xian,AI,0,0,0
1555,104.55654,28.392288,0,0,0,0,0,0,0,0,高县,Gao Xian,AI,0,0,0
1556,111.21455,28.385363,0,0,0,0,0,0,0,0,安化县,Anhua Xian,AI,0,0,0
1557,90.860611,28.381462,0,0,0,0,0,0,0,0,洛扎县,Lhozhag Xian,AI,0,0,0
1558,104.79779,28.381191,0,0,0,0,0,0,0,0,珙县,Gong Xian,AI,0,0,0
1559,112.80692,28.376579,0,0,0,0,0,0,0,0,望城县,Wangcheng Xian,AI,0,0,0
1560,116.25907,28.364485,0,0,0,0,0,0,0,0,进贤县,Jinxian Xian,AI,0,0,0
1561,121.35361,28.363907,0,0,0,0,0,0,0,0,温岭县,Wenling Xian,AI,0,0,0
1562,87.77153,28.362658,0,0,0,0,0,0,0,0,定结县,Dinggyee Xian,AI,0,0,0
1563,105.08633,28.340626,0,0,0,0,0,0,0,0,兴文县,Xingwen Xian,AI,0,0,0
1564,103.12743,28.325417,0,0,0,0,0,0,0,0,美姑县,Meigu Xian,AI,0,0,0
1565,106.20663,28.322866,0,0,0,0,0,0,0,0,习水县,Xishui Xian,AI,0,0,0
1566,102.40721,28.310705,0,0,0,0,0,0,0,0,喜德县,Xide Xian,AI,0,0,0
1567,117.70587,28.307835,0,0,0,0,0,0,0,0,铅山县,Yanshan Xian,AI,0,0,0
1568,117.20227,28.287901,0,0,0,0,0,0,0,0,贵溪县,Guixi Xian,AI,0,0,0
1569,110.15422,28.280029,0,0,0,0,0,0,0,0,泸溪县,Luxi Xian,AI,0,0,0
1570,88.525291,28.267611,0,0,0,0,0,0,0,0,岗巴县,Gamba Xian,AI,0,0,0
1571,103.57256,28.262392,0,0,0,0,0,0,0,0,雷波县,Leibo Xian,AI,0,0,0
1572,108.11899,28.259743,0,0,0,0,0,0,0,0,德江县,Dejiang Xian,AI,0,0,0
1573,112.55048,28.2593,0,0,0,0,0,0,0,0,宁乡县,Ningxiang Xian,AI,0,0,0
1574,114.92675,28.241369,0,0,0,0,0,0,0,0,上高县,Shanggao Xian,AI,0,0,0
1575,103.63547,28.238705,0,0,0,0,0,0,0,0,永善县,Yongshan Xian,AI,0,0,0
1576,116.6061,28.232292,0,0,0,0,0,0,0,0,东乡县,Dongxiang Xian,AI,0,0,0
1577,116.80988,28.20277,0,0,0,0,0,0,0,0,余江县,Yujiang Xian,AI,0,0,0
1578,112.97813,28.198198,0,0,0,0,0,0,0,0,长沙县,Changsha Xian,AI,0,0,0
1579,115.78578,28.197754,0,0,0,0,0,0,0,0,丰城市,Fengcheng Shi,AH,0,0,0
1580,105.44255,28.181732,0,0,0,0,0,0,0,0,叙永县,Xuyong Xian,AI,0,0,0
1581,109.19439,28.168827,0,0,0,0,0,0,0,0,松桃苗族自治县,Songtao Miaozu Zizhixian,AI,0,0,0
1582,104.5134,28.163548,0,0,0,0,0,0,0,0,筠连县,Junlian Xian,AI,3,0,0
1583,85.96328,28.157806,0,0,0,0,0,0,0,0,聂拉木县,Nyalam Xian,AI,4,0,0
1584,120.68942,28.150871,0,0,0,0,0,0,0,0,永嘉县,Yongjia Xian,AI,5,0,0
1585,113.62144,28.149572,0,0,0,0,0,0,0,0,浏阳县,Liuyang Xian,AI,0,0,0
1586,120.28815,28.143875,0,0,0,0,0,0,0,0,青田县,Qingtian Xian,AI,7,0,0
1587,121.22768,28.140015,0,0,0,0,0,0,0,0,玉环县,Yuhuan Xian,AI,0,0,0
1588,106.81741,28.138098,0,0,0,0,0,0,0,4,桐梓县,Tongzi Xian,AI,0,0,0
1589,120.95769,28.130676,0,0,0,0,0,0,0,0,乐清县,Yueqing Xian,AI,9,0,0
1590,119.56376,28.112402,0,0,0,0,0,0,0,0,云和县,Yunhe Xian,AI,0,0,0
1591,114.44938,28.111526,0,0,0,0,0,0,0,0,万载县,Wanzai Xian,AI,0,0,0
1592,119.12091,28.082565,0,0,0,0,0,0,0,0,龙泉市,Longquan Shi,AH,0,0,0
1593,104.24786,28.0755,0,0,0,0,0,0,0,0,盐津县,Yanjin Xian,AI,0,0,0
1594,115.5396,28.064373,0,0,0,0,0,0,0,0,樟树市,Zhangshu Shi,AH,0,0,0
1595,105.80936,28.038115,0,0,0,0,0,0,0,0,古蔺县,Gulin Xian,AI,0,0,0
1596,102.83526,28.018797,0,0,0,0,0,0,0,0,昭觉县,Zhaojue Xian,AI,0,0,0
1597,110.18265,28.018482,0,0,0,0,0,0,0,0,辰溪县,Chenxi Xian,AI,0,0,0
1598,120.65322,28.018291,0,0,0,0,0,0,0,0,瓯海县,Ouhai Xian,AI,0,0,0
1599,108.41129,28.007593,0,0,0,0,0,0,0,0,印江土家族苗族自治县,Yinjiang Tujiazu Miaozu Zizhixian,AI,0,0,0
1600,91.952576,27.993498,0,0,0,0,0,0,0,0,错那县,Cona Xian,AI,0,0,0
1601,119.64317,27.974432,0,0,0,0,0,0,0,0,景宁畲族自治县,Jingning Shezu Zizhixian,AI,0,0,0
1602,107.72446,27.971205,0,0,0,0,0,0,0,0,凤冈县,Fenggang Xian,AI,0,0,0
1603,107.18326,27.960619,0,0,0,0,0,0,0,0,绥阳县,Suiyang Xian,AI,0,0,0
1604,109.59899,27.952387,0,0,0,0,0,0,0,0,凤凰县,Fenghuang Xian,AI,0,0,0
1605,108.24183,27.940149,0,0,0,0,0,0,0,0,思南县,Sinan Xian,AI,0,0,0
1606,101.28036,27.933779,0,0,0,0,0,0,0,0,木里藏族自治县,Muli Zangzu Zizhixian,AI,0,0,0
1607,118.53625,27.924686,0,0,0,0,0,0,0,0,浦城县,Pucheng Xian,AI,0,0,0
1608,110.59593,27.915644,0,0,0,0,0,0,0,0,溆浦县,Xupu Xian,AI,0,0,0
1609,116.77626,27.910084,0,0,0,0,0,0,0,0,金溪县,Jinxi Xian,AI,0,0,0
1610,109.80355,27.879492,0,0,0,0,0,0,0,0,麻阳苗族自治县,Mayang Miaozu Zizhixian,AI,0,0,0
1611,112.91126,27.872698,0,0,0,0,0,0,0,0,湘潭县,Xiangtan Xian,AI,0,0,0
1612,105.04758,27.842403,0,0,0,0,0,0,0,0,威信县,Weixin Xian,AI,0,0,0
1613,121.15347,27.840424,0,0,0,0,0,0,0,0,洞头县,Dongtou Xian,AI,0,0,0
1614,99.706902,27.817236,0,0,0,0,0,0,0,0,中甸县,Zhongdian Xian,AI,5,0,0
1615,114.67572,27.816051,0,0,0,0,0,0,0,0,分宜县,Fenyi Xian,AI,0,0,0
1616,106.41409,27.814859,0,0,0,0,0,0,0,0,仁怀县,Renhuai Xian,AI,0,0,0
1617,120.63069,27.790512,0,0,0,0,0,0,0,0,瑞安市,Rui'an Shi,AH,0,0,0
1618,120.07783,27.789827,0,0,0,0,0,0,0,0,文成县,Wencheng Xian,AI,0,0,0
1619,107.47826,27.77195,0,0,0,0,0,0,0,0,湄潭县,Meitan Xian,AI,0,0,0
1620,115.39381,27.759735,0,0,0,0,0,0,0,0,新干县,Xingan Xian,AI,0,0,0
1621,118.02678,27.756025,0,0,0,0,0,0,0,0,武夷山市,Wiyishan Shi,AH,0,0,0
1622,116.06158,27.75564,0,0,0,0,0,0,0,0,崇仁县,Chongren Xian,AI,0,0,0
1623,103.89465,27.753347,0,0,0,0,0,0,0,0,大关县,Daguan Xian,AI,0,0,0
1624,111.29472,27.748905,0,0,0,0,0,0,0,0,新化县,Xinhua Xian,AI,0,0,0
1625,98.66172,27.747147,0,0,0,0,0,0,0,0,贡山独龙族怒族自治县,Gongshan Derungzu Nuzu Zizhixian,AI,0,0,0
1626,111.99228,27.741852,0,0,0,0,0,0,0,0,娄底市,Loudi Shi,AH,0,0,0
1627,112.51875,27.737247,0,0,0,0,0,0,0,0,湘乡市,Xiangxiang Shi,AH,0,0,0
1628,102.80424,27.71294,0,0,0,0,0,0,0,0,布拖县,Butuo Xian,AI,0,0,0
1629,113.14752,27.710634,0,0,0,0,0,0,0,0,株洲县,Zhuzhou Xian,AI,0,0,0
1630,117.06306,27.702961,0,0,0,0,0,0,0,0,资溪县,Zixi Xian,AI,0,0,0
1631,103.24643,27.700712,0,0,0,0,0,0,0,0,金阳县,Jinyang Xian,AI,0,0,0
1632,111.66948,27.698658,0,0,0,0,0,0,0,0,涟源市,Lianyuan Shi,AH,0,0,0
1633,111.42494,27.69507,0,0,0,0,0,0,0,0,冷水江市,Lengshuijiang Shi,AH,0,0,0
1634,108.84335,27.694986,0,0,0,0,0,0,0,0,江口县,Jiangkou Xian,AI,0,0,0
1635,120.55644,27.675718,0,0,0,0,0,0,0,0,平阳县,Pingyang Xian,AI,0,0,0
1636,113.4941,27.668518,0,0,0,0,0,0,0,0,醴陵市,Liling Shi,AH,0,0,0
1637,104.05024,27.629406,0,0,1,1,0,0,1,0,彝良县,Yiliang Xian,AI,0,0,0
1638,119.05132,27.614202,0,0,2,2,0,0,2,0,庆元县,Qingyuan Xian,AI,0,0,0
1639,116.62745,27.559717,0,0,3,3,0,0,3,0,南城县,Nancheng Xian,AI,0,0,0
1640,119.71046,27.557787,0,0,4,4,0,0,4,0,泰顺县,Taishun Xian,AI,0,0,0
1641,115.14728,27.553688,0,0,5,5,0,0,5,0,峡江县,Xiajiang Xian,AI,0,0,0
1642,116.21018,27.546391,0,0,6,6,0,0,7,0,宜黄县,Yihuang Xian,AI,0,0,0
1643,117.33325,27.539524,0,0,7,7,0,0,8,7,光泽县,Guangze Xian,AI,0,0,0
1644,106.82287,27.539255,0,0,8,8,0,0,9,0,遵义县,Zunyi Xian,AI,0,0,0
1645,118.77461,27.528404,0,0,9,9,0,0,0,0,松溪县,Songxi Xian,AI,0,0,0
1646,108.23181,27.521961,0,0,0,0,0,0,0,0,石阡县,Shiqian Xian,AI,0,0,0
1647,109.20873,27.520458,0,0,0,0,0,0,0,0,万山特区,Wanshan Tequ,AI,0,0,0
1648,120.38744,27.5135,0,0,0,0,0,0,0,7,苍南县,Cangnan Xian,AI,0,0,0
1649,88.902077,27.475985,0,0,0,0,0,0,0,0,亚东县,Yadong(Chomo) Xian,AI,0,0,0
1650,106.21818,27.465887,0,0,0,0,0,0,0,0,金沙县,Jinsha Xian,AI,0,0,0
1651,112.19844,27.463396,0,0,0,0,0,0,0,0,双峰县,Shuangfeng Xian,AI,0,0,0
1652,119.51057,27.459597,0,0,0,0,0,0,0,0,寿宁县,Shouning Xian,AI,0,0,0
1653,109.68408,27.447302,0,0,0,0,0,0,0,0,芷江侗族自治县,Zhijiang DOngzu Zizhixian,AI,0,0,0
1654,104.8698,27.440968,0,0,0,0,0,0,0,0,镇雄县,Zhenxiong Xian,AI,0,0,0
1655,115.83178,27.426289,0,0,0,0,0,0,0,0,乐安县,Le'an Xian,AI,0,0,0
1656,101.51166,27.421679,0,0,0,0,0,0,0,0,盐源县,Yanyuan Xian,AI,0,0,0
1657,102.17283,27.405424,0,0,0,0,0,0,0,4,德昌县,Dechang Xian,AI,0,0,0
1658,114.60845,27.382462,0,0,0,0,0,0,0,6,安福县,Anfu Xian,AI,0,0,0
1659,102.54025,27.380705,0,0,0,0,0,0,0,8,普格县,Puge Xian,AI,0,0,0
1660,118.85319,27.372105,0,0,0,0,0,0,0,0,政和县,Zhenghe Xian,AI,0,0,0
1661,109.17157,27.357138,0,0,0,0,0,0,0,0,新晃侗族自治县,Xinhuang Dongzu Zizhixian,AI,0,0,0
1662,118.10537,27.33988,0,0,0,0,0,0,0,0,建阳县,Jianyang Xian,AI,0,0,0
1663,117.4834,27.337692,0,0,0,0,0,0,0,0,邵武市,Shaowu Shi,AH,0,0,0
1664,120.21307,27.329775,0,0,0,0,0,0,0,0,福鼎县,Fuding Xian,AI,0,0,0
1665,110.13696,27.329115,0,0,0,0,0,0,0,0,黔阳县,Qianyang Xian,AI,0,0,0
1666,111.45837,27.327436,0,0,0,0,0,0,0,0,新邵县,Xinshao Xian,AI,2,0,0
1667,115.43272,27.322115,0,0,0,0,0,0,0,0,永丰县,Yongfeng Xian,AI,0,0,0
1668,105.284,27.308081,0,0,0,0,0,0,0,0,毕节县,Bijie Xian,AI,0,0,0
1669,116.91423,27.296833,0,0,0,0,0,0,0,0,黎川县,Lichuan Xian,AI,0,0,0
1670,100.84961,27.288137,0,0,0,0,0,0,0,0,宁蒗彝族自治县,Ninglang Yizu Zizhixian,AI,0,0,0
1671,112.85242,27.245646,0,0,0,0,0,0,0,0,衡山县,Hengshan Xian,AI,0,0,0
1672,111.73914,27.245316,0,0,0,0,0,0,0,0,邵东县,Shaodong Xian,AI,0,0,0
1673,119.89193,27.24234,0,0,0,0,0,0,0,0,柘荣县,Zherong Xian,AI,0,0,0
1674,108.91154,27.235931,0,0,0,0,0,0,0,0,玉屏侗族自治县,Yuping Dongzu Zizhixian,AI,0,0,0
1675,107.8931,27.222479,0,0,0,0,0,0,0,0,余庆县,Yuqing Xian,AI,0,0,0
1676,108.73946,27.216145,0,0,0,0,0,0,0,0,岑巩县,Cengong Xian,AI,0,0,0
1677,115.13225,27.214367,0,0,0,0,0,0,0,0,吉水县,Jishui Xian,AI,0,0,0
1678,116.52993,27.214306,0,0,0,0,0,0,0,0,南丰县,Nanfeng Xian,AI,0,0,0
1679,103.54519,27.199028,0,0,0,0,0,0,0,0,鲁甸县,Ludian Xian,AI,0,0,0
1680,99.285271,27.186052,0,0,0,0,0,0,0,0,维西傈僳族自治县,Weixi Lisuzu Zizhixian,AI,0,0,0
1681,105.60608,27.147026,0,0,0,0,0,0,0,0,大方县,Dafang Xian,AI,0,0,0
1682,113.95208,27.131407,0,0,0,0,0,0,0,0,莲花县,Lianhua Xian,AI,0,0,0
1683,104.72208,27.127472,0,0,0,0,0,0,0,0,赫章县,Hezhang Xian,AI,0,0,0
1684,111.02171,27.119118,0,0,0,0,0,0,0,0,隆回县,Longhui Xian,AI,0,0,0
1685,119.33593,27.113119,0,0,0,0,0,0,0,0,周宁县,Zhouning Xian,AI,0,0,0
1686,109.9916,27.112776,0,0,0,0,0,0,0,0,洪江市,Hongjiang Shi,AH,0,0,0
1687,106.73053,27.097521,0,0,0,0,0,0,0,0,息烽县,Xifeng Xian,AI,0,0,0
1688,112.944,27.088995,0,0,0,0,0,0,0,0,衡东县,Hengdong Xian,AI,0,0,0
1689,119.64695,27.088558,0,0,0,0,0,0,0,0,福安市,Fu'an Shi,AH,0,0,0
1690,107.48283,27.073069,0,0,0,0,0,0,0,0,瓮安县,Weng'an Xian,AI,0,0,0
1691,102.75506,27.070726,0,0,0,0,0,0,0,0,宁南县,Ningna Xian,AI,2,0,0
1692,110.57032,27.067801,0,0,0,0,0,0,0,0,洞口县,Dongkou Xian,AI,0,0,0
1693,106.96738,27.058855,0,0,0,0,0,0,0,0,开阳县,Kaiyang Xian,AI,0,0,0
1694,108.41845,27.054264,0,0,0,0,0,0,0,0,镇远县,Zhenyuan Xian,AI,7,0,0
1695,114.90095,27.041361,0,0,0,0,0,0,0,0,吉安县,Ji'an Xian,AI,0,0,0
1696,118.32378,27.038864,0,0,0,0,0,0,0,0,建瓯县,Jian'ou Xian,AI,0,0,0
1697,108.11893,27.037273,0,0,0,0,0,0,0,0,施秉县,Shibing Xian,AI,9,0,0
1698,106.0367,27.034166,0,0,0,0,0,0,0,0,黔西县,Qianxi Xian,AI,0,0,0
1699,113.34333,27.004034,0,0,0,0,0,0,0,0,攸县,You Xian,AI,2,0,0
1700,111.26582,26.996775,0,0,0,0,0,0,0,0,邵阳县,Shaoyang Xian,AI,0,0,0
1701,112.37106,26.973873,0,0,0,0,0,0,0,0,衡阳县,Hengyang Xian,AI,0,0,0
1702,108.67924,26.97151,0,0,0,0,0,0,0,0,三穗县,Sansui Xian,AI,6,0,0
1703,114.23687,26.945564,0,0,0,0,0,0,0,0,永新县,Yongxin Xian,AI,0,0,0
1704,102.92025,26.916569,0,0,0,0,0,0,0,5,巧家县,Qiaojia Xian,AI,0,0,0
1705,101.54528,26.913048,0,0,0,0,0,0,0,0,盐边县,Yanbian Xian,AI,0,0,0
1706,118.97351,26.911156,0,0,0,0,0,0,0,0,屏南县,Pingnan Xian,AI,0,0,0
1707,109.20043,26.908808,0,0,0,0,0,0,0,0,天柱县,Tianzhu Xian,AI,0,0,0
1708,112.59704,26.901617,0,0,0,0,0,0,0,0,衡南县,Hengnan Xian,AI,0,0,0
1709,98.879677,26.900753,0,0,0,0,0,0,0,0,福贡县,Fugong Xian,AI,0,0,0
1710,117.15911,26.898485,0,0,0,0,0,0,0,0,泰宁县,Taining Xian,AI,0,0,0
1711,107.90214,26.895836,0,0,0,0,0,0,0,0,黄平县,Huangping Xian,AI,0,0,0
1712,102.11172,26.888992,0,0,0,0,0,0,0,0,米易县,Miyi Xian,AI,0,0,0
1713,119.99039,26.883463,0,0,0,0,0,0,0,0,霞浦县,Xiapu Xian,AI,0,0,0
1714,100.23598,26.874634,0,0,0,0,0,0,0,0,丽江纳西族自治县,Lijiang Naxizu Zizhixian,AI,0,0,0
1715,109.71355,26.861492,0,0,0,0,0,0,0,0,会同县,Huitong Xian,AI,0,0,0
1716,104.28983,26.860271,0,0,0,0,0,0,0,0,威宁彝族回族苗族自治县,Weining Yizu Huizu Zizhixian,AI,0,0,0
1717,106.59193,26.842997,0,0,0,0,0,0,0,0,修文县,Xiuwen Xian,AI,0,0,0
1718,116.31657,26.836372,0,0,0,0,0,0,0,0,广昌县,Guangchang Xian,AI,0,0,0
1719,116.83253,26.832491,0,0,0,0,0,0,0,0,建宁县,Jianning Xian,AI,0,0,0
1720,113.55217,26.801975,0,0,0,0,0,0,0,0,茶陵县,Chaling Xian,AI,0,0,0
1721,117.80628,26.797091,0,0,0,0,0,0,0,0,顺昌县,Shunchang Xian,AI,0,0,0
1722,114.89487,26.792103,0,0,0,0,0,0,0,0,泰和县,Taihe Xian,AI,0,0,0
1723,112.12318,26.791624,0,0,0,0,0,0,0,0,祁东县,Qidong Xian,AI,0,0,0
1724,105.37709,26.775127,0,0,0,0,0,0,0,0,纳雍县,Nayong Xian,AI,0,0,0
1725,110.62229,26.730705,0,0,0,0,0,0,0,0,武冈县,Wugang Xian,AI,0,0,0
1726,117.45502,26.720821,0,0,0,0,0,0,0,0,将乐县,Jiangle Xian,AI,0,0,0
1727,113.95885,26.709301,0,0,0,0,0,0,0,0,宁冈县,Ninggang Xian,AI,0,0,0
1728,113.26765,26.706846,0,0,0,0,0,0,0,0,安仁县,Anren Xian,AI,0,0,0
1729,107.51251,26.701212,0,0,0,0,0,0,0,0,福泉县,Fuquan Xian,AI,0,0,0
1730,100.74804,26.689333,0,0,0,0,0,0,0,0,永胜县,Yongsheng Xian,AI,0,0,0
1731,109.19501,26.684566,0,0,0,0,0,0,0,0,锦屏县,Jinping Xian,AI,0,0,0
1732,108.31111,26.676718,0,0,0,0,0,0,0,0,台江县,Taijiang Xian,AI,0,0,0
1733,102.23386,26.661867,0,0,0,0,0,0,0,0,会理县,Huili Xian,AI,8,0,0
1734,105.76309,26.660494,0,0,0,0,0,0,0,0,织金县,Zhijin Xian,AI,0,0,0
1735,108.58459,26.650932,0,0,0,0,0,0,0,0,剑河县,Jianhe Xian,AI,0,0,0
1736,102.56721,26.643356,0,0,0,0,0,0,0,0,会东县,Huidong Xian,AI,0,0,0
1737,101.2639,26.630207,0,0,0,0,0,0,0,0,华坪县,Huaping Xian,AI,0,0,0
1738,111.8559,26.591692,0,0,0,0,0,0,0,0,祁阳县,Qiyang Xian,AI,0,0,0
1739,107.23962,26.585646,0,0,0,0,0,0,0,0,贵定县,Guiding Xian,AI,0,0,0
1740,110.15844,26.583199,0,0,0,0,0,0,0,0,绥宁县,Suining Xian,AI,0,0,0
1741,104.87339,26.577568,0,0,0,0,0,0,0,0,水城县,Shuicheng Xian,AI,0,0,0
1742,118.73843,26.577341,0,0,0,0,0,0,0,0,古田县,Gutian Xian,AI,4,0,0
1743,109.69478,26.57576,0,0,0,0,0,0,0,0,靖州苗族侗族自治县,Jingzhou Miaozu Dongzu Zizhixian,AI,0,0,0
1744,114.15884,26.566874,0,0,0,0,0,0,0,0,井冈山市,Jinggangshan Shi,AH,0,0,0
1745,100.17928,26.559418,0,0,0,0,0,0,0,0,鹤庆县,Heqing Xian,AI,0,0,0
1746,106.46762,26.556049,0,0,0,0,0,0,0,0,清镇县,Qingzhen Xian,AI,0,0,0
1747,99.898743,26.530956,0,0,0,0,0,0,0,0,剑川县,Jianchuan Xian,AI,0,0,0
1748,107.58804,26.498539,0,0,0,0,0,0,0,9,麻江县,Majiang Xian,AI,5,0,0
1749,113.76665,26.496861,0,0,0,0,0,0,0,0,酃县,Ling Xian,AI,0,0,0
1750,119.54493,26.490908,0,0,0,0,0,0,0,0,罗源县,Luoyuan Xian,AI,0,0,0
1751,116.0101,26.466515,0,0,0,0,0,0,0,0,宁都县,Ningdu Xian,AI,0,0,0
1752,114.77968,26.461771,0,0,0,0,0,0,0,4,万安县,Wan'an Xian,AI,0,0,0
1753,106.98106,26.458336,0,0,0,0,0,0,0,0,龙里县,Longli Xian,AI,0,0,0
1754,111.58423,26.443542,0,0,0,0,0,0,0,0,冷水滩市,Lengshuitan Shi,AH,0,0,0
1755,99.406075,26.43458,0,0,0,0,0,0,0,0,兰坪白族普米族自治县,Lanping Baizu Pumizu Zizhixian,AI,0,0,0
1756,110.84443,26.433083,0,0,0,0,0,0,0,0,新宁县,Xinning Xian,AI,0,0,0
1757,103.29464,26.420563,0,0,0,0,0,0,0,0,会泽县,Huize Xian,AI,0,0,0
1758,106.26086,26.417788,0,0,0,0,0,0,0,0,平坝县,Pingba Xian,AI,0,0,0
1759,112.84689,26.41507,0,0,0,0,0,0,0,0,耒阳市,Leiyang Shi,AH,0,0,0
1760,112.38709,26.407257,0,0,0,0,0,0,0,0,常宁县,Changning Xian,AI,0,0,0
1761,111.28426,26.403675,0,0,0,0,0,0,0,0,东安县,Dong'an Xian,AI,0,0,0
1762,117.78179,26.39761,0,0,0,0,0,0,0,0,沙县,Sha Xian,AI,0,0,0
1763,108.06821,26.388655,0,0,0,0,0,0,0,0,雷山县,Leishan Xian,AI,0,0,0
1764,110.30922,26.360613,0,0,0,0,0,0,0,6,城步苗族自治县,Chengbu Miaozu Zizhixian,AI,0,0,0
1765,117.19869,26.349825,0,0,0,0,0,0,0,0,明溪县,Mingxi Xian,AI,0,0,0
1766,116.33894,26.328182,0,0,0,0,0,0,0,0,石城县,Shicheng Xian,AI,0,0,0
1767,114.50566,26.327883,0,0,0,0,0,0,0,0,遂川县,Suichuan Xian,AI,0,0,0
1768,115.34277,26.321701,0,0,0,0,0,0,0,0,兴国县,Xingguo Xian,AI,0,0,0
1769,105.74633,26.311441,0,0,0,0,0,0,0,0,普定县,Puding Xian,AI,0,0,0
1770,116.65951,26.266445,0,0,0,0,0,0,0,0,宁化县,Ninghua Xian,AI,0,0,0
1771,109.13293,26.231159,0,0,0,0,0,0,0,0,黎平县,Liping Xian,AI,0,0,0
1772,104.10641,26.218842,0,0,0,0,0,0,0,0,宣威县,Xuanwei Xian,AI,0,0,0
1773,118.8625,26.213224,0,0,0,0,0,0,0,0,闽清县,Minqing Xian,AI,0,0,0
1774,105.47798,26.204273,0,0,0,0,0,0,0,0,六枝特区,Luzhi Tequ,AI,0,0,0
1775,107.79226,26.200058,0,0,0,0,0,0,0,0,丹寨县,Danzhai Xian,AI,0,0,0
1776,119.53447,26.198015,0,0,0,0,0,0,0,0,连江县,Lianjiang Xian,AI,0,0,0
1777,118.18219,26.171848,0,0,0,0,0,0,0,0,尤溪县,Youxi Xian,AI,0,0,0
1778,116.81414,26.163521,0,0,0,0,0,0,0,0,清流县,Qingliu Xian,AI,0,0,0
1779,109.76992,26.159428,0,0,0,0,0,0,0,0,通道侗族自治县,Dongdao Tongzu Zizhixian,AI,0,0,0
1780,119.14597,26.150448,0,0,0,0,0,0,0,0,闽侯县,Minhou Xian,AI,0,0,0
1781,106.65624,26.138756,0,0,0,0,0,0,0,0,惠水县,Huishui Xian,AI,0,0,0
1782,113.11494,26.133934,0,0,0,0,0,0,0,0,永兴县,Yongxing Xian,AI,0,0,0
1783,99.949234,26.112703,0,0,0,0,0,0,0,0,洱源县,Eryuan Xian,AI,5,0,0
1784,113.93313,26.08267,0,0,0,0,0,0,0,0,桂东县,Guidong Xian,AI,0,0,0
1785,101.6742,26.062557,0,0,0,0,0,0,0,0,永仁县,Yongren Xian,AI,0,0,0
1786,105.76356,26.054596,0,0,0,0,0,0,0,0,镇宁布依族苗族自治县,Zhenning Buyizu Miaozu Zizhixian,AI,0,0,0
1787,110.63795,26.030924,0,0,0,0,0,0,0,0,资源县,Ziyuan Xian,AI,0,0,0
1788,106.45215,26.030334,0,0,0,0,0,0,0,0,长顺县,Changshun Xian,AI,0,0,0
1789,107.86237,25.992197,0,0,0,0,0,0,0,0,三都水族自治县,Sandu Shuizu Zizhixian,AI,6,0,0
1790,98.818764,25.982824,0,0,0,0,0,0,0,0,泸水县,Lushui Xian,AI,0,0,0
1791,117.36143,25.965034,0,0,0,0,0,0,0,0,永安市,Yong'an Shi,AH,0,0,0
1792,111.65299,25.963419,0,0,0,0,0,0,0,0,双牌县,Shuangpai Xian,AI,0,0,0
1793,119.51884,25.959837,0,0,0,0,0,0,0,0,长乐县,Changle Xian,AI,0,0,0
1794,115.40936,25.954086,0,0,0,0,0,0,0,0,于都县,Yudu Xian,AI,0,0,0
1795,105.61887,25.950773,0,0,0,0,0,0,0,0,关岭布依族苗族自治县,Guanling Buyizu Miaozu Zizhixian,AI,0,0,0
1796,113.22253,25.943691,0,0,0,0,0,0,0,0,资兴市,Zixing Shi,AH,0,0,0
1797,111.065,25.931814,0,0,0,0,0,0,0,0,全州县,Quanzhou Xian,AI,0,0,0
1798,108.51617,25.925589,0,0,0,0,0,0,0,0,榕江县,Rongjiang Xian,AI,0,0,0
1799,112.21015,25.912876,0,0,0,0,0,0,0,0,新田县,Xintian Xian,AI,0,0,0
1800,99.374886,25.893173,0,0,0,0,0,0,0,0,云龙县,Yunlong Xian,AI,0,0,0
1801,116.02468,25.872566,0,0,0,0,0,0,0,0,瑞金县,Ruijin Xian,AI,0,0,0
1802,118.9341,25.867622,0,0,0,0,0,0,0,0,永泰县,Yongtai Xian,AI,0,0,0
1803,115.00167,25.859724,0,0,0,0,0,0,0,0,赣县,Gan Xian,AI,0,0,0
1804,107.326,25.835638,0,0,0,0,0,0,0,3,平塘县,Pingtang Xian,AI,0,0,0
1805,105.21588,25.833469,0,0,0,0,0,0,0,0,晴隆县,Qinglong Xian,AI,0,0,0
1806,116.34954,25.833382,0,0,0,0,0,0,0,0,长汀县,Changting Xian,AI,0,0,0
1807,100.57784,25.830271,0,0,0,0,0,0,0,0,宾川县,Binchuan Xian,AI,0,0,0
1808,107.54275,25.829073,0,0,0,0,0,0,0,5,独山县,Dushan Xian,AI,0,0,0
1809,113.02514,25.802719,0,0,0,0,0,0,0,0,郴县,Chen Xian,AI,0,0,0
1810,114.53175,25.796444,0,0,0,0,0,0,0,0,上犹县,Shangyou Xian,AI,0,0,0
1811,110.00895,25.794008,0,0,0,0,0,0,0,0,龙胜各族自治县,Longsheng Gezu Zizhixian,AI,0,0,0
1812,104.64989,25.793142,0,0,0,0,0,0,0,0,盘县特区,Panxian Tequ,AI,6,0,0
1813,104.95208,25.78841,0,0,0,0,0,0,0,0,普安县,Pu'an Xian,AI,8,0,0
1814,109.59576,25.785355,0,0,0,0,0,0,0,0,三江侗族自治县,Sanjiang Dongzu Zizhixian,AI,0,0,0
1815,106.08314,25.753273,0,0,0,0,0,0,0,0,紫云苗族布依族自治县,Ziyun Miaozu Buyizu Zizhixian,AI,0,0,0
1816,108.90076,25.745731,0,0,0,0,0,0,0,0,从江县,Congjiang Xian,AI,0,0,0
1817,112.72593,25.74197,0,0,0,0,0,0,0,0,桂阳县,Guiyang Xian,AI,0,0,0
1818,119.38144,25.727917,0,0,0,0,0,0,0,0,福清市,Fuqing Shi,AH,0,0,0
1819,101.32531,25.725731,0,0,0,0,0,0,0,0,大姚县,Dayao Xian,AI,6,0,0
1820,116.74574,25.708454,0,0,0,0,0,0,0,0,连城县,Liancheng Xian,AI,0,0,0
1821,101.87663,25.704,0,0,0,0,0,0,0,0,元谋县,Yuanmou Xian,AI,0,0,0
1822,114.30186,25.69359,0,0,0,0,0,0,0,0,崇义县,Chongyi Xian,AI,0,0,0
1823,117.83682,25.692293,0,0,0,0,0,0,0,0,大田县,Datian Xian,AI,0,0,0
1824,104.24868,25.672686,0,0,0,0,0,0,0,3,富源县,Fuyuan Xian,AI,0,0,0
1825,114.74516,25.658571,0,0,0,0,0,0,0,0,南康县,Nankang Xian,AI,0,0,0
1826,99.96563,25.653889,0,0,0,0,0,0,0,0,漾濞彝族自治县,Yangbi Yizu Zizhixian,AI,0,0,0
1827,110.66587,25.613132,0,0,0,0,0,0,0,0,兴安县,Xing'an Xian,AI,0,0,0
1828,111.93868,25.598452,0,0,0,0,0,0,0,0,宁远县,Ningyuan Xian,AI,8,0,0
1829,112.35869,25.586987,0,0,0,0,0,0,0,0,嘉禾县,Jiahe Xian,AI,0,0,0
1830,115.78302,25.58433,0,0,0,0,0,0,0,0,会昌县,Huichang Xian,AI,0,0,0
1831,102.46172,25.562651,0,0,0,0,0,0,0,0,禄劝彝族苗族自治县,Luchuan Yizu Miaozu Zizhixian,AI,0,0,0
1832,103.25372,25.562204,0,0,0,0,0,0,0,0,寻甸回族彝族自治县,Xundian Huizu Yizu Zizhixian,AI,0,0,0
1833,113.67972,25.55172,0,0,0,0,0,0,0,0,汝城县,Rucheng Xian,AI,0,0,0
1834,102.39832,25.535849,0,0,0,0,0,0,0,0,武定县,Wuding Xian,AI,0,0,0
1835,111.59088,25.531357,0,0,0,0,0,0,0,0,道县,Dao Xian,AI,0,0,0
1836,101.24246,25.513739,0,0,0,0,0,0,0,0,姚安县,Yao'an Xian,AI,0,0,0
1837,119.78365,25.503984,0,0,0,0,0,0,0,0,平潭县,Pingtan Xian,AI,0,0,0
1838,111.14469,25.488653,0,0,0,0,0,0,0,0,灌阳县,Guanyang Xian,AI,0,0,0
1839,100.55898,25.479092,0,0,0,0,0,0,0,0,祥云县,Xiangyun Xian,AI,0,0,0
1840,118.22922,25.476954,0,0,0,0,0,0,0,0,德化县,Dehua Xian,AI,0,0,0
1841,99.519341,25.463171,0,0,0,0,0,0,0,0,永平县,Yongping Xian,AI,0,0,0
1842,105.18205,25.437069,0,0,0,0,0,0,0,0,兴仁县,Xingren Xian,AI,0,0,0
1843,119.0111,25.433954,0,0,0,0,0,0,0,0,莆田县,Putian Xian,AI,0,0,0
1844,106.75147,25.428503,0,0,0,0,0,0,0,0,罗甸县,Luodian Xian,AI,0,0,0
1845,103.58021,25.428434,0,0,0,0,0,0,0,0,马龙县,Malong Xian,AI,0,0,0
1846,107.8784,25.41436,0,0,0,0,0,0,0,0,荔波县,Libo Xian,AI,0,0,0
1847,110.32415,25.412704,0,0,0,0,0,0,0,0,灵川县,Lingchuan Xian,AI,0,0,0
1848,112.94212,25.401428,0,0,0,0,0,0,0,0,宜章县,Yizhang Xian,AI,0,0,0
1849,114.35057,25.399954,0,0,0,0,0,0,0,1,大余县,Dayu Xian,AI,0,0,0
1850,105.65478,25.387112,0,0,0,0,0,0,0,0,贞丰县,Zhenfeng Xian,AI,0,0,0
1851,114.93108,25.378399,0,0,0,0,0,0,0,6,信丰县,Xinfeng Xian,AI,0,0,0
1852,112.17776,25.372412,0,0,0,0,0,0,0,0,蓝山县,Lanshan Xian,AI,0,0,0
1853,118.68367,25.364557,0,0,0,0,0,0,0,0,仙游县,Xianyou Xian,AI,0,0,0
1854,100.49418,25.342232,0,0,0,0,0,0,0,0,弥渡县,Midu Xian,AI,0,0,0
1855,103.03332,25.341337,0,0,0,0,0,0,0,0,嵩明县,Songming Xian,AI,0,0,0
1856,118.28717,25.32579,0,0,0,0,0,0,0,0,永春县,Yongchun Xian,AI,0,0,0
1857,101.53561,25.317526,0,0,0,0,0,0,0,0,牟定县,Muding Xian,AI,0,0,0
1858,117.40403,25.289463,0,0,0,0,0,0,0,0,漳平市,Zhangping Shi,AH,0,0,0
1859,112.53838,25.281507,0,0,0,0,0,0,0,0,临武县,Linwu Xian,AI,0,0,0
1860,111.33645,25.276974,0,0,0,0,0,0,0,0,江永县,Jiangyong Xian,AI,0,0,0
1861,121.74083,24.757286,0,0,0,0,0,0,0,0,宜兰县,Ilan Hsien,AI,0,0,0
1862,114.52396,24.74378,0,0,0,0,0,0,0,0,全南县,Quannan Xian,AI,0,0,0
1863,118.63232,24.736181,0,0,0,0,0,0,0,0,石狮市,Shishi Shi,AH,0,0,0
1864,118.14412,24.736046,0,0,0,0,0,0,0,0,同安县,Tong'an Xian,AI,0,0,0
1865,99.17717,24.732546,0,0,0,0,0,0,0,0,施甸县,Shidian Xian,AI,0,0,0
1866,116.72076,24.720377,0,0,0,0,0,0,0,0,永定县,Yongding Xian,AI,0,0,0
1867,112.2825,24.718811,0,0,0,0,0,0,0,0,连南瑶族自治县,Liannan Yaozu Zizhixian,AI,0,0,0
1868,97.93679,24.707516,0,0,0,0,0,0,0,0,盈江县,Yingjiang Xian,AI,0,0,0
1869,101.63987,24.694275,0,0,0,0,0,0,0,0,双柏县,Shuangbai Xian,AI,0,0,0
1870,113.59617,24.683868,0,0,0,0,0,0,0,0,曲江县,Qujiang Xian,AI,0,0,0
1871,102.59974,24.673285,0,0,0,0,0,0,0,0,晋宁县,Jinning Xian,AI,0,0,0
1872,102.91122,24.673197,0,0,0,0,0,0,0,0,澄江县,Dengjiang Xian,AI,0,0,0
1873,102.14977,24.672621,0,0,0,0,0,0,0,0,易门县,Yimen Xian,AI,0,0,0
1874,109.23652,24.656956,0,0,0,0,0,0,0,0,柳城县,Liucheng Xian,AI,0,0,0
1875,116.17018,24.651356,0,0,0,0,0,0,0,0,蕉岭县,Jiaoling Xian,AI,0,0,0
1876,110.6465,24.635727,0,0,0,0,0,0,0,0,平乐县,Pingle Xian,AI,0,0,0
1877,117.75055,24.62048,0,0,0,0,0,0,0,0,长泰县,Changtai Xian,AI,0,0,0
1878,98.588608,24.441521,0,0,0,0,0,0,0,0,潞西县,Luxi Xian,AI,6,0,0
1879,114.93236,24.439734,0,0,0,0,0,0,0,0,和平县,Heping Xian,AI,0,0,0
1880,117.80939,24.439224,0,0,0,0,0,0,0,0,龙海县,Longhai Xian,AI,0,0,0
1881,118.31631,24.433306,0,0,0,0,0,0,0,0,金门县,Jinmen Xian,AI,0,0,0
1882,111.53455,24.417259,0,0,0,0,0,0,0,0,贺县,He Xian,AI,3,0,0
1883,103.4332,24.409359,0,0,0,0,0,0,0,0,弥勒县,Mile Xian,AI,0,0,0
1884,97.962486,24.365541,0,0,0,0,0,0,0,0,陇川县,Longchuan Xian,AI,0,0,0
1885,114.48235,24.357727,0,0,0,0,0,0,0,0,连平县,Lianping Xian,AI,0,0,0
1886,116.68863,24.354483,0,0,0,0,0,0,0,0,大埔县,Dapu Xian,AI,0,0,0
1887,117.29623,24.351973,0,0,0,0,0,0,0,0,平和县,Pinghe Xian,AI,0,0,0
1888,106.57572,24.348549,0,0,0,0,0,0,0,0,凌云县,Lingyun Xian,AI,0,0,0
1889,114.1319,24.344467,0,0,0,0,0,0,0,0,翁源县,Wengyuan Xian,AI,0,0,0
1890,116.10873,24.307465,0,0,0,0,0,0,0,0,梅县,Mei Xian,AI,0,0,9
1891,106.23518,24.30167,0,0,0,0,0,0,0,0,田林县,tianlin Xian,AI,0,0,0
1892,102.74863,24.296196,0,0,0,0,0,0,0,0,江川县,Jiangchuan Xian,AI,0,0,0
1893,120.71283,24.255592,0,0,0,0,0,0,0,0,台中县,Taichung Hsien,AI,0,0,0
1894,109.32584,24.252417,0,0,0,0,0,0,0,0,柳江县,Liujiang Xian,AI,0,0,0
1895,110.5198,24.203249,0,0,0,0,0,0,0,9,蒙山县,Meng shan Xian,AI,0,0,0
1896,99.250793,24.029348,0,0,0,0,0,0,0,1,永德县,Yongde Xian,AI,0,0,0
1897,97.859154,24.012642,0,0,0,0,0,0,0,0,瑞丽县,Ruili Xian,AI,0,0,0
1898,121.60255,23.983141,0,0,0,0,0,0,0,0,花莲县,Hualien Hsien,AI,4,0,0
1899,117.32831,23.959551,0,0,0,0,0,0,0,0,云霄县,Yunxiao Xian,AI,0,0,0
1900,109.68246,23.958055,0,0,0,0,0,0,0,0,象州县,Xiangzhou Xian,AI,8,0,0
1901,108.09344,23.934784,0,0,0,0,0,0,0,0,都安瑶族自治县,Du'an Yaozu Zizhixian,AI,0,0,0
1902,115.7625,23.932161,0,0,0,0,0,0,0,0,五华县,Wuhua Xian,AI,0,0,0
1903,112.17924,23.912186,0,0,0,0,0,0,0,0,怀集县,Huaiji Xian,AI,0,0,0
1904,120.67931,23.910688,0,0,0,0,0,0,0,0,南投县,Nantou Hsien,AI,0,0,0
1905,99.026527,23.882551,0,0,0,0,0,0,0,0,镇康县,Zhenkang Xian,AI,0,0,0
1906,100.08823,23.880026,0,0,0,0,0,0,0,0,临沧县,Lincang Xian,AI,0,0,0
1907,113.53105,23.871895,0,0,0,0,0,0,0,0,佛冈县,Fogang Xian,AI,0,0,0
1908,100.88517,23.871788,0,0,0,0,0,0,0,0,镇沅彝族哈尼族拉祜族自治县,Zhenyuan Yizu Hanizu Lahuzu Zizhixian,AI,0,0,0
1909,108.87385,23.801832,0,0,0,0,0,0,0,0,合山市,Heshan Shi,AH,0,0,0
1910,116.17049,23.767244,0,0,0,0,0,0,0,0,丰顺县,Fengshun Xian,AI,0,0,0
1911,107.99053,23.749001,0,0,0,0,0,0,0,0,大化瑶族自治县,Dahua Yaozu Zizhixian,AI,0,0,0
1912,114.24309,23.739285,0,0,0,0,0,0,0,0,龙门县,Longmen Xian,AI,0,0,0
1913,109.65503,23.596741,0,0,0,0,0,0,0,0,武宣县,Wuxuan Xian,AI,0,0,0
1914,119.57707,23.571344,0,0,0,0,0,0,0,0,澎湖县,Penghu Hsien,AI,0,0,0
1915,113.5811,23.555426,0,0,0,0,0,0,0,0,从化县,Conghua Xian,AI,0,0,0
1916,110.39474,23.54998,0,0,0,0,0,0,0,0,平南县,Pingnan Xian,AI,0,0,0
1917,116.34977,23.542976,0,0,0,0,0,0,0,0,揭阳县,Jieyang Xian,AI,0,0,0
1918,99.396393,23.54048,0,0,0,0,0,0,0,1,耿马傣族佤族自治县,Gengma Daizu Vazu Zizhixian,AI,0,0,0
1919,100.69958,23.499077,0,0,0,0,0,0,0,0,景谷傣族彝族自治县,Jinggu Daizu Yizu Zizhixian,AI,0,0,0
1920,120.43589,23.483335,0,0,0,0,0,0,0,0,嘉义县,Chia-i Hsien,AI,0,0,0
1921,99.82618,23.472231,0,0,0,0,0,0,0,9,双江拉祜族佤族布朗族傣族自治县,Shuangjiang Lahuzu Vazu Blangzu Daizu Zizhixian,AI,0,0,0
1922,116.76804,23.463154,0,0,0,0,0,0,0,0,澄海县,Chenghai Xian,AI,0,0,0
1923,111.5081,23.445099,0,0,0,0,0,0,0,0,封开县,Fengkai Xian,AI,0,0,0
1924,104.6685,23.442638,0,0,0,0,0,0,0,0,西畴县,Xichou Xian,AI,0,0,0
1925,108.59114,23.442163,0,0,0,0,0,0,0,0,上林县,Shanglin Xian,AI,0,0,0
1926,101.69462,23.436018,0,0,0,0,0,0,0,0,墨江哈尼族自治县,Mojiang Hanizu Zizhixian,AI,0,0,0
1927,115.83645,23.434557,0,0,0,0,0,0,0,0,揭西县,Jiexi Xian,AI,0,0,0
1928,117.01698,23.42544,0,0,0,0,0,0,0,0,南澳县,Nan'ao Xian,AI,0,0,0
1929,111.24039,23.421976,0,0,0,0,0,0,0,0,苍梧县,Cangwu Xian,AI,0,0,0
1930,105.84009,23.412697,0,0,0,0,0,0,0,0,那坡县,Napo Xian,AI,1,0,0
1931,110.07166,23.394571,0,0,0,0,0,0,0,0,桂平县,Guiping Xian,AI,0,0,0
1932,113.20291,23.376837,0,0,0,0,0,0,0,0,花县,Hua Xian,AI,0,0,9
1933,104.23555,23.376131,0,0,0,0,0,0,0,0,文山县,Wenshan Xian,AI,0,0,0
1934,102.41888,23.374924,0,0,0,0,0,0,0,0,红河县,Honghe Xian,AI,0,0,1
1935,110.90428,23.373119,0,0,0,0,0,0,0,0,藤县,Teng Xian,AI,0,0,0
1936,103.39257,23.369949,0,0,0,0,0,0,0,0,蒙自县,Mengzi Xian,AI,0,0,0
1937,112.69453,23.348709,0,0,0,0,0,0,0,0,四会县,Sihui Xian,AI,0,0,0
1938,106.60835,23.332321,0,0,0,0,0,0,0,0,德保县,Debao Xian,AI,0,0,0
1939,107.57001,23.3248,0,0,0,0,0,0,0,0,平果县,Pingguo Xian,AI,0,0,0
1940,120.31344,23.313587,0,0,0,0,0,0,0,7,台南县,Tainan Hsien,AI,0,0,0
1941,115.65143,23.310923,0,0,0,0,0,0,0,0,陆河县,Luhe Xian,AI,0,0,0
1942,116.16801,23.300182,0,0,0,0,0,0,0,7,普宁县,Puning Xian,AI,0,0,0
1943,113.82915,23.292559,0,0,0,0,0,0,0,0,增城县,Zengcheng Xian,AI,0,0,0
1944,116.59406,23.260954,0,0,0,0,0,0,0,0,潮阳县,Chaoyang Xian,AI,0,0,0
1945,111.52143,23.242224,0,0,0,0,0,0,0,0,郁南县,Yunan Xian,AI,0,0,0
1946,108.81004,23.216873,0,0,0,0,0,0,0,0,宾阳县,Binyang Xian,AI,0,0,0
1947,107.68495,23.178167,0,0,0,0,0,0,0,0,隆安县,Long'an Xian,AI,0,0,0
1948,115.33481,22.975712,0,0,0,0,0,0,0,0,海丰县,Haifeng Xian,AI,0,0,0
1949,115.64108,22.948467,0,0,0,0,0,0,0,0,陆丰县,Lufeng Xian,AI,0,0,0
1950,113.3661,22.943789,0,0,0,0,0,0,0,0,番禺县,Panyu Xian,AI,0,0,0
1951,112.03999,22.933193,0,0,0,0,0,0,0,0,云浮县,Yunfu Xian,AI,0,0,0
1952,111.00085,22.92906,0,0,0,0,0,0,0,0,岑溪县,Cenxi Xian,AI,0,0,0
1953,112.84849,22.889038,0,0,0,0,0,0,0,0,高明县,Gaoming Xian,AI,0,0,0
1954,110.55103,22.863588,0,0,0,0,0,0,0,0,容县,Rong Xian,AI,0,0,0
1955,113.25392,22.84786,0,0,0,0,0,0,0,0,顺德县,Shunde Xian,AI,0,0,0
1956,107.19543,22.841093,0,0,0,0,0,0,0,0,大新县,Daxin Xian,AI,0,0,0
1957,114.46269,22.799276,0,0,0,0,0,0,0,0,惠阳县,Huiyang Xian,AI,0,0,0
1958,100.97543,22.79343,0,0,0,0,0,0,0,0,思茅县,Simao Xian,AI,0,0,0
1959,103.22217,22.787333,0,0,0,0,0,0,0,9,金平苗族瑶族傣族自治县,Jinping Miaozu Yaozu Daizu Zizhixian,AI,0,0,2
1960,111.57035,22.766914,0,0,0,0,0,0,0,0,罗定县,Luoding Xian,AI,0,0,0
1961,112.95816,22.765884,0,0,0,0,0,0,0,0,鹤山县,Heshan Xian,AI,0,0,0
1962,121.14621,22.757282,0,0,0,0,0,0,0,0,台东县,Taitung Hsien,AI,0,0,0
1963,108.48778,22.753807,0,0,0,0,0,0,0,0,邕宁县,Yongning Xian,AI,0,0,0
1964,99.460938,22.739605,0,0,0,0,0,0,0,0,西盟佤族自治县,Ximeng Vazu Zizhixian,AI,0,0,0
1965,110.26681,22.325253,0,0,0,0,0,0,0,0,陆川县,Luchuan Xian,AI,0,0,0
1966,109.97141,22.275869,0,0,0,0,0,0,0,0,博白县,Bobai Xian,AI,0,0,0
1967,109.54034,22.269863,0,0,0,0,0,0,0,0,浦北县,Pubei Xian,AI,0,0,0
1968,112.79442,22.251373,0,0,0,0,0,0,0,0,台山县,Taishan Xian,AI,0,0,0
1969,113.28738,22.212406,0,0,0,0,0,0,0,0,斗门县,Doumen Xian,AI,0,0,0
1970,112.30747,22.191948,0,0,0,0,0,0,0,0,恩平县,Enping Xian,AI,0,0,0
1971,111.79068,22.175907,0,0,0,0,0,0,0,0,阳春县,Yangchun Xian,AI,0,0,0
1972,107.97879,22.152637,0,0,0,0,0,0,0,0,上思县,Shangsi Xian,AI,0,0,0
1973,107.06284,22.138447,0,0,0,0,0,0,0,0,宁明县,Ningming Xian,AI,0,0,0
1974,100.79406,22.012938,0,0,0,0,0,0,0,0,景洪县,Jinghong Xian,AI,0,0,0
1975,100.45284,21.967859,0,0,0,0,0,0,0,0,勐海县,Menghai Xian,AI,0,0,0
1976,110.85381,21.919214,0,0,0,0,0,0,0,0,高州县,Gaozhou Xian,AI,0,0,0
1977,108.35658,21.768936,0,0,0,0,0,0,0,0,防城各族自治县,Fangcheng Gezu Zizhixian,AI,0,0,0
1978,111.6274,21.750427,0,0,0,0,0,0,0,0,阳西县,Yangxi Xian,AI,0,0,0
1979,109.19004,21.670145,0,0,0,0,0,0,0,0,合浦县,Hepu Xian,AI,0,0,0
1980,110.62531,21.654028,0,0,0,0,0,0,0,0,化州县,Huazhou Xian,AI,0,0,0
1981,110.28332,21.613159,0,0,0,0,0,0,0,0,廉江县,Lianjiang Xian,AI,0,0,0
1982,111.00157,21.511053,0,0,0,0,0,0,0,9,电白县,Dianbai Xian,AI,0,0,0
1983,110.40747,18.800625,0,0,0,0,0,0,0,0,万宁县,Wanning Xian,AI,0,0,0
1984,109.51604,18.769768,0,0,0,0,0,0,0,0,通什市,Tongza Shi,AH,0,0,0
1985,109.1728,18.746597,0,0,0,0,0,0,0,0,乐东黎族自治县,Ledong Lizu Zizhixian,AI,0,0,0
1986,109.69551,18.640591,0,0,0,0,0,0,0,0,保亭黎族苗族自治县,Baoting Lizu Miaozu Zizhixian,AI,0,0,0
1987,110.03392,18.505363,0,0,0,0,0,0,0,0,陵水黎族自治县,Lingshui Lizu Zizhixian,AI,0,0,0
1988,99.91098,24.591814,0,0,0,0,0,0,0,0,凤庆县,Fengqing Xian,AI,0,0,0
1989,98.690384,24.590191,0,0,0,0,0,0,0,0,龙陵县,Longling Xian,AI,0,0,0
1990,112.0734,24.5693,0,0,0,0,0,0,0,0,连山壮族瑶族自治县,Lianshan Zhuangzu Yaozu Zizhixian,AI,0,0,0
1991,115.88982,24.565931,0,0,0,0,0,0,0,0,平远县,Pingyuan Xian,AI,0,0,0
1992,120.8118,24.558176,0,0,0,0,0,0,0,0,苗栗县,Miaoli Hsien,AI,0,0,0
1993,107.0479,24.542965,0,0,0,0,0,0,0,0,凤山县,Fengshan Xian,AI,0,0,0
1994,103.76273,24.531933,0,0,0,0,0,0,0,0,泸西县,Luxi Xian,AI,0,0,0
1995,111.29557,24.526541,0,0,0,0,0,0,0,0,钟山县,Zhongshan Xian,AI,0,0,0
1996,107.37263,24.520552,0,0,0,0,0,0,0,0,东兰县,Donglan Xian,AI,0,0,0
1997,117.36278,24.499714,0,0,0,0,0,0,0,5,南靖县,Nanjing Xian,AI,0,0,0
1998,105.09049,24.497915,0,0,0,0,0,0,0,0,西林县,Xilin Xian,AI,0,0,0
1999,110.3912,24.496014,0,0,0,0,0,0,0,0,荔浦县,Lipu Xian,AI,0,0,0
2000,108.65588,24.49073,0,0,0,0,0,0,0,0,宜山县,Yishan Xian,AI,0,0,0
2001,109.73663,24.485367,0,0,0,0,0,0,0,0,鹿寨县,Luzhai Xian,AI,0,0,0
2002,112.63827,24.485014,0,0,0,0,0,0,0,0,阳山县,Yangshan Xian,AI,0,0,0
2003,100.83629,24.452126,0,0,0,0,0,0,0,0,景东彝族自治县,Jingdong Yizu Zizhixian,AI,0,0,0
2004,100.12767,24.448603,0,0,0,0,0,0,0,0,云县,Yun Xian,AI,0,0,0
2005,102.92768,24.197353,0,0,0,0,0,0,0,0,华宁县,Huaning Xian,AI,0,0,0
2006,113.40208,24.172937,0,0,0,0,0,0,0,0,英德县,Yingde Xian,AI,0,0,0
2007,110.80361,24.169123,0,0,0,0,0,0,0,0,昭平县,Zhaoping Xian,AI,0,0,0
2008,102.39843,24.166214,0,0,0,0,0,0,0,0,峨山彝族自治县,Eshan Yizu Zizhixian,AI,0,0,0
2009,107.24593,24.146502,0,0,0,0,0,0,0,1,巴马瑶族自治县,Bama Yaozu Zizhixian,AI,0,0,0
2010,115.72735,24.138691,0,0,0,0,0,0,0,0,兴宁县,Xingning Xian,AI,2,0,0
2011,110.1803,24.130014,0,0,0,0,0,0,0,0,金秀瑶族自治县,Jinxiu Yaozu Zizhixian,AI,0,0,0
2012,117.61073,24.117096,0,0,0,0,0,0,0,0,漳浦县,Zhangpu Xian,AI,0,0,0
2013,102.75561,24.106071,0,0,0,0,0,0,0,0,通海县,Tonghai Xian,AI,0,0,0
2014,115.25558,24.099714,0,0,0,0,0,0,0,0,龙川县,Longchuan Xian,AI,4,0,0
2015,98.077072,24.08559,0,0,0,0,0,0,0,0,畹町市,Wanding Shi,AH,0,0,0
2016,120.53527,24.076578,0,0,0,0,0,0,0,0,彰化县,Changhua Hsien,AI,0,0,0
2017,101.98972,24.075867,0,0,0,0,0,0,0,0,新平彝族傣族自治县,Xinping Yizu Daizu Zizhixian,AI,0,0,0
2018,108.66047,24.064043,0,0,0,0,0,0,0,0,忻城县,Xincheng Xian,AI,0,0,0
2019,114.20171,24.062494,0,0,0,0,0,0,0,0,新丰县,Xinfeng Xian,AI,0,0,0
2020,105.062,24.052822,0,0,0,0,0,0,0,0,广南县,Guangnan Xian,AI,0,0,0
2021,104.19244,24.048903,0,0,0,0,0,0,0,0,丘北县,Qiubei Xian,AI,0,0,0
2022,106.90867,23.73387,0,0,0,0,0,0,0,0,田阳县,Tianyang Xian,AI,0,0,0
2023,109.23294,23.73144,0,0,0,0,0,0,0,0,来宾县,Laibin Xian,AI,0,0,0
2024,102.48826,23.719015,0,0,0,0,0,0,0,0,石屏县,Shiping Xian,AI,0,0,0
2025,120.53808,23.718073,0,0,0,0,0,0,0,0,云林县,Yunlin Hsien,AI,0,0,0
2026,103.23381,23.714905,0,0,0,0,0,0,0,0,开远市,Kaiyuan Shi,AH,0,0,0
2027,108.17472,23.714365,0,0,0,0,0,0,0,0,马山县,Mashan Xian,AI,0,0,0
2028,117.1749,23.705355,0,0,0,0,0,0,0,0,诏安县,Zhao'an Xian,AI,0,0,0
2029,117.42554,23.699547,0,0,0,0,0,0,0,0,东山县,Dongshan Xian,AI,0,0,0
2030,117.00357,23.676125,0,0,0,0,0,0,0,0,饶平县,Raoping Xian,AI,0,0,0
2031,116.63666,23.667706,0,0,0,0,0,0,0,0,潮州市,Chaozhou Shi,AH,0,0,0
2032,115.17306,23.643053,0,0,0,0,0,0,0,0,紫金县,Zijin Xian,AI,0,0,0
2033,112.43132,23.642736,0,0,0,0,0,0,0,0,广宁县,Guangning Xian,AI,0,0,0
2034,105.61179,23.631229,0,0,0,0,0,0,0,7,富宁县,Funing Xian,AI,0,0,0
2035,102.82231,23.624552,0,0,0,0,0,0,0,0,建水县,Jianshui Xian,AI,0,0,0
2036,104.33221,23.613071,0,0,0,0,0,0,0,0,砚山县,Yanshan Xian,AI,0,0,0
2037,107.11416,23.605627,0,0,0,0,0,0,0,0,田东县,Tiandong Xian,AI,0,0,0
2038,102.00642,23.604008,0,0,0,0,0,0,0,0,元江哈尼族彝族傣族自治县,Yuanjiang Hanizu Yizu Daizu Zizhixian,AI,0,0,0
2039,114.27361,23.172247,0,0,0,0,0,0,0,0,博罗县,Boluo Xian,AI,0,0,0
2040,102.74272,23.168028,0,0,0,0,0,0,0,0,元阳县,Yuanyang Xian,AI,4,0,0
2041,108.27629,23.166767,0,0,0,0,0,0,0,0,武鸣县,Wuming Xian,AI,0,0,0
2042,112.88607,23.165869,0,0,0,0,0,0,0,0,三水县,Sanshui Xian,AI,0,0,0
2043,99.245209,23.15312,0,0,0,0,0,0,0,0,沧源佤族自治县,Cangyuan Vazu Zizhixian,AI,8,0,0
2044,111.77102,23.146791,0,0,0,0,0,0,0,0,德庆县,Deqing Xian,AI,0,0,0
2045,106.41589,23.142054,0,0,0,0,0,0,0,0,靖西县,Jingxi Xian,AI,0,0,0
2046,104.69151,23.122219,0,0,0,0,0,0,0,0,麻栗坡县,Malipo Xian,AI,0,0,0
2047,109.60844,23.099092,0,0,0,0,0,0,0,0,贵港市,Guigang Shi,AH,0,0,0
2048,107.1324,23.084743,0,0,0,0,0,0,0,0,天等县,Tiandeng Xian,AI,0,0,0
2049,101.03731,23.066851,0,0,0,0,0,0,0,0,普洱哈尼族彝族自治县,Pu'er Hanizu Yizu Zizhixian,AI,0,0,0
2050,112.45316,23.056921,0,0,0,0,0,0,0,0,高要县,Gaoyao Xian,AI,0,0,0
2051,116.28851,23.039129,0,0,0,0,0,0,0,0,惠来县,Huilai Xian,AI,0,0,0
2052,104.38785,23.012882,0,0,0,0,0,0,0,0,马关县,Maguan Xian,AI,0,0,0
2053,102.40181,23.000284,0,0,0,0,0,0,0,0,绿春县,Luchun Xian,AI,0,0,3
2054,114.71233,22.98782,0,0,0,0,0,0,0,0,惠东县,Huidong Xian,AI,0,0,0
2055,103.67921,22.986122,0,0,0,0,0,0,0,0,屏边苗族自治县,Pingbian Miaozu Zizhixian,AI,0,0,0
2056,110.34752,22.714184,0,0,0,0,0,0,1,0,北流县,Beiliu Xian,AI,0,0,0
2057,112.22508,22.702915,0,0,0,0,0,0,2,0,新兴县,Xinxing Xian,AI,0,0,0
2058,109.26704,22.692957,0,0,0,0,0,0,3,0,横县,Heng Xian,AI,0,0,0
2059,120.48507,22.682482,0,0,0,0,0,0,4,0,屏东县,Pingtung Hsien,AI,0,0,0
2060,107.90538,22.643337,0,0,0,0,0,0,6,0,扶绥县,Fusui Xian,AI,0,0,0
2061,120.35958,22.631378,0,0,0,0,0,0,0,0,高雄县,Kaosiung Hsien,AI,0,0,0
2062,101.8624,22.592894,0,0,0,0,0,0,0,0,江城哈尼族彝族自治县,Jiangcheng Hanizu Yizu Zizhixian,AI,8,0,0
2063,113.87607,22.576672,0,0,0,0,0,0,0,0,宝安县,Bao'an Xian,AI,0,0,0
2064,99.929688,22.565054,0,0,0,0,0,0,0,0,澜沧拉祜族自治县,Lancang Lahuzu Zizhixian,AI,0,0,0
2065,113.0384,22.526581,0,0,0,0,0,0,0,0,新会县,Xinhui Xian,AI,0,0,0
2066,103.95923,22.518724,0,0,0,0,0,0,0,0,河口瑶族自治县,Hekou Yaozu Zizhixian,AI,0,0,4
2067,109.28741,22.434591,0,0,0,0,0,0,0,0,灵山县,Lingshan Xian,AI,0,0,0
2068,107.35506,22.420197,0,0,0,0,0,0,0,0,崇左县,Chongzuo Xian,AI,0,0,0
2069,112.69155,22.37538,0,0,0,0,0,0,0,0,开平县,Kaiping Xian,AI,0,0,0
2070,110.9388,22.363495,0,0,0,0,0,0,0,0,信宜县,Xinyi Xian,AI,0,0,0
2071,106.85036,22.351665,0,0,0,0,0,0,0,0,龙州县,Longzhou Xian,AI,0,0,0
2072,99.591957,22.34,0,0,0,0,0,0,0,0,孟连傣族拉祜族佤族自治县,Menglian Daizu Lahuzu Vazu Zizhixian,AI,0,0,0
2073,101.56248,21.490648,0,0,0,0,0,0,0,0,勐腊县,Mengla Xian,AI,0,0,0
2074,110.77861,21.44651,0,0,0,0,0,0,0,0,吴川县,Wuchuan Xian,AI,0,0,0
2075,110.25089,21.38298,0,0,0,0,0,0,0,0,遂溪县,Suixi Xian,AI,0,0,0
2076,110.08791,20.901958,0,0,0,0,0,0,0,0,海康县,Haikang Xian,AI,0,0,0
2077,110.16278,20.329676,0,0,0,0,0,0,0,0,徐闻县,Xuwen Xian,AI,0,0,0
2078,110.35794,20.008165,0,0,0,0,0,0,0,0,琼山县,Qiongshan Xian,AI,0,0,0
2079,109.68616,19.91807,0,0,0,0,0,0,0,0,临高县,Lingao Xian,AI,0,0,0
2080,110.01385,19.741013,0,0,0,0,0,0,0,0,澄迈县,Chengmai Xian,AI,0,0,0
2081,110.31812,19.702471,0,0,0,0,0,0,0,0,定安县,Ding'an Xian,AI,0,0,0
2082,110.7559,19.620953,0,0,0,0,0,0,0,0,文昌县,Wenchang Xian,AI,0,0,0
2083,109.5755,19.518486,0,0,0,0,0,0,0,0,儋县,Dan Xian,AI,0,0,0
2084,110.09362,19.364178,0,0,0,0,0,0,0,0,屯昌县,Tunchang Xian,AI,0,0,0
2085,109.04832,19.258587,0,0,0,0,0,0,0,0,昌江黎族自治县,Changjiang Lizu Zizhixian,AI,7,0,0
2086,110.46297,19.246944,0,0,0,0,0,0,0,0,琼海县,Qionghai Xian,AI,0,0,0
2087,109.44775,19.235895,0,0,0,0,0,0,0,0,白沙黎族自治县,Baisha Lizu Zizhixian,AI,0,0,0
2088,108.63303,19.097265,0,0,0,0,0,0,0,0,东方黎族自治县,Dongfang Lizu Zizhixian,AI,0,0,0
2089,109.84006,19.04796,0,0,0,0,0,0,0,0,琼中黎族苗族自治县,Qiongzhong Lizu Miaozu Zizhixian,AI,0,0,0
